{"type":"FeatureCollection","name":"Airport_10","crs":{"type":"name","properties":{"name":"urn:ogc:def:crs:OGC:1.3:CRS84"}},"features":[{"type":"Feature","properties":{"Aerodrome":"Velana International Airport","Aerodrome_":"Maldives Airports Company Ltd.","Code":"4E","Four_Lette":"VRMM","Three_lett":"MLE","x":"04 11 30 N","y":"73 31 45 E","lat":4.19167,"long_":73.52917,"Internatio":1},"geometry":{"type":"Point","coordinates":[73.53104457979373,4.196838783073908]}},{"type":"Feature","properties":{"Aerodrome":"Gan International Airport","Aerodrome_":"Addu International Airport Pvt.Ltd","Code":"4E","Four_Lette":"VRMG","Three_lett":"GAN","x":"00 41 36 S","y":"73 09 20 E","lat":-0.69333,"long_":73.15556,"Internatio":1},"geometry":{"type":"Point","coordinates":[73.15555555555652,-0.69333333333332]}},{"type":"Feature","properties":{"Aerodrome":"Hanimaadhoo International Airport","Aerodrome_":"Regional Airports Company Limited","Code":"2C","Four_Lette":"VRMH","Three_lett":"HAQ","x":"06 44 46 N","y":"73 10 06 E","lat":6.74611,"long_":73.16833,"Internatio":1},"geometry":{"type":"Point","coordinates":[73.16833333333408,6.746111111111095]}},{"type":"Feature","properties":{"Aerodrome":"Kaadedhdhoo Airport","Aerodrome_":"Regional Airports Company Limited","Code":"2C","Four_Lette":"VRMT","Three_lett":"KDM","x":"00 29 18 N","y":"72 59 46 E","lat":0.48833,"long_":72.99611,"Internatio":0},"geometry":{"type":"Point","coordinates":[72.99611111111278,0.488333333333338]}},{"type":"Feature","properties":{"Aerodrome":"Kadhdhoo Airport","Aerodrome_":"Kahdhoo Airports Company Ltd.","Code":"2C","Four_Lette":"VRMK","Three_lett":"KDO","x":"01 51 30 N","y":"73 31 10 E","lat":1.85833,"long_":73.51944,"Internatio":0},"geometry":{"type":"Point","coordinates":[73.51944444444466,1.858333333333347]}},{"type":"Feature","properties":{"Aerodrome":"Villa International Airport","Aerodrome_":"Villa Shipping and Trading Company Pvt. Ltd.","Code":"3C","Four_Lette":"VRMV","Three_lett":"VAM","x":"03 28 14 N","y":"72 50 43 E","lat":3.47056,"long_":72.84528,"Internatio":1},"geometry":{"type":"Point","coordinates":[72.83480378295391,3.470665475729263]}},{"type":"Feature","properties":{"Aerodrome":"Fuvahmulah Airport","Aerodrome_":"Regional Airports Company Limited","Code":"2C","Four_Lette":"VRMR","Three_lett":"FVM","x":"00 18 35 S","y":"73 25 59 E","lat":-0.30972,"long_":73.43306,"Internatio":0},"geometry":{"type":"Point","coordinates":[73.43305555555587,-0.309722222222224]}},{"type":"Feature","properties":{"Aerodrome":"Dharavandhoo Airport","Aerodrome_":"Island Aviation Services Ltd.","Code":"2C","Four_Lette":"VRMD","Three_lett":"DRV","x":"05 09 22 N","y":"73 07 49 E","lat":5.15611,"long_":73.13028,"Internatio":0},"geometry":{"type":"Point","coordinates":[73.1302777777787,5.15611111111112]}},{"type":"Feature","properties":{"Aerodrome":"Koodoo Airport","Aerodrome_":"Pristine Islands Investment (Maldives) Pvt.Ltd","Code":"3C","Four_Lette":"VRMO","Three_lett":"GKK","x":"00 44 00 N","y":"73 26 03 E","lat":0.73333,"long_":73.43417,"Internatio":0},"geometry":{"type":"Point","coordinates":[73.43416666666698,0.733333333333352]}},{"type":"Feature","properties":{"Aerodrome":"Thimarafushi Airport","Aerodrome_":"Island Aviation Services Ltd.","Code":"2C","Four_Lette":"VRNT","Three_lett":"TMF","x":"02 12 39 N","y":"73 09 11 E","lat":2.21083,"long_":73.15306,"Internatio":0},"geometry":{"type":"Point","coordinates":[73.1530555555565,2.210833333333324]}},{"type":"Feature","properties":{"Aerodrome":"Ifuru Airport","Aerodrome_":"Island Aviation Services Ltd.","Code":"2C","Four_Lette":"VREI","Three_lett":"IFU","x":"05 42 30 N","y":"73 01 30 E","lat":5.70833,"long_":73.025,"Internatio":0},"geometry":{"type":"Point","coordinates":[73.02500000000134,5.708333333333323]}},{"type":"Feature","properties":{"Aerodrome":"Dhaalu Airport","Aerodrome_":"Dhaalu Airport Holdings Pvt. Ltd","Code":"3C","Four_Lette":"VRMU","Three_lett":"DDD","x":"02 39 58 N","y":"72 53 11 E","lat":2.66611,"long_":72.88639,"Internatio":0},"geometry":{"type":"Point","coordinates":[72.88638888889128,2.666111111111117]}},{"type":"Feature","properties":{"Aerodrome":"Kulhudhuffushi Airport","Aerodrome_":"Regional Airports Company Limited","Code":"2C","Four_Lette":"VRBK","Three_lett":"HDK","x":"06 37 51 N","y":"73 04 04 E","lat":6.63083,"long_":73.06778,"Internatio":0},"geometry":{"type":"Point","coordinates":[73.06777777777886,6.630833333333317]}},{"type":"Feature","properties":{"Aerodrome":"Maafaru International Airport","Aerodrome_":"Island Aviation Services Ltd.","Code":"4D","Four_Lette":"VRDA","Three_lett":"NMF","x":"05 49 06 N","y":"73 28 11 E","lat":5.81833,"long_":73.46972,"Internatio":1},"geometry":{"type":"Point","coordinates":[73.46972222222244,5.81833333333337]}},{"type":"Feature","properties":{"Aerodrome":"Funadhoo Airport","Aerodrome_":"Regional Airports Company Limited","Code":"2C","Four_Lette":"VRCF","Three_lett":"FND","x":"06 09 45 N","y":"73 17 15 E","lat":6.1625,"long_":73.2875,"Internatio":0},"geometry":{"type":"Point","coordinates":[73.28750000000048,6.1625]}},{"type":"Feature","properties":{"Aerodrome":"Maavarulu Airport","Aerodrome_":"Regional Airports Company Limited","Code":"2C","Four_Lette":"VRQM","Three_lett":"RUL","x":"00 20 17 N","y":"73 30 46 E","lat":0.33806,"long_":73.51278,"Internatio":0},"geometry":{"type":"Point","coordinates":[73.512777777778,0.338055555555552]}},{"type":"Feature","properties":{"Aerodrome":"Hoarafushi Airport","Aerodrome_":"Regional Airports Company Limited","Code":"2C","Four_Lette":"VRAH","Three_lett":"HRF","x":"06 58 10 N","y":"72 53 47 E","lat":6.96944,"long_":72.89639,"Internatio":0},"geometry":{"type":"Point","coordinates":[72.89638888889077,6.969444444444447]}},{"type":"Feature","properties":{"Aerodrome":"Madivaru Airport","Aerodrome_":"Island Aviation Services Ltd.","Code":"2C","Four_Lette":"VRGD","Three_lett":"LMV","x":"05 27 28 N","y":"73 22 13 E","lat":5.45778,"long_":73.37028,"Internatio":0},"geometry":{"type":"Point","coordinates":[73.37027777777814,5.457777777777791]}},{"type":"Feature","properties":{"Aerodrome":"Faresmaathoda Airport","Aerodrome_":"Regional Airports Company Limited","Code":"2C","Four_Lette":"VRQF","Three_lett":"FMT","x":"00 11 33 N","y":"73 11 50 E","lat":0.1925,"long_":73.19723,"Internatio":0},"geometry":{"type":"Point","coordinates":[73.19722897737252,0.19249913194207]}}]}