{"type":"FeatureCollection","name":"Hotels_14","crs":{"type":"name","properties":{"name":"urn:ogc:def:crs:OGC:1.3:CRS84"}},"features":[{"type":"Feature","properties":{"fcode":"LD0168","lng":72.70956,"lat":3.6978,"Name":"Fiyavalhu Maldives","Address":"Council Plot","atoll_isla":"ADh.Mandhoo"},"geometry":{"type":"Point","coordinates":[72.711251260004,3.696003215999966]}},{"type":"Feature","properties":{"fcode":"LD0235","lng":73.1754,"lat":6.76133,"Name":"The Barefoot Eco Hotel","Address":null,"atoll_isla":"HDh.Hanimaadhoo"},"geometry":{"type":"Point","coordinates":[73.17939507000071,6.772816215]}},{"type":"Feature","properties":{"fcode":"LD0298","lng":73.02421,"lat":5.70781,"Name":"Ifuru Island Maldives","Address":"Ifuru, Raa Atoll","atoll_isla":"R.Ifuru"},"geometry":{"type":"Point","coordinates":[73.02209621787162,5.708732089093902]}},{"type":"Feature","properties":{"fcode":"LD0442","lng":73.50949,"lat":4.17422,"Name":"Hotel Flora","Address":"H. Heyn Beyn, Violet Goalhi","atoll_isla":"MLE.Male'"},"geometry":{"type":"Point","coordinates":[73.5141848453514,4.176245560584213]}},{"type":"Feature","properties":{"fcode":"LD0443","lng":73.43356,"lat":0.73348,"Name":"Mercure Maldives Kooddoo","Address":null,"atoll_isla":"GA.Kooddoo"},"geometry":{"type":"Point","coordinates":[73.43271096930033,0.728618278034008]}},{"type":"Feature","properties":{"fcode":"LD0591","lng":73.54316,"lat":4.22295,"Name":"Hulhule Island Hotel","Address":null,"atoll_isla":"MLE.Hulhule"},"geometry":{"type":"Point","coordinates":[73.52616400472002,4.194559281896158]}},{"type":"Feature","properties":{"fcode":"LD0888","lng":73.15356,"lat":-0.6941,"Name":"Equator Village","Address":null,"atoll_isla":"S.Gan"},"geometry":{"type":"Point","coordinates":[73.14690614725154,-0.687083340909593]}},{"type":"Feature","properties":{"fcode":"LD0894","lng":73.71446,"lat":4.44299,"Name":"Stone Hotels Dhiffushi","Address":"Asseyri, Keyolhube Hingun","atoll_isla":"K.Dhiffushi"},"geometry":{"type":"Point","coordinates":[73.71216927189427,4.439947387687074]}},{"type":"Feature","properties":{"fcode":"LD1041","lng":73.11369,"lat":5.23382,"Name":"Amilla Fushi","Address":null,"atoll_isla":"B.Finolhas"},"geometry":{"type":"Point","coordinates":[73.11368970570098,5.233820151909989]}},{"type":"Feature","properties":{"fcode":"LD1079","lng":73.53842,"lat":3.48766,"Name":"Ecoboo Maldives","Address":"1. Mala  & 2. Asseyri","atoll_isla":"V.Thinadhoo"},"geometry":{"type":"Point","coordinates":[73.5391122145947,3.488789053772051]}},{"type":"Feature","properties":{"fcode":"LD0442","lng":73.50949,"lat":4.17422,"Name":"Maagiri Hotel","Address":"H. MaagiriBoduthakurufaanu MaguMale', Republic of Maldives","atoll_isla":"MLE.Male'"},"geometry":{"type":"Point","coordinates":[73.51715494362362,4.177445219037128]}},{"type":"Feature","properties":{"fcode":"LD0442","lng":73.50949,"lat":4.17422,"Name":"Hotel Jen Male', Maldives","Address":"H. Athireege","atoll_isla":"MLE.Male'"},"geometry":{"type":"Point","coordinates":[73.51362325800605,4.178017594407492]}},{"type":"Feature","properties":{"fcode":"LD0442","lng":73.50949,"lat":4.17422,"Name":"Manhattan Business Hotel","Address":"FHTS Building, The Maldives National University, Falhumathee Magu","atoll_isla":"MLE.Male'"},"geometry":{"type":"Point","coordinates":[73.50897375879484,4.170449473662074]}},{"type":"Feature","properties":{"fcode":"LD0442","lng":73.50949,"lat":4.17422,"Name":"Mookai Hotel","Address":"H. Maagala Meheli Goalhi","atoll_isla":"MLE.Male'"},"geometry":{"type":"Point","coordinates":[73.51697620673343,4.177126853414793]}},{"type":"Feature","properties":{"fcode":"LD0442","lng":73.50949,"lat":4.17422,"Name":"Champa Central Hotel","Address":"G. Champa Central Villa, Rahdhebai Magu","atoll_isla":"MLE.Male'"},"geometry":{"type":"Point","coordinates":[73.51020366404593,4.174193166586463]}}]}