{"type":"FeatureCollection","name":"Mosque_17","crs":{"type":"name","properties":{"name":"urn:ogc:def:crs:OGC:1.3:CRS84"}},"features":[{"type":"Feature","properties":{"OBJECTID":"1","PARCEL_NAM":"Masjidhul Thaqvaa"},"geometry":{"type":"Point","coordinates":[73.51415088454216,4.176108505975651]}},{"type":"Feature","properties":{"OBJECTID":"2","PARCEL_NAM":"Hukuru Miskiy"},"geometry":{"type":"Point","coordinates":[73.51236426393962,4.177997329540217]}},{"type":"Feature","properties":{"OBJECTID":"3","PARCEL_NAM":"Haivakaru Miskiy"},"geometry":{"type":"Point","coordinates":[73.51124391519173,4.176977819253209]}},{"type":"Feature","properties":{"OBJECTID":"4","PARCEL_NAM":"Masjidhul Afeefuhdheen"},"geometry":{"type":"Point","coordinates":[73.51567022125434,4.174302135463453]}},{"type":"Feature","properties":{"OBJECTID":"5","PARCEL_NAM":"Masjidhul Shaheedh Ali"},"geometry":{"type":"Point","coordinates":[73.51529787605308,4.171951574509989]}},{"type":"Feature","properties":{"OBJECTID":"6","PARCEL_NAM":"Masjidhu Iskandharu"},"geometry":{"type":"Point","coordinates":[73.51546526293244,4.177753511364995]}},{"type":"Feature","properties":{"OBJECTID":"7","PARCEL_NAM":"Masjidhul Noor"},"geometry":{"type":"Point","coordinates":[73.51755596965526,4.17605958157857]}},{"type":"Feature","properties":{"OBJECTID":"8","PARCEL_NAM":"Ibrahimee Miskyth"},"geometry":{"type":"Point","coordinates":[73.51449972189722,4.174529742051036]}},{"type":"Feature","properties":{"OBJECTID":"9","PARCEL_NAM":"Masjidh'ul Sultaan Adil"},"geometry":{"type":"Point","coordinates":[73.51349700291708,4.174894066893191]}},{"type":"Feature","properties":{"OBJECTID":"10","PARCEL_NAM":"Dharumavantha Rasgefaanu Miskiy"},"geometry":{"type":"Point","coordinates":[73.51170261383027,4.177422797868084]}},{"type":"Feature","properties":{"OBJECTID":"11","PARCEL_NAM":"Masjidhul Mohamed Imadhudheen"},"geometry":{"type":"Point","coordinates":[73.51323969383972,4.176716951719898]}},{"type":"Feature","properties":{"OBJECTID":"12","PARCEL_NAM":"Bihoroaz Kamaneaa Miskyth"},"geometry":{"type":"Point","coordinates":[73.51060792877973,4.175896860549559]}},{"type":"Feature","properties":{"OBJECTID":"13","PARCEL_NAM":"Masjidhul Salaahudheen"},"geometry":{"type":"Point","coordinates":[73.51160023827164,4.17470840220629]}},{"type":"Feature","properties":{"OBJECTID":"14","PARCEL_NAM":"Fan'diyaaru Miskith"},"geometry":{"type":"Point","coordinates":[73.50670757705548,4.176105312682677]}},{"type":"Feature","properties":{"OBJECTID":"15","PARCEL_NAM":"Masjidhul Bahaauddeen"},"geometry":{"type":"Point","coordinates":[73.50636049792796,4.173876768435809]}},{"type":"Feature","properties":{"OBJECTID":"16","PARCEL_NAM":"Eid Miskyth"},"geometry":{"type":"Point","coordinates":[73.50416339709159,4.174835587889615]}},{"type":"Feature","properties":{"OBJECTID":"17","PARCEL_NAM":"Masjidh Sultan Hassan Izzudheen"},"geometry":{"type":"Point","coordinates":[73.50378597553942,4.17659847103084]}},{"type":"Feature","properties":{"OBJECTID":"18","PARCEL_NAM":"Masjidhul Sultan Mohamed Bin Abdulla"},"geometry":{"type":"Point","coordinates":[73.50269552915,4.1724278345051]}},{"type":"Feature","properties":{"OBJECTID":"19","PARCEL_NAM":"Masjidhul Furgaan"},"geometry":{"type":"Point","coordinates":[73.51152680578952,4.171082142089893]}},{"type":"Feature","properties":{"OBJECTID":"0","PARCEL_NAM":"King Salman Mosque"},"geometry":{"type":"Point","coordinates":[73.51824922410106,4.176951249126107]}}]}