{"type":"FeatureCollection","name":"runway_7","crs":{"type":"name","properties":{"name":"urn:ogc:def:crs:OGC:1.3:CRS84"}},"features":[{"type":"Feature","properties":{"OBJECTID":"1","Shape_Leng":5516.4721,"Shape_Area":132134.46441},"geometry":{"type":"MultiPolygon","coordinates":[[[[73.13635707655992,-0.69000933755322],[73.14396987337628,-0.691167204147202],[73.14399274099256,-0.691091744091966],[73.14402098714716,-0.691018153157018],[73.14405446294674,-0.690946819260803],[73.14409351285252,-0.690904153282014],[73.14413679617424,-0.690865849585277],[73.14418383462773,-0.69083233143004],[73.14423410843419,-0.690803969195258],[73.14428706206391,-0.69078107628652],[73.14434211037484,-0.690763905672968],[73.14439954581675,-0.690754093082531],[73.14445772790704,-0.690751125442171],[73.1445158544641,-0.690755043668729],[73.1445731240719,-0.690765793740514],[73.14462874712933,-0.690783227442409],[73.14468195673682,-0.69080710440887],[73.14473738366505,-0.690849311461385],[73.14478939339482,-0.690895717047793],[73.14483767287803,-0.690946041852173],[73.1448819315189,-0.69099998296867],[73.14492190292322,-0.691057215724772],[73.14499819756979,-0.691152103239339],[73.14507985390777,-0.691242355278164],[73.14516659457085,-0.69132766527573],[73.14520540608467,-0.691359499385818],[73.14524718216462,-0.691387271819887],[73.14529150497617,-0.691410704804153],[73.14533793121296,-0.69142956396701],[73.14538599653049,-0.691443660682943],[73.14540651803988,-0.691448117816817],[73.14550865011074,-0.691470300215336],[73.14551869323734,-0.69147250582991],[73.14567485711285,-0.691509646655232],[73.15483316336724,-0.692921448782247],[73.15503498892308,-0.692933107792899],[73.15532874438536,-0.692938965033218],[73.15538299706893,-0.692928987156799],[73.15543556756349,-0.692912204479158],[73.15548561718832,-0.692888884741245],[73.1555323474792,-0.692859399972756],[73.15557501292669,-0.692824220556873],[73.15560760089903,-0.692786600255162],[73.15563599271718,-0.692745678500712],[73.15565986083887,-0.692701927387122],[73.15567892990948,-0.69265585164892],[73.15569297993873,-0.692607982838775],[73.15572534238882,-0.692505595590665],[73.15575962029088,-0.692353736204741],[73.15576323298784,-0.692243336219134],[73.15576447957021,-0.692092607836699],[73.15574551002976,-0.691978955627299],[73.15571226700055,-0.691899989397903],[73.15565288048533,-0.691821012938813],[73.15559823531893,-0.691773141119818],[73.15551863547437,-0.691724063275914],[73.15540694444778,-0.691690524263992],[73.15529525204312,-0.691660574034829],[73.15473626998615,-0.691548192716551],[73.15424538297877,-0.691472520487579],[73.15442214386329,-0.690310530854687],[73.16038978228096,-0.691230460402956],[73.16011710432656,-0.693038086292126],[73.16010380702618,-0.693279263922022],[73.1601040932357,-0.693333319972405],[73.1601105074767,-0.693386989767211],[73.16012296588931,-0.693439571625167],[73.16014130559209,-0.693490378088555],[73.16016528681116,-0.693538744911336],[73.16019459601542,-0.693584039743185],[73.16022885001524,-0.693625670397133],[73.16026760097257,-0.69366309259175],[73.16031034225578,-0.693695817067059],[73.16035651506348,-0.693723415981244],[73.1605048026335,-0.693769410569899],[73.16070490420573,-0.69380976312716],[73.16095923048613,-0.693865808706481],[73.16752680426339,-0.694878223215314],[73.16746561746893,-0.695280453402462],[73.16740705473572,-0.695490103092191],[73.1673795488731,-0.695539428122001],[73.16734676678247,-0.695585369515182],[73.16730911480029,-0.695627357825118],[73.16726705962571,-0.695664872603967],[73.16722112253584,-0.695697448853695],[73.16717187292424,-0.695724682789931],[73.1671199212435,-0.695746236846512],[73.16706591143841,-0.695761843859953],[73.16701051296428,-0.695771310380837],[73.16695201411018,-0.695771475244711],[73.1668938673149,-0.6957650221637],[73.16683680903704,-0.695752032870055],[73.16678156194841,-0.695732671880279],[73.16672882578102,-0.695707184411717],[73.16667926846468,-0.695675893276466],[73.16663351766734,-0.695639194792939],[73.16659215284531,-0.695597553766282],[73.16655569790433,-0.695551497601116],[73.16648333023544,-0.695451238403548],[73.16640604192133,-0.695354772590072],[73.16635742989983,-0.695295844409874],[73.1663055841721,-0.695239778957954],[73.1662506707923,-0.695186755802943],[73.16613330935468,-0.69511506875231],[73.16605962043062,-0.695093372201458],[73.16580117707113,-0.695023874246599],[73.13804894550509,-0.690804313856633],[73.13714568592077,-0.691138906885909],[73.13621410082975,-0.690975849203383],[73.13635707655992,-0.69000933755322]],[[73.15934481274809,-0.693585050785807],[73.15940003443168,-0.693590264230899],[73.15945548853212,-0.69358920911219],[73.15951047507482,-0.693581898747438],[73.15956429998694,-0.693568425411827],[73.15961628385824,-0.693548959173287],[73.15966577051717,-0.693523745745753],[73.15971213531338,-0.693493103387665],[73.15975479300246,-0.69345741888484],[73.15979320513334,-0.693417142668072],[73.1598268868449,-0.693372783127594],[73.1598583654278,-0.693304834392396],[73.1598836536214,-0.693234313906262],[73.15990254697037,-0.693161791828051],[73.15993258213636,-0.693044922560061],[73.15993288891544,-0.693042955341707],[73.15993689028095,-0.693017296614007],[73.15994432183315,-0.692775125087975],[73.15992773625962,-0.692642333333111],[73.15988499743649,-0.692534652894503],[73.15980422701548,-0.692438920231946],[73.15971274905166,-0.692375482507618],[73.15961888379512,-0.692339557915058],[73.15950243772224,-0.692309605815739],[73.15941332169714,-0.692284449453134],[73.15916035876609,-0.692230182550415],[73.15912892650645,-0.692225337159251],[73.15694346664047,-0.691888440662929],[73.15674506414223,-0.691873627200705],[73.15659177371052,-0.691859212094347],[73.15645868185229,-0.691853178717502],[73.15637193344264,-0.691851948515531],[73.15627091663556,-0.691872245431056],[73.15619603639624,-0.691910496487615],[73.15611401964671,-0.691965492402341],[73.15603911630532,-0.692063556493187],[73.15599272250012,-0.692189145740422],[73.15593741800511,-0.692379707793193],[73.15592293969871,-0.692474884829723],[73.15592191045329,-0.692585818891801],[73.15592334255089,-0.692672524448958],[73.15592874323654,-0.692728371939282],[73.15593951864214,-0.69278342498155],[73.15595556642097,-0.692837160670421],[73.15597673414818,-0.69288906861311],[73.15601446412086,-0.69293924683489],[73.15605742415919,-0.692984965496337],[73.15610509785628,-0.693025675029277],[73.15615691214403,-0.693060886078418],[73.15621224418153,-0.693090175383629],[73.15627042884215,-0.693113190867939],[73.15633076670875,-0.693129655869594],[73.15668808845811,-0.693207394092641],[73.15890975896521,-0.693549874305462],[73.15910810258472,-0.693564860861187],[73.15934481274809,-0.693585050785807]]]]}},{"type":"Feature","properties":{"OBJECTID":"3","Shape_Leng":6586.16652,"Shape_Area":149236},"geometry":{"type":"MultiPolygon","coordinates":[[[[73.53068677955889,4.213664106981077],[73.53132312348092,4.213672489373328],[73.53134413223955,4.180753936176348],[73.53067683692305,4.180743112159814],[73.53068677955889,4.213664106981077]]]]}},{"type":"Feature","properties":{"OBJECTID":"4","Shape_Leng":2546.05551,"Shape_Area":37590},"geometry":{"type":"MultiPolygon","coordinates":[[[[73.52324942270343,1.865148187457641],[73.52361508709375,1.864974214549498],[73.52350750416359,1.864745279610351],[73.5233471935962,1.864721508123419],[73.51880566693563,1.855057197321457],[73.5184400056862,1.855231170509577],[73.518547588114,1.855460104794025],[73.51870789753045,1.855483875997786],[73.52324942270343,1.865148187457641]]]]}},{"type":"Feature","properties":{"OBJECTID":"5","Shape_Leng":2546.98571,"Shape_Area":37515},"geometry":{"type":"MultiPolygon","coordinates":[[[[72.99751764318833,0.48293733365471],[72.99742369551446,0.483152555034136],[72.99751451456129,0.483281618652407],[72.99332658631131,0.492875499060185],[72.9932326373103,0.493090719245751],[72.99360265405859,0.493254413063999],[72.99369660309283,0.493039192833767],[72.9936057849651,0.492910128925144],[72.99788766146816,0.483101025361162],[72.99751764318833,0.48293733365471]]]]}},{"type":"Feature","properties":{"OBJECTID":"6","Shape_Leng":2546.05551,"Shape_Area":37650},"geometry":{"type":"MultiPolygon","coordinates":[[[[73.43826487508142,-0.311054247056543],[73.43814618508051,-0.311443287738658],[73.42766933854575,-0.308203842018855],[73.42778802769736,-0.30781480322698],[73.42804565444223,-0.307894461415157],[73.4280919669795,-0.308050693770678],[73.43788180771439,-0.311077715644374],[73.4380072470379,-0.310974588336347],[73.43826487508142,-0.311054247056543]]]]}},{"type":"Feature","properties":{"OBJECTID":"7","Shape_Leng":2502.41153,"Shape_Area":37440.9625},"geometry":{"type":"MultiPolygon","coordinates":[[[[73.43413425836549,0.738318506996342],[73.43454810623372,0.727972810770015],[73.43414429945116,0.727956434233883],[73.43412977468064,0.728319116982606],[73.43425888842262,0.728460013008454],[73.43407971438162,0.732936778770833],[73.43407770126771,0.73294801643425],[73.43407384407547,0.732958754916975],[73.43406825206597,0.732968689876764],[73.43406108372267,0.732977539746404],[73.43405254220394,0.732985053711292],[73.43404286958551,0.732991018817654],[73.43403233999955,0.732995266008213],[73.43402125186567,0.732997674913072],[73.43400991943331,0.732998177261354],[73.4337408230622,0.73298726356071],[73.4337291757839,0.732985760329432],[73.43371796462507,0.732982244385631],[73.43370753007903,0.732976822511836],[73.43369818905272,0.732969659375518],[73.43369022524179,0.732960972527772],[73.43368388051461,0.732951025796292],[73.4336793475664,0.732940121272715],[73.43367676406704,0.732928590137441],[73.43367620847977,0.732916782601934],[73.43368692532566,0.732645718616171],[73.43330989422276,0.732630432224337],[73.43326350703826,0.733786915630868],[73.43326360866301,0.733786919752442],[73.43326360095551,0.733787112329576],[73.43362887279578,0.733801926777676],[73.43393391224892,0.733814298340286],[73.43397718600879,0.733816053403593],[73.43398794417367,0.733817367722995],[73.43399835388595,0.733820401195016],[73.43400814587233,0.733825075351287],[73.43401706683848,0.73383126928307],[73.4340248860213,0.733838822768812],[73.43403140115795,0.733847540418691],[73.4340364437181,0.733857196728847],[73.43403988326324,0.73386754191459],[73.4340416308209,0.733878308371733],[73.43404180327482,0.733881189497676],[73.43404184757928,0.733882872576826],[73.43384480520102,0.73880574834592],[73.43424889163204,0.738822149474334],[73.43426341870901,0.738459454906246],[73.43413425836549,0.738318506996342]],[[73.43372469631873,0.733123213777551],[73.43373526183925,0.733122806514967],[73.43400449364522,0.733133725725964],[73.43401575005112,0.733135144352868],[73.43402661050375,0.733138443854352],[73.43403676715957,0.733143530704817],[73.43404593212445,0.733150260715632],[73.43405384561405,0.733158443122212],[73.43406028331755,0.733167845991259],[73.43406506275585,0.733178202794896],[73.43406804845397,0.733189219965772],[73.43406915578119,0.733200585218079],[73.43405240441295,0.733619113885195],[73.43404846198244,0.733636415857563],[73.4340440133772,0.733646050324665],[73.4340381248391,0.733654867317435],[73.43403094083916,0.733662650517492],[73.43402263763154,0.733669208969694],[73.43401341892934,0.733674381767256],[73.43400351090669,0.733678041999418],[73.43399315664968,0.733680099865076],[73.43398261019232,0.733680504876036],[73.4337133783594,0.733669585593161],[73.43370172850953,0.733668081793492],[73.43369051505262,0.733664564400114],[73.43368007870389,0.733659140287283],[73.43367073656648,0.733651974263878],[73.43366277249652,0.733643284065952],[73.43365642847817,0.733633333740798],[73.43365189727119,0.733622425623959],[73.43364931655398,0.733610891153093],[73.4336487647403,0.733599080797118],[73.43366522323277,0.733187850210732],[73.43366647645591,0.733177281601676],[73.43366935661294,0.733167040461878],[73.43367379278483,0.733157378962208],[73.43367967573829,0.733148535000722],[73.4336868606155,0.733140726345251],[73.43369517050101,0.733134145270674],[73.43370440077784,0.733128953824905],[73.43371432416599,0.733125279838612],[73.43372469631873,0.733123213777551]]]]}},{"type":"Feature","properties":{"OBJECTID":"9","Shape_Leng":2545.41817,"Shape_Area":37548.61645},"geometry":{"type":"MultiPolygon","coordinates":[[[[73.16670084681252,6.74123669671147],[73.17155791236208,6.750758255002758],[73.17192101738101,6.750573245903105],[73.17180613056588,6.750347724150588],[73.17164851458885,6.750338792687676],[73.16679072958003,6.740815825469054],[73.16642609548317,6.741001710679912],[73.16653723149923,6.741219580086945],[73.16670084681252,6.74123669671147]]]]}},{"type":"Feature","properties":{"OBJECTID":"10","Shape_Leng":2503.88541,"Shape_Area":37456.41541},"geometry":{"type":"MultiPolygon","coordinates":[[[[73.13505803527286,5.153666754482842],[73.13472813449319,5.153812914786847],[73.13465907981384,5.153991785138625],[73.1252144747519,5.158176043801587],[73.12536613544471,5.158553721719481],[73.1257084343931,5.158402027175217],[73.125777408569,5.15822319763262],[73.13521547244923,5.154041824390589],[73.13522208962716,5.154038898710234],[73.13505803527286,5.153666754482842]]]]}},{"type":"Feature","properties":{"OBJECTID":"0","Shape_Leng":0,"Shape_Area":0},"geometry":{"type":"MultiPolygon","coordinates":[[[[72.89372824533461,6.974151786913428],[72.89905340997304,6.965239576774986],[72.89923541547375,6.965221251007741],[72.8994668704224,6.964849151390738],[72.89908490276255,6.964617836357941],[72.89373119552094,6.973491652534105],[72.8935587620388,6.973510017874864],[72.89328878358664,6.973929776682891],[72.89372824533461,6.974151786913428]]]]}},{"type":"Feature","properties":{"OBJECTID":"0","Shape_Leng":0,"Shape_Area":0},"geometry":{"type":"MultiPolygon","coordinates":[[[[73.06282298000313,6.633232569765308],[73.0724190241751,6.628820612149964],[73.072581253194,6.628936064394726],[73.07292648513672,6.628746035219566],[73.07276533393814,6.628353100621829],[73.06318851421365,6.632746006676112],[73.0630453134336,6.632659331310893],[73.06265226819407,6.632839596463817],[73.06282298000313,6.633232569765308]]]]}},{"type":"Feature","properties":{"OBJECTID":"0","Shape_Leng":0,"Shape_Area":0},"geometry":{"type":"MultiPolygon","coordinates":[[[[73.28864631531785,6.16789373338298],[73.28683342020085,6.157753513238201],[73.28693911832131,6.157591166400742],[73.28686403720626,6.157150715554948],[73.28642393193508,6.157235430328812],[73.28827494383256,6.167414051039733],[73.28815971227718,6.167566797249519],[73.28822538540591,6.167959369311775],[73.28864631531785,6.16789373338298]]]]}},{"type":"Feature","properties":{"OBJECTID":"0","Shape_Leng":0,"Shape_Area":0},"geometry":{"type":"MultiPolygon","coordinates":[[[[73.46136801573168,5.813121284225327],[73.47774619729879,5.824373046351598],[73.47805309139618,5.823971902670643],[73.46212294219303,5.81313291132518],[73.46206643558423,5.812826494855421],[73.46173258690955,5.812595888696467],[73.46136801573168,5.813121284225327]]]]}},{"type":"Feature","properties":{"OBJECTID":"0","Shape_Leng":0,"Shape_Area":0},"geometry":{"type":"MultiPolygon","coordinates":[[[[73.37002306841691,5.45176811858896],[73.37028831586781,5.463176747778509],[73.370154095447,5.46336779127546],[73.3701530863899,5.463741033839529],[73.37058289814611,5.463723059825202],[73.37035613206484,5.452209259120348],[73.37048061816989,5.452085181173074],[73.37047199739054,5.451740623519336],[73.37002306841691,5.45176811858896]]]]}},{"type":"Feature","properties":{"OBJECTID":"0","Shape_Leng":0,"Shape_Area":0},"geometry":{"type":"MultiPolygon","coordinates":[[[[73.02455998827958,5.713698670921338],[73.02576076042837,5.703368783824524],[73.02590440459844,5.703264022820243],[73.02596302700259,5.70288148251159],[73.02551429916392,5.702812963103599],[73.02436112553438,5.713190855090923],[73.0242462666565,5.713257439661864],[73.02419709376396,5.713668717000587],[73.02455998827958,5.713698670921338]]]]}},{"type":"Feature","properties":{"OBJECTID":"0","Shape_Leng":0,"Shape_Area":0},"geometry":{"type":"MultiPolygon","coordinates":[[[[72.8261606118598,3.470257440195574],[72.84186890693572,3.471250373044002],[72.84210646789954,3.471461412706247],[72.84281097651235,3.471501299515751],[72.84286916995543,3.471032602870955],[72.82726566843613,3.470011226588558],[72.82690433446884,3.469799899826685],[72.82620933472695,3.469769592098736],[72.8261606118598,3.470257440195574]]]]}},{"type":"Feature","properties":{"OBJECTID":"0","Shape_Leng":0,"Shape_Area":0},"geometry":{"type":"MultiPolygon","coordinates":[[[[72.87795043978223,2.667032262929993],[72.89405785837465,2.665575338728944],[72.89434644245007,2.665797552865394],[72.89468907131936,2.665740731597936],[72.89462331388991,2.665243061425628],[72.87857919491111,2.666574074249207],[72.87839859667183,2.666468509881579],[72.87790371946272,2.666534630192819],[72.87795043978223,2.667032262929993]]]]}},{"type":"Feature","properties":{"OBJECTID":"0","Shape_Leng":0,"Shape_Area":0},"geometry":{"type":"MultiPolygon","coordinates":[[[[73.14917039667434,2.207063428945664],[73.15645777027612,2.214460554979592],[73.15644807970149,2.214604092475825],[73.15670464934057,2.21483409290831],[73.15703798633629,2.214528270647187],[73.14976957426332,2.207179018214459],[73.1497887896453,2.207025923230653],[73.14950369522431,2.206786317964834],[73.14917039667434,2.207063428945664]]]]}},{"type":"Feature","properties":{"OBJECTID":"0","Shape_Leng":0,"Shape_Area":0},"geometry":{"type":"MultiPolygon","coordinates":[[[[73.50826974383924,0.334909487709286],[73.51657875933573,0.340931456797152],[73.51660725388112,0.341122898399587],[73.51693049055315,0.341343101356413],[73.51718726100421,0.340979410482026],[73.50884972785906,0.334900004744972],[73.50881172224453,0.334727706069939],[73.508545528197,0.334545800654551],[73.50826974383924,0.334909487709286]]]]}},{"type":"Feature","properties":{"OBJECTID":"0","Shape_Leng":0,"Shape_Area":0},"geometry":{"type":"MultiPolygon","coordinates":[[[[73.19186703121161,0.193732762431913],[73.20196294054082,0.191714501390407],[73.20212453820369,0.191810221942904],[73.20250479854647,0.191743269727022],[73.20242878976003,0.191341307070605],[73.19237090566935,0.193340434482496],[73.19219980271664,0.193244713197809],[73.19180052982867,0.193330803029316],[73.19186703121161,0.193732762431913]]]]}}]}