{"type":"FeatureCollection","name":"AtollCapital_13","crs":{"type":"name","properties":{"name":"urn:ogc:def:crs:OGC:1.3:CRS84"}},"features":[{"type":"Feature","properties":{"atoll":"Alifu Alifu","islandName":"Rasdhoo","V01":"1282","V02":"527","V03":"755"},"geometry":{"type":"Point","coordinates":[72.99184971953008,4.263065683534271]}},{"type":"Feature","properties":{"atoll":"Baa","islandName":"Eydhafushi","V01":"2581","V02":"1287","V03":"1294"},"geometry":{"type":"Point","coordinates":[73.0706404966391,5.10260052040761]}},{"type":"Feature","properties":{"atoll":"Dhaalu","islandName":"Kudahuvadhoo","V01":"3131","V02":"1484","V03":"1647"},"geometry":{"type":"Point","coordinates":[72.89301781982752,2.670702585932016]}},{"type":"Feature","properties":{"atoll":"Faafu","islandName":"Nilandhoo","V01":"1823","V02":"876","V03":"947"},"geometry":{"type":"Point","coordinates":[72.8889908295272,3.056927820655816]}},{"type":"Feature","properties":{"atoll":"Gaafu Alifu","islandName":"Vilin'gili","V01":"2900","V02":"1315","V03":"1585"},"geometry":{"type":"Point","coordinates":[73.43536740543406,0.756508526110595]}},{"type":"Feature","properties":{"atoll":"Gaafu Dhaalu","islandName":"Thinadhoo","V01":"6217","V02":"2987","V03":"3230"},"geometry":{"type":"Point","coordinates":[72.99731603214545,0.532468024238838]}},{"type":"Feature","properties":{"atoll":"Haa Alifu","islandName":"Dhihdhoo","V01":"3412","V02":"1767","V03":"1645"},"geometry":{"type":"Point","coordinates":[73.11067671821407,6.891801606138429]}},{"type":"Feature","properties":{"atoll":"Haa Dhaalu","islandName":"Kulhudhuffushi","V01":"10131","V02":"5206","V03":"4925"},"geometry":{"type":"Point","coordinates":[73.06911805665534,6.623258209623017]}},{"type":"Feature","properties":{"atoll":"Laamu","islandName":"Fonadhoo","V01":"2986","V02":"1407","V03":"1579"},"geometry":{"type":"Point","coordinates":[73.49962578163154,1.831658051616144]}},{"type":"Feature","properties":{"atoll":"Lhaviyani","islandName":"Naifaru","V01":"4832","V02":"2278","V03":"2554"},"geometry":{"type":"Point","coordinates":[73.36521764308462,5.444457441918367]}},{"type":"Feature","properties":{"atoll":"Meemu","islandName":"Muli","V01":"949","V02":"399","V03":"550"},"geometry":{"type":"Point","coordinates":[73.58120657771033,2.917955402514952]}},{"type":"Feature","properties":{"atoll":"Noonu","islandName":"Manadhoo","V01":"1745","V02":"758","V03":"987"},"geometry":{"type":"Point","coordinates":[73.41096074055926,5.764836666971759]}},{"type":"Feature","properties":{"atoll":"Raa","islandName":"Un'goofaaru","V01":"1754","V02":"846","V03":"908"},"geometry":{"type":"Point","coordinates":[73.02978154630313,5.668414987614917]}},{"type":"Feature","properties":{"atoll":"Seenu","islandName":"Hithadhoo","V01":"13759","V02":"6001","V03":"7758"},"geometry":{"type":"Point","coordinates":[73.09350332156389,-0.61612557941046]}},{"type":"Feature","properties":{"atoll":"Shaviyani","islandName":"Funadhoo","V01":"2255","V02":"1115","V03":"1140"},"geometry":{"type":"Point","coordinates":[73.28967430960607,6.152454631285786]}},{"type":"Feature","properties":{"atoll":"Thaa","islandName":"Veymandoo","V01":"1321","V02":"621","V03":"700"},"geometry":{"type":"Point","coordinates":[73.09509867479174,2.186920146707131]}},{"type":"Feature","properties":{"atoll":"Vaavu","islandName":"Felidhoo","V01":"620","V02":"254","V03":"366"},"geometry":{"type":"Point","coordinates":[73.5471985905867,3.471952679585549]}},{"type":"Feature","properties":{"atoll":"Gnaviyani","islandName":"Fuvahmulah","V01":"9177","V02":"4267","V03":"4910"},"geometry":{"type":"Point","coordinates":[73.42474194849272,-0.295694733876283]}},{"type":"Feature","properties":{"atoll":"Kaafu","islandName":"Thulusdhoo","V01":"1801","V02":"613","V03":"1188"},"geometry":{"type":"Point","coordinates":[73.64804526259952,4.372975340478489]}},{"type":"Feature","properties":{"atoll":"MLE","islandName":"Maale","V01":"138053","V02":"55212","V03":"82841"},"geometry":{"type":"Point","coordinates":[73.5094934621712,4.174223213892863]}},{"type":"Feature","properties":{"atoll":"Alifu Dhaalu","islandName":"Mahibadhoo","V01":"2580","V02":"1122","V03":"1458"},"geometry":{"type":"Point","coordinates":[72.96903617130774,3.757224313632383]}}]}