{"type":"FeatureCollection","name":"causeway_1","crs":{"type":"name","properties":{"name":"urn:ogc:def:crs:OGC:1.3:CRS84"}},"features":[{"type":"Feature","properties":{"OBJECTID":"1","Shape_Leng":739.3397,"Shape_Area":4636.70802},"geometry":{"type":"MultiPolygon","coordinates":[[[[73.14183436865648,-0.685430206775094],[73.14190251445203,-0.68533474654918],[73.14450423246743,-0.687216870381232],[73.14443608649486,-0.687312330712171],[73.14183436865648,-0.685430206775094]]]]}},{"type":"Feature","properties":{"OBJECTID":"2","Shape_Leng":33.91644,"Shape_Area":71.53085},"geometry":{"type":"MultiPolygon","coordinates":[[[[73.12991968027397,-0.676622667504153],[73.12994253985929,-0.676553720061042],[73.12995182426512,-0.676557205035136],[73.13001859314168,-0.676579638536486],[73.1299958426001,-0.676648257089671],[73.12991968027397,-0.676622667504153]]]]}},{"type":"Feature","properties":{"OBJECTID":"3","Shape_Leng":176.32174,"Shape_Area":781.60872},"geometry":{"type":"MultiPolygon","coordinates":[[[[73.11447022122317,-0.658541080568526],[73.11439013377763,-0.658582026535926],[73.11407221766922,-0.657951879649173],[73.11415230507785,-0.657910933665141],[73.11447022122317,-0.658541080568526]]]]}},{"type":"Feature","properties":{"OBJECTID":"4","Shape_Leng":165.8992,"Shape_Area":729.49601},"geometry":{"type":"MultiPolygon","coordinates":[[[[73.10963485251163,-0.65366774694433],[73.10929707735697,-0.653102504459902],[73.1093740476762,-0.653055892931173],[73.10971182286646,-0.653621135426585],[73.10963485251163,-0.65366774694433]]]]}},{"type":"Feature","properties":{"OBJECTID":"0","Shape_Leng":0,"Shape_Area":0},"geometry":{"type":"MultiPolygon","coordinates":[[[[73.51680342119661,4.170396939505044],[73.51725132203813,4.170474357299738],[73.51792790418796,4.170609635295313],[73.51856637321637,4.170735269416631],[73.51909191156757,4.170868251303449],[73.51939533883633,4.170947405273194],[73.52000512056063,4.171120841263772],[73.52068154337339,4.171342259592145],[73.5214796576863,4.171638468160375],[73.522567606992,4.172121099054865],[73.52345008883593,4.172545482798899],[73.52409885962193,4.17289965031888],[73.52495795595543,4.173417741020905],[73.52544386709108,4.17371575217527],[73.52601489746229,4.174070586075418],[73.52651955446555,4.174387392096407],[73.52703376274306,4.174694644452174],[73.5276336075925,4.175088200420448],[73.52827160284326,4.175472256355535],[73.52870006947705,4.175750632723263],[73.5287574277801,4.175664597477209],[73.5284019174822,4.175396312461928],[73.5280053039669,4.175136755881929],[73.52731025412834,4.174676021192073],[73.52654849244347,4.174205589329732],[73.52546803429182,4.173536333407069],[73.52409323665373,4.172720175613536],[73.5226155577058,4.171968046775357],[73.52157523271777,4.171507041453606],[73.5206818477924,4.171179546273223],[73.51990211645183,4.170917637465644],[73.51946145607401,4.170791181244411],[73.51887158642667,4.170649703169117],[73.5181664769333,4.170476086454686],[73.51769863738744,4.170381067972118],[73.51711825679934,4.170263535200824],[73.51679415758814,4.170253351156937],[73.51680342119661,4.170396939505044]]]]}},{"type":"Feature","properties":{"OBJECTID":"0","Shape_Leng":0,"Shape_Area":0},"geometry":{"type":"MultiPolygon","coordinates":[[[[73.54627208750419,4.222065363563114],[73.54641518073711,4.222017774446513],[73.54617853254132,4.221108037810333],[73.5460449374716,4.221174787756586],[73.54627208750419,4.222065363563114]]]]}},{"type":"Feature","properties":{"OBJECTID":"0","Shape_Leng":0,"Shape_Area":0},"geometry":{"type":"MultiPolygon","coordinates":[[[[73.5436678782697,4.222883622510533],[73.54381098950888,4.222826462524249],[73.54352674808926,4.221878350666618],[73.54340273993468,4.221916403576373],[73.5436678782697,4.222883622510533]]]]}},{"type":"Feature","properties":{"OBJECTID":"0","Shape_Leng":0,"Shape_Area":0},"geometry":{"type":"MultiPolygon","coordinates":[[[[73.54099703833151,4.223644316430708],[73.54114013187319,4.223596728502454],[73.5410654901626,4.222725583208163],[73.54091286320157,4.222773153225575],[73.54099703833151,4.223644316430708]]]]}},{"type":"Feature","properties":{"OBJECTID":"0","Shape_Leng":0,"Shape_Area":0},"geometry":{"type":"MultiPolygon","coordinates":[[[[73.53989995770395,4.224025108535072],[73.54004305132045,4.223977520857511],[73.53977770324495,4.223125159436472],[73.53962502251068,4.223201443467364],[73.53989995770395,4.224025108535072]]]]}}]}