{"type":"FeatureCollection","name":"GovernmentOffice_18","crs":{"type":"name","properties":{"name":"urn:ogc:def:crs:OGC:1.3:CRS84"}},"features":[{"type":"Feature","properties":{"officeNa_1":"Maldives Land and Survey Authority","oaddress":null,"ocontact":null,"email":null},"geometry":{"type":"Point","coordinates":[73.50351022426847,4.171832070491398]}},{"type":"Feature","properties":{"officeNa_1":"Ministry of Housing, Land and Urban Development","oaddress":null,"ocontact":null,"email":null},"geometry":{"type":"Point","coordinates":[73.5038721779484,4.171987816673932]}},{"type":"Feature","properties":{"officeNa_1":"Ministry of Climate Change, Environment and Energy","oaddress":null,"ocontact":null,"email":null},"geometry":{"type":"Point","coordinates":[73.50399260302504,4.171823419480421]}},{"type":"Feature","properties":{"officeNa_1":"Maldives Police Service","oaddress":null,"ocontact":null,"email":null},"geometry":{"type":"Point","coordinates":[73.51178531919393,4.178916846692379]}},{"type":"Feature","properties":{"officeNa_1":"President's Office","oaddress":null,"ocontact":null,"email":null},"geometry":{"type":"Point","coordinates":[73.51260084563712,4.178674326539629]}},{"type":"Feature","properties":{"officeNa_1":"Maldives National Defence Force","oaddress":null,"ocontact":null,"email":null},"geometry":{"type":"Point","coordinates":[73.5115052526887,4.178303746970416]}},{"type":"Feature","properties":{"officeNa_1":"Ministry of Foreign Affairs","oaddress":null,"ocontact":null,"email":null},"geometry":{"type":"Point","coordinates":[73.51416016657522,4.178313574922673]}},{"type":"Feature","properties":{"officeNa_1":"Muleeaage","oaddress":null,"ocontact":null,"email":null},"geometry":{"type":"Point","coordinates":[73.51248885809846,4.177396336078359]}},{"type":"Feature","properties":{"officeNa_1":"People's Majilis","oaddress":null,"ocontact":null,"email":null},"geometry":{"type":"Point","coordinates":[73.51359008231607,4.177307498753715]}},{"type":"Feature","properties":{"officeNa_1":"Ministry of Health","oaddress":null,"ocontact":null,"email":null},"geometry":{"type":"Point","coordinates":[73.51527351764446,4.176846479798577]}},{"type":"Feature","properties":{"officeNa_1":"Supreme Court","oaddress":null,"ocontact":null,"email":null},"geometry":{"type":"Point","coordinates":[73.50888218839253,4.179097964322591]}},{"type":"Feature","properties":{"officeNa_1":"Maldives Bureau of Statistics","oaddress":null,"ocontact":null,"email":null},"geometry":{"type":"Point","coordinates":[73.5022330810482,4.176101052770755]}},{"type":"Feature","properties":{"officeNa_1":"Ministry of Tourism","oaddress":null,"ocontact":null,"email":null},"geometry":{"type":"Point","coordinates":[73.51309938918708,4.178016045263695]}},{"type":"Feature","properties":{"officeNa_1":"Ministry of Finance and Treasury","oaddress":null,"ocontact":null,"email":null},"geometry":{"type":"Point","coordinates":[73.50797724716124,4.171372160980787]}},{"type":"Feature","properties":{"officeNa_1":"Island Aviation Services Limited","oaddress":null,"ocontact":null,"email":null},"geometry":{"type":"Point","coordinates":[73.50222880641869,4.176058428878092]}},{"type":"Feature","properties":{"officeNa_1":"Supreme Council for Islamic Fatwa","oaddress":null,"ocontact":null,"email":null},"geometry":{"type":"Point","coordinates":[73.50223272538075,4.17612830703977]}},{"type":"Feature","properties":{"officeNa_1":"Maldives Food & Drug Authority","oaddress":null,"ocontact":null,"email":null},"geometry":{"type":"Point","coordinates":[73.51522585183493,4.176889183133367]}},{"type":"Feature","properties":{"officeNa_1":"Environmental Protection Agency","oaddress":null,"ocontact":null,"email":null},"geometry":{"type":"Point","coordinates":[73.50397283827756,4.171758192406566]}},{"type":"Feature","properties":{"officeNa_1":"Health Protection Agency","oaddress":null,"ocontact":null,"email":null},"geometry":{"type":"Point","coordinates":[73.53839716246337,4.213416595402699]}},{"type":"Feature","properties":{"officeNa_1":"Ministry of Education","oaddress":null,"ocontact":null,"email":null},"geometry":{"type":"Point","coordinates":[73.51293435999231,4.178175974218873]}},{"type":"Feature","properties":{"officeNa_1":"Ministry of Economic Development and Trade","oaddress":null,"ocontact":null,"email":null},"geometry":{"type":"Point","coordinates":[73.51291897657025,4.178245337440903]}},{"type":"Feature","properties":{"officeNa_1":"Ministry of Transport and Civil Aviation","oaddress":null,"ocontact":null,"email":null},"geometry":{"type":"Point","coordinates":[73.53837299185223,4.213469350533296]}},{"type":"Feature","properties":{"officeNa_1":"Ministry of Islamic Affairs","oaddress":null,"ocontact":null,"email":null},"geometry":{"type":"Point","coordinates":[73.5104040179756,4.178205101385753]}},{"type":"Feature","properties":{"officeNa_1":"Ministry of Fisheries and Ocean Resources","oaddress":null,"ocontact":null,"email":null},"geometry":{"type":"Point","coordinates":[73.51289015801687,4.178096262457549]}},{"type":"Feature","properties":{"officeNa_1":"Ministry of Sports, Fitness and Recreation","oaddress":null,"ocontact":null,"email":null},"geometry":{"type":"Point","coordinates":[73.5131689413847,4.178125984515115]}},{"type":"Feature","properties":{"officeNa_1":"Ministry of Higher Education, Labour and Skill Development","oaddress":"Umar Zahir Office Building, 5th Floor, 11602","ocontact":"1474","email":"admin@mohe.gov.mv"},"geometry":{"type":"Point","coordinates":[73.53854404765416,4.213515701283301]}},{"type":"Feature","properties":{"officeNa_1":"Maldives Civil Aviation Authority","oaddress":null,"ocontact":null,"email":null},"geometry":{"type":"Point","coordinates":[73.51304708041651,4.178145922797556]}}]}