{"type":"FeatureCollection","name":"GuestHouse_15","crs":{"type":"name","properties":{"name":"urn:ogc:def:crs:OGC:1.3:CRS84"}},"features":[{"type":"Feature","properties":{"Name":"Green Flora","Address":"Shima","Rooms":17},"geometry":{"type":"Point","coordinates":[73.48511491382457,4.174633664535405]}},{"type":"Feature","properties":{"Name":"Octave","Address":"Ma. Jambuma, Kaaminee Magu","Rooms":14},"geometry":{"type":"Point","coordinates":[73.50761892202729,4.174696741684614]}},{"type":"Feature","properties":{"Name":"Araam View","Address":"Hulhumale' Lot. No. 10788","Rooms":19},"geometry":{"type":"Point","coordinates":[73.54377048190146,4.211757965837577]}},{"type":"Feature","properties":{"Name":"Vinorva","Address":"Block no: 31","Rooms":29},"geometry":{"type":"Point","coordinates":[73.48689805420867,4.174410611898488]}},{"type":"Feature","properties":{"Name":"White Beach Holiday","Address":"Hulhumale Lot No. 10124, Dhiggaamagu","Rooms":7},"geometry":{"type":"Point","coordinates":[73.54532371281613,4.216258630724018]}},{"type":"Feature","properties":{"Name":"The Somerset Guesthouse","Address":"M. Melaa, Keneree Magu","Rooms":30},"geometry":{"type":"Point","coordinates":[73.50957403995353,4.177586042593488]}},{"type":"Feature","properties":{"Name":"Summer Beach","Address":"H. Campus Beach, Boduthakurufaanu Magu","Rooms":28},"geometry":{"type":"Point","coordinates":[73.5178026680263,4.174556618034883]}},{"type":"Feature","properties":{"Name":"Tourist Inn Grand","Address":"Ma. Maaraa, Gulaabee Magu","Rooms":8},"geometry":{"type":"Point","coordinates":[73.50701736775974,4.173895411180053]}},{"type":"Feature","properties":{"Name":"Sala Boutique Residence","Address":"H. Buruneege, Hithahfinivaa Magu","Rooms":5},"geometry":{"type":"Point","coordinates":[73.51345143369198,4.176654571347553]}},{"type":"Feature","properties":{"Name":"Star Shell","Address":"Hulhumale', Lot no: 1106","Rooms":15},"geometry":{"type":"Point","coordinates":[73.54196940400648,4.207360559264158]}},{"type":"Feature","properties":{"Name":"Marble","Address":"M. Marble","Rooms":30},"geometry":{"type":"Point","coordinates":[73.50281536252554,4.176891828555357]}},{"type":"Feature","properties":{"Name":"Blue Sky Beach","Address":"Hulhumale' Lot no: 10996 Kaani Magu","Rooms":0},"geometry":{"type":"Point","coordinates":[73.54319733031843,4.209171826040953]}},{"type":"Feature","properties":{"Name":"Tour Inn","Address":"Kalmia","Rooms":6},"geometry":{"type":"Point","coordinates":[73.5140633350577,4.174856226929831]}},{"type":"Feature","properties":{"Name":"H78 Veli","Address":"Hulhumale' Lot No. 11078, Kaani Magu,","Rooms":22},"geometry":{"type":"Point","coordinates":[73.54255911895288,4.207235189341818]}},{"type":"Feature","properties":{"Name":"Unima Grand","Address":"H. Unima Fehi,  Roashanee Magu","Rooms":39},"geometry":{"type":"Point","coordinates":[73.51769697092149,4.175775009668439]}},{"type":"Feature","properties":{"Name":"Ezmeralda Maldives","Address":"Hulhumale' Plot No. 10590, Hithigas Magu","Rooms":10},"geometry":{"type":"Point","coordinates":[73.54326845114417,4.220667020257025]}},{"type":"Feature","properties":{"Name":"Rivethi Beach Boutique","Address":"Hulhumale’ Lot No. 11070","Rooms":15},"geometry":{"type":"Point","coordinates":[73.54275265839925,4.207870120541842]}},{"type":"Feature","properties":{"Name":"The Beehive","Address":"M. Baheej Palace","Rooms":33},"geometry":{"type":"Point","coordinates":[73.5030106216806,4.174120297297662]}},{"type":"Feature","properties":{"Name":"Noovila Grand","Address":"Hulhumale' Lot. No. 11038, Male', Republic of Maldives","Rooms":15},"geometry":{"type":"Point","coordinates":[73.54282534180741,4.208772369820837]}},{"type":"Feature","properties":{"Name":"Dhimyaath Stay","Address":"M. Dhimyaath","Rooms":55},"geometry":{"type":"Point","coordinates":[73.50251856275086,4.172806743043228]}},{"type":"Feature","properties":{"Name":"Tourist Inn","Address":"Ma. Leaves, 03rd - 05th Floor,Maaveyo Goalhi","Rooms":8},"geometry":{"type":"Point","coordinates":[73.50728368203377,4.174125375847953]}},{"type":"Feature","properties":{"Name":"The Park House","Address":"G. Famaas Villa, Lily Magu","Rooms":20},"geometry":{"type":"Point","coordinates":[73.51150385900424,4.17658255803409]}},{"type":"Feature","properties":{"Name":"Off Day Inn","Address":"H. Hiriyaadhoo, Filigas Hingun","Rooms":15},"geometry":{"type":"Point","coordinates":[73.51732264243944,4.174550472163486]}},{"type":"Feature","properties":{"Name":"Champa Moon Guesthouse","Address":"G. Champa Moon","Rooms":13},"geometry":{"type":"Point","coordinates":[73.51161878866175,4.175961223243753]}},{"type":"Feature","properties":{"Name":"Samann Grand","Address":"H. Minaan,  Roashanee Magu","Rooms":26},"geometry":{"type":"Point","coordinates":[73.51758955204212,4.175827322083245]}},{"type":"Feature","properties":{"Name":"Skai Lodge","Address":"H. Mandhu Edhuruge, Violet Magu","Rooms":13},"geometry":{"type":"Point","coordinates":[73.51547384654107,4.176009479635668]}},{"type":"Feature","properties":{"Name":"Zan Lodge","Address":"H. Kanburu Villa, Hiffaseyha Goalhi","Rooms":18},"geometry":{"type":"Point","coordinates":[73.51509860534472,4.177933619532734]}},{"type":"Feature","properties":{"Name":"Marukab Plaza","Address":"1. H. Olive & 2. H. Rihi, Ameer Ahmed Magu","Rooms":40},"geometry":{"type":"Point","coordinates":[73.51685042732493,4.177139955194106]}},{"type":"Feature","properties":{"Name":"The Grand View","Address":"H. Melroze, Dheyliyaa Hingun","Rooms":21},"geometry":{"type":"Point","coordinates":[73.51649913288635,4.174873178817777]}},{"type":"Feature","properties":{"Name":"Avoca Inn","Address":"Avoca, Hulhumale' Lot No. 11058, Nirolhu Magu 19","Rooms":25},"geometry":{"type":"Point","coordinates":[73.54269155844058,4.208593245050683]}},{"type":"Feature","properties":{"Name":"Cocotier Inn","Address":"H. Raalhu Fonu, Filigas Hingun","Rooms":16},"geometry":{"type":"Point","coordinates":[73.51737232489387,4.175209017567773]}},{"type":"Feature","properties":{"Name":"Umet Seaview","Address":"Loajehige","Rooms":11},"geometry":{"type":"Point","coordinates":[73.51695470432337,4.172606970357871]}},{"type":"Feature","properties":{"Name":"Beach Albatross","Address":"Hulhumale', Tho Residence 10053, Dhiggaa Magu","Rooms":15},"geometry":{"type":"Point","coordinates":[73.54593932919668,4.21884502899768]}},{"type":"Feature","properties":{"Name":"The White Harp Inn","Address":"Hulhumale' Lot. No. 11075","Rooms":15},"geometry":{"type":"Point","coordinates":[73.54262876654703,4.207462382131114]}},{"type":"Feature","properties":{"Name":"Vista Beach Retreat","Address":"Hulhumale’ Lot. No 10669","Rooms":12},"geometry":{"type":"Point","coordinates":[73.54393344406341,4.211425032478739]}},{"type":"Feature","properties":{"Name":"Starry Beach Inn","Address":"Hulhumale', Lot No. 10366, PointNayaa, Hirundhu Hingun","Rooms":15},"geometry":{"type":"Point","coordinates":[73.54477554310547,4.214217898510569]}},{"type":"Feature","properties":{"Name":"Hulhu Villa Beach","Address":"Hulhumale', Lot No. 10092","Rooms":12},"geometry":{"type":"Point","coordinates":[73.54543687123497,4.218307141359444]}},{"type":"Feature","properties":{"Name":"Cinque Retreat and Spa","Address":"Hulhumale' Lot No. 10413","Rooms":12},"geometry":{"type":"Point","coordinates":[73.54469368698791,4.215178010210951]}},{"type":"Feature","properties":{"Name":"Ila Grand","Address":"Hulhumale' Lot No. 11118, Nirolhumagu","Rooms":12},"geometry":{"type":"Point","coordinates":[73.54224251340898,4.208280056293033]}},{"type":"Feature","properties":{"Name":"Express Inn","Address":"Hulhumale', 10787","Rooms":15},"geometry":{"type":"Point","coordinates":[73.54378808134744,4.21182030465435]}},{"type":"Feature","properties":{"Name":"Marine Holiday","Address":"Hulhumale' Lot No. 10800, Unigas Magu","Rooms":12},"geometry":{"type":"Point","coordinates":[73.54347683688594,4.210894942425812]}},{"type":"Feature","properties":{"Name":"Rij Hulhumale","Address":"Hulhumale' Lot No. 10056 no:06  Nirolhu Magu","Rooms":10},"geometry":{"type":"Point","coordinates":[73.5456254205143,4.218940277663421]}},{"type":"Feature","properties":{"Name":"The G Ten Holiday Inn","Address":"Villa Rose, Hulhumale' Lot No: 10164, Halaveli Magu","Rooms":8},"geometry":{"type":"Point","coordinates":[73.54502022882585,4.216339164592289]}},{"type":"Feature","properties":{"Name":"Turquoise Residence","Address":"Hulhumale' Lot No. 11054 Nirolhu Magu","Rooms":18},"geometry":{"type":"Point","coordinates":[73.54284127510181,4.208558240159274]}},{"type":"Feature","properties":{"Name":"Sunny Canopy","Address":"Hulhumale' Phase 2 ,Lot 20056, Nirolhu Magu","Rooms":8},"geometry":{"type":"Point","coordinates":[73.54740782321413,4.225381303878682]}},{"type":"Feature","properties":{"Name":"Paralian Hulhumale'","Address":"Hulhumale' Lot. No. 10359, Sheeshaakuri","Rooms":18},"geometry":{"type":"Point","coordinates":[73.54482969628701,4.214470450874921]}},{"type":"Feature","properties":{"Name":"Ocean Grand","Address":"Crystal View, Hulhumale' Lot No. 10717, Kaani Magu","Rooms":30},"geometry":{"type":"Point","coordinates":[73.54370657635658,4.210727326486632]}},{"type":"Feature","properties":{"Name":"Starry View","Address":"Hulhu Male', Lot No. 10841, BadhushaaMahel, Nirolhu Magu","Rooms":8},"geometry":{"type":"Point","coordinates":[73.54302402783442,4.210636553575031]}},{"type":"Feature","properties":{"Name":"Pine Lodge Maldives","Address":"Haasil, Hulhumale' Lot No. 11103, Kelaa Magu","Rooms":12},"geometry":{"type":"Point","coordinates":[73.54220395297988,4.207434600359334]}},{"type":"Feature","properties":{"Name":"Palmscape","Address":"Hulhumale' Lot no. 10106, Dhiggaa Magu","Rooms":10},"geometry":{"type":"Point","coordinates":[73.54549475269725,4.216985173280435]}},{"type":"Feature","properties":{"Name":"Dreams Grand","Address":"Hulhumale' Lot. No. 10467","Rooms":11},"geometry":{"type":"Point","coordinates":[73.54401459879284,4.213105257331817]}},{"type":"Feature","properties":{"Name":"Samann Host","Address":"Hulhumale' Lot. No. 10802","Rooms":12},"geometry":{"type":"Point","coordinates":[73.54343162355133,4.210743800549833]}},{"type":"Feature","properties":{"Name":"Orange Beach House","Address":"Hulhumale' Lot 11027 (Laurestine), Nirolhu Magu","Rooms":25},"geometry":{"type":"Point","coordinates":[73.54274626410842,4.209823460940299]}},{"type":"Feature","properties":{"Name":"Rani Beach","Address":"Eash Villa, Hulhumale' 10135","Rooms":6},"geometry":{"type":"Point","coordinates":[73.54537471724781,4.217578740199294]}},{"type":"Feature","properties":{"Name":"Planktons Beach","Address":"Hulhumale' Lot. No. 10094","Rooms":8},"geometry":{"type":"Point","coordinates":[73.54565190866141,4.217577465220542]}},{"type":"Feature","properties":{"Name":"Lonuveli","Address":"Hulhumale' Lot. No. 10712","Rooms":19},"geometry":{"type":"Point","coordinates":[73.54384990610193,4.211128162161052]}},{"type":"Feature","properties":{"Name":"Ripple Beach Inn","Address":"Hulhumale' Lot No. 10117","Rooms":10},"geometry":{"type":"Point","coordinates":[73.54537301047208,4.216446069591576]}},{"type":"Feature","properties":{"Name":"Acacia Beach","Address":"Hulhumale' Lot No.10402, Maziya","Rooms":24},"geometry":{"type":"Point","coordinates":[73.54432722881339,4.212638840566438]}},{"type":"Feature","properties":{"Name":"Huvan Beach","Address":"Hulhumale' Lot no. 10710, Kaani Magu","Rooms":21},"geometry":{"type":"Point","coordinates":[73.54388623697751,4.211264743698989]}},{"type":"Feature","properties":{"Name":"Contento Retreat","Address":"Hulhumale' Lot no. 10826","Rooms":14},"geometry":{"type":"Point","coordinates":[73.54337915534181,4.211787234235239]}},{"type":"Feature","properties":{"Name":"Niu Inn and Spa","Address":"Hulhumale' Lot. No. 10585","Rooms":8},"geometry":{"type":"Point","coordinates":[73.5433678635672,4.220388337626297]}},{"type":"Feature","properties":{"Name":"Tenglong","Address":"Hulhumale', Lot No. 11068, Kaani Magu","Rooms":11},"geometry":{"type":"Point","coordinates":[73.5428239665419,4.207997079032001]}},{"type":"Feature","properties":{"Name":"Moodhu Koe","Address":"Hulhumale' Lot. No. 10515","Rooms":9},"geometry":{"type":"Point","coordinates":[73.54519684131122,4.220308317833789]}},{"type":"Feature","properties":{"Name":"Sunny Suites Inn","Address":"Veli Muh, Hulhumale' Plot 10107, Dhiggaa Magu","Rooms":7},"geometry":{"type":"Point","coordinates":[73.54548157528069,4.216893980034414]}},{"type":"Feature","properties":{"Name":"Season Holidays","Address":"Hulhumale' Lot. No. 10349","Rooms":12},"geometry":{"type":"Point","coordinates":[73.54495681126828,4.214875802812243]}},{"type":"Feature","properties":{"Name":"Ocean Cove Beach","Address":"\tHulhumale' Lot no. 11085, Kelaa Magu","Rooms":14},"geometry":{"type":"Point","coordinates":[73.54244525619141,4.20760920245675]}},{"type":"Feature","properties":{"Name":"Noo Moo","Address":"Hulhumale' Lot. No. 10075","Rooms":12},"geometry":{"type":"Point","coordinates":[73.54570051980677,4.218736186583747]}},{"type":"Feature","properties":{"Name":"Vilu Rest","Address":"Hulhumale' Lot. No. 11010","Rooms":15},"geometry":{"type":"Point","coordinates":[73.54301705949868,4.209898099916519]}},{"type":"Feature","properties":{"Name":"HS Miracle Grand","Address":"Hulhumale' Lot. no. 10812, Unigas Magu","Rooms":8},"geometry":{"type":"Point","coordinates":[73.54334347859688,4.211042744478317]}},{"type":"Feature","properties":{"Name":"Three Inn","Address":"Hulhumale' Lot. No. 10805","Rooms":20},"geometry":{"type":"Point","coordinates":[73.54336076252926,4.210527710905472]}},{"type":"Feature","properties":{"Name":"Captains Inn and Spa","Address":"Chandhanee Moon,  Hulhumale' Lot No. 10416,  Ahigas Magu","Rooms":4},"geometry":{"type":"Point","coordinates":[73.5446335427971,4.214983474402259]}},{"type":"Feature","properties":{"Name":"White Tern Residence","Address":"Lot no. 10994, Whitetern Residence","Rooms":6},"geometry":{"type":"Point","coordinates":[73.54325362263872,4.209313964413997]}},{"type":"Feature","properties":{"Name":"Beach Grand and Spa Premium","Address":"Hulhumale' Lot No. 10076","Rooms":10},"geometry":{"type":"Point","coordinates":[73.54579996824116,4.218703590656673]}},{"type":"Feature","properties":{"Name":"Dream Sunset Beach and Spa","Address":"Hulhumale' Lot no. 10976  No. 17, Nirolhu Magu","Rooms":20},"geometry":{"type":"Point","coordinates":[73.54326086390022,4.210098122546167]}},{"type":"Feature","properties":{"Name":"New Town Inn","Address":"Hulhumale' Lot No. 10488, Nirolhu Magu","Rooms":10},"geometry":{"type":"Point","coordinates":[73.54381197973488,4.213067036632306]}},{"type":"Feature","properties":{"Name":"Beach Breeze and Spa","Address":"Hulhumale' Lot. no. 10104","Rooms":8},"geometry":{"type":"Point","coordinates":[73.54553622083337,4.217145056746195]}},{"type":"Feature","properties":{"Name":"Club Blu","Address":"Hulhumale' Lot No: 11047, Nirolhu Magu","Rooms":10},"geometry":{"type":"Point","coordinates":[73.54246131209968,4.208954515776008]}},{"type":"Feature","properties":{"Name":"Aina Residency","Address":"Lot 10380, Nirolhu Magu","Rooms":27},"geometry":{"type":"Point","coordinates":[73.54457622617495,4.213507561674255]}},{"type":"Feature","properties":{"Name":"Hathaa Beach Maldives","Address":"Hulhumale' Lot. No. 10711","Rooms":7},"geometry":{"type":"Point","coordinates":[73.54386265171425,4.211195186513719]}},{"type":"Feature","properties":{"Name":"Amber Beach","Address":"Hulhumale' Lot. No. 10997","Rooms":20},"geometry":{"type":"Point","coordinates":[73.54317204655376,4.209092470762345]}},{"type":"Feature","properties":{"Name":"The Hive Beach","Address":"Hulhumale' Lot No. 10358","Rooms":36},"geometry":{"type":"Point","coordinates":[73.54490828058702,4.214698998052667]}},{"type":"Feature","properties":{"Name":"Seasalter Maldives Guest House","Address":"Hulhumale' Lot no. 10041","Rooms":12},"geometry":{"type":"Point","coordinates":[73.54603267962248,4.219231057797448]}},{"type":"Feature","properties":{"Name":"H78","Address":"Hulhumale' Lot. No. 11049","Rooms":15},"geometry":{"type":"Point","coordinates":[73.54296342938966,4.208490511504762]}}]}