{"type":"FeatureCollection","name":"OtherInhabited_12","crs":{"type":"name","properties":{"name":"urn:ogc:def:crs:OGC:1.3:CRS84"}},"features":[{"type":"Feature","properties":{"atoll":"Alifu Alifu","islandName":"Maalhos","V01":"516","V02":"243","V03":"273"},"geometry":{"type":"Point","coordinates":[72.71943482777498,3.986337580597349]}},{"type":"Feature","properties":{"atoll":"Alifu Alifu","islandName":"Mathiveri","V01":"878","V02":"412","V03":"466"},"geometry":{"type":"Point","coordinates":[72.74624596874337,4.191875618970833]}},{"type":"Feature","properties":{"atoll":"Alifu Alifu","islandName":"Feridhoo","V01":"544","V02":"247","V03":"297"},"geometry":{"type":"Point","coordinates":[72.72562792438025,4.051064300731084]}},{"type":"Feature","properties":{"atoll":"Alifu Alifu","islandName":"Bodufolhudhoo","V01":"704","V02":"343","V03":"361"},"geometry":{"type":"Point","coordinates":[72.77339342741485,4.185631893399171]}},{"type":"Feature","properties":{"atoll":"Alifu Alifu","islandName":"Thoddoo","V01":"1924","V02":"791","V03":"1133"},"geometry":{"type":"Point","coordinates":[72.95963353615457,4.43721586235358]}},{"type":"Feature","properties":{"atoll":"Alifu Alifu","islandName":"Himendhoo","V01":"885","V02":"384","V03":"501"},"geometry":{"type":"Point","coordinates":[72.74441597101473,3.920458010686452]}},{"type":"Feature","properties":{"atoll":"Alifu Alifu","islandName":"Ukulhas","V01":"1284","V02":"544","V03":"740"},"geometry":{"type":"Point","coordinates":[72.86425495116441,4.215058363484442]}},{"type":"Feature","properties":{"atoll":"Alifu Dhaalu","islandName":"Omadhoo","V01":"913","V02":"486","V03":"427"},"geometry":{"type":"Point","coordinates":[72.96248678697431,3.79158397790335]}},{"type":"Feature","properties":{"atoll":"Alifu Dhaalu","islandName":"Maamin'gili","V01":"2798","V02":"1162","V03":"1636"},"geometry":{"type":"Point","coordinates":[72.83482650943202,3.47391803293758]}},{"type":"Feature","properties":{"atoll":"Alifu Dhaalu","islandName":"Mandhoo","V01":"418","V02":"154","V03":"264"},"geometry":{"type":"Point","coordinates":[72.7095621794897,3.697794166089551]}},{"type":"Feature","properties":{"atoll":"Alifu Dhaalu","islandName":"Dhan'gethi","V01":"936","V02":"361","V03":"575"},"geometry":{"type":"Point","coordinates":[72.95584938295158,3.607697842231205]}},{"type":"Feature","properties":{"atoll":"Alifu Dhaalu","islandName":"Dhihdhoo","V01":"141","V02":"66","V03":"75"},"geometry":{"type":"Point","coordinates":[72.8767179946903,3.483652618033359]}},{"type":"Feature","properties":{"atoll":"Alifu Dhaalu","islandName":"Fenfushi","V01":"1000","V02":"416","V03":"584"},"geometry":{"type":"Point","coordinates":[72.78372833594176,3.489406464636221]}},{"type":"Feature","properties":{"atoll":"Alifu Dhaalu","islandName":"Kun'burudhoo","V01":"509","V02":"250","V03":"259"},"geometry":{"type":"Point","coordinates":[72.92521960561334,3.775583526140797]}},{"type":"Feature","properties":{"atoll":"Alifu Dhaalu","islandName":"Dhigurah","V01":"761","V02":"266","V03":"495"},"geometry":{"type":"Point","coordinates":[72.92732903559171,3.532669100204619]}},{"type":"Feature","properties":{"atoll":"Alifu Dhaalu","islandName":"Hangnaameedhoo","V01":"484","V02":"215","V03":"269"},"geometry":{"type":"Point","coordinates":[72.95526357321583,3.84923968847958]}},{"type":"Feature","properties":{"atoll":"Baa","islandName":"Kudarikilu","V01":"557","V02":"217","V03":"340"},"geometry":{"type":"Point","coordinates":[73.07088380974257,5.300393754518208]}},{"type":"Feature","properties":{"atoll":"Baa","islandName":"Kendhoo","V01":"1002","V02":"469","V03":"533"},"geometry":{"type":"Point","coordinates":[73.01016652518813,5.275379643879251]}},{"type":"Feature","properties":{"atoll":"Baa","islandName":"Kamadhoo","V01":"552","V02":"214","V03":"338"},"geometry":{"type":"Point","coordinates":[73.13690789639452,5.281999711823872]}},{"type":"Feature","properties":{"atoll":"Baa","islandName":"Kihaadhoo","V01":"481","V02":"221","V03":"260"},"geometry":{"type":"Point","coordinates":[73.12505400360064,5.215064020007694]}},{"type":"Feature","properties":{"atoll":"Baa","islandName":"Dhonfanu","V01":"398","V02":"211","V03":"187"},"geometry":{"type":"Point","coordinates":[73.12285099975891,5.187851959938548]}},{"type":"Feature","properties":{"atoll":"Baa","islandName":"Dharavandhoo","V01":"997","V02":"438","V03":"559"},"geometry":{"type":"Point","coordinates":[73.13102724425539,5.157289626581659]}},{"type":"Feature","properties":{"atoll":"Baa","islandName":"Maalhos","V01":"572","V02":"289","V03":"283"},"geometry":{"type":"Point","coordinates":[73.10776516569835,5.134678058049265]}},{"type":"Feature","properties":{"atoll":"Baa","islandName":"Hithaadhoo","V01":"744","V02":"364","V03":"380"},"geometry":{"type":"Point","coordinates":[72.92297461982892,5.007197668605087]}},{"type":"Feature","properties":{"atoll":"Baa","islandName":"Thulhaadhoo","V01":"1625","V02":"809","V03":"816"},"geometry":{"type":"Point","coordinates":[72.84117705294703,5.021793565712962]}},{"type":"Feature","properties":{"atoll":"Baa","islandName":"Goidhoo","V01":"583","V02":"283","V03":"300"},"geometry":{"type":"Point","coordinates":[72.99889675660576,4.873077661884774]}},{"type":"Feature","properties":{"atoll":"Baa","islandName":"Fehendhoo","V01":"198","V02":"83","V03":"115"},"geometry":{"type":"Point","coordinates":[72.9732335381117,4.88052128626765]}},{"type":"Feature","properties":{"atoll":"Baa","islandName":"Fulhadhoo","V01":"341","V02":"128","V03":"213"},"geometry":{"type":"Point","coordinates":[72.93194084206917,4.885301577422573]}},{"type":"Feature","properties":{"atoll":"Dhaalu","islandName":"Ban'didhoo","V01":"629","V02":"275","V03":"354"},"geometry":{"type":"Point","coordinates":[72.99036983541119,2.936599334751942]}},{"type":"Feature","properties":{"atoll":"Dhaalu","islandName":"Maaen'boodhoo","V01":"679","V02":"337","V03":"342"},"geometry":{"type":"Point","coordinates":[72.96329434939365,2.696011403338153]}},{"type":"Feature","properties":{"atoll":"Dhaalu","islandName":"Rin'budhoo","V01":"316","V02":"153","V03":"163"},"geometry":{"type":"Point","coordinates":[72.89541094879903,2.924484800296683]}},{"type":"Feature","properties":{"atoll":"Dhaalu","islandName":"Hulhudheli","V01":"764","V02":"375","V03":"389"},"geometry":{"type":"Point","coordinates":[72.84633770379686,2.85847027405591]}},{"type":"Feature","properties":{"atoll":"Dhaalu","islandName":"Meedhoo","V01":"1118","V02":"458","V03":"660"},"geometry":{"type":"Point","coordinates":[73.00740659253029,2.998104785261509]}},{"type":"Feature","properties":{"atoll":"Faafu","islandName":"Dharan'boodhoo","V01":"455","V02":"196","V03":"259"},"geometry":{"type":"Point","coordinates":[72.92598803931376,3.062874129582825]}},{"type":"Feature","properties":{"atoll":"Faafu","islandName":"Magoodhoo","V01":"702","V02":"341","V03":"361"},"geometry":{"type":"Point","coordinates":[72.96342150520722,3.07820546067367]}},{"type":"Feature","properties":{"atoll":"Faafu","islandName":"Bileiydhoo","V01":"967","V02":"478","V03":"489"},"geometry":{"type":"Point","coordinates":[72.98412879839624,3.118350368943548]}},{"type":"Feature","properties":{"atoll":"Faafu","islandName":"Feeali","V01":"922","V02":"492","V03":"430"},"geometry":{"type":"Point","coordinates":[73.00198644524875,3.26998507171882]}},{"type":"Feature","properties":{"atoll":"Gaafu Alifu","islandName":"Dhevvadhoo","V01":"599","V02":"231","V03":"368"},"geometry":{"type":"Point","coordinates":[73.24216254461885,0.557070594295229]}},{"type":"Feature","properties":{"atoll":"Gaafu Alifu","islandName":"Kon'dey","V01":"328","V02":"148","V03":"180"},"geometry":{"type":"Point","coordinates":[73.54878898375148,0.49875130332258]}},{"type":"Feature","properties":{"atoll":"Gaafu Alifu","islandName":"Kolamaafushi","V01":"636","V02":"282","V03":"354"},"geometry":{"type":"Point","coordinates":[73.18437888377284,0.837793117369098]}},{"type":"Feature","properties":{"atoll":"Gaafu Alifu","islandName":"Dhaandhoo","V01":"1044","V02":"437","V03":"607"},"geometry":{"type":"Point","coordinates":[73.46125436227508,0.620922557600873]}},{"type":"Feature","properties":{"atoll":"Gaafu Alifu","islandName":"Kan'duhulhudhoo","V01":"619","V02":"273","V03":"346"},"geometry":{"type":"Point","coordinates":[73.53964218812217,0.351146925537509]}},{"type":"Feature","properties":{"atoll":"Gaafu Alifu","islandName":"Maamendhoo","V01":"1201","V02":"555","V03":"646"},"geometry":{"type":"Point","coordinates":[73.43916586921104,0.71421327311003]}},{"type":"Feature","properties":{"atoll":"Gaafu Alifu","islandName":"Nilandhoo","V01":"545","V02":"247","V03":"298"},"geometry":{"type":"Point","coordinates":[73.44646318709884,0.636245012742593]}},{"type":"Feature","properties":{"atoll":"Gaafu Alifu","islandName":"Gemanafushi","V01":"1318","V02":"604","V03":"714"},"geometry":{"type":"Point","coordinates":[73.56828993549014,0.442662113453179]}},{"type":"Feature","properties":{"atoll":"Gaafu Dhaalu","islandName":"Gahdhoo","V01":"1414","V02":"638","V03":"776"},"geometry":{"type":"Point","coordinates":[73.45762352362607,0.290062612377255]}},{"type":"Feature","properties":{"atoll":"Gaafu Dhaalu","islandName":"Hoadehdhoo","V01":"885","V02":"395","V03":"490"},"geometry":{"type":"Point","coordinates":[73.003942255497,0.444450338096995]}},{"type":"Feature","properties":{"atoll":"Gaafu Dhaalu","islandName":"Vaadhoo","V01":"516","V02":"218","V03":"298"},"geometry":{"type":"Point","coordinates":[73.27363313806126,0.227369111618703]}},{"type":"Feature","properties":{"atoll":"Gaafu Dhaalu","islandName":"Nadellaa","V01":"581","V02":"288","V03":"293"},"geometry":{"type":"Point","coordinates":[73.04064693882947,0.293394127764766]}},{"type":"Feature","properties":{"atoll":"Gaafu Dhaalu","islandName":"Fiyoari","V01":"637","V02":"296","V03":"341"},"geometry":{"type":"Point","coordinates":[73.1364960689365,0.221620976890414]}},{"type":"Feature","properties":{"atoll":"Gaafu Dhaalu","islandName":"Rathafandhoo","V01":"431","V02":"178","V03":"253"},"geometry":{"type":"Point","coordinates":[73.10459121546171,0.252654265330841]}},{"type":"Feature","properties":{"atoll":"Gaafu Dhaalu","islandName":"Faresmaathodaa","V01":"858","V02":"395","V03":"463"},"geometry":{"type":"Point","coordinates":[73.18463116390365,0.201884624782729]}},{"type":"Feature","properties":{"atoll":"Gaafu Dhaalu","islandName":"Madaveli","V01":"1219","V02":"586","V03":"633"},"geometry":{"type":"Point","coordinates":[72.99864732824675,0.458590712616451]}},{"type":"Feature","properties":{"atoll":"Haa Alifu","islandName":"Vashafaru","V01":"476","V02":"224","V03":"252"},"geometry":{"type":"Point","coordinates":[73.1587041981316,6.896436735878305]}},{"type":"Feature","properties":{"atoll":"Haa Alifu","islandName":"Huvarafushi","V01":"1841","V02":"856","V03":"985"},"geometry":{"type":"Point","coordinates":[72.89539654699313,6.978714761368775]}},{"type":"Feature","properties":{"atoll":"Haa Alifu","islandName":"Uligamu","V01":"400","V02":"200","V03":"200"},"geometry":{"type":"Point","coordinates":[72.9274682013685,7.081877402623435]}},{"type":"Feature","properties":{"atoll":"Haa Alifu","islandName":"Utheemu","V01":"612","V02":"318","V03":"294"},"geometry":{"type":"Point","coordinates":[73.11270209776515,6.834831599247297]}},{"type":"Feature","properties":{"atoll":"Haa Alifu","islandName":"Kelaa","V01":"1115","V02":"534","V03":"581"},"geometry":{"type":"Point","coordinates":[73.21615312408481,6.954771199495936]}},{"type":"Feature","properties":{"atoll":"Haa Alifu","islandName":"Maarandhoo","V01":"668","V02":"333","V03":"335"},"geometry":{"type":"Point","coordinates":[72.98419801048492,6.852627360015107]}},{"type":"Feature","properties":{"atoll":"Haa Alifu","islandName":"Muraidhoo","V01":"534","V02":"277","V03":"257"},"geometry":{"type":"Point","coordinates":[73.16727393840576,6.837963277023681]}},{"type":"Feature","properties":{"atoll":"Haa Alifu","islandName":"Mulhadhoo","V01":"286","V02":"123","V03":"163"},"geometry":{"type":"Point","coordinates":[72.99809154635545,7.012298620186898]}},{"type":"Feature","properties":{"atoll":"Haa Alifu","islandName":"Ihavandhoo","V01":"2873","V02":"1447","V03":"1426"},"geometry":{"type":"Point","coordinates":[72.92595071903577,6.954514024863635]}},{"type":"Feature","properties":{"atoll":"Haa Alifu","islandName":"Thuraakunu","V01":"427","V02":"203","V03":"224"},"geometry":{"type":"Point","coordinates":[72.89930488957667,7.104314641428306]}},{"type":"Feature","properties":{"atoll":"Haa Alifu","islandName":"Thakandhoo","V01":"279","V02":"143","V03":"136"},"geometry":{"type":"Point","coordinates":[72.99553051216611,6.844009760892134]}},{"type":"Feature","properties":{"atoll":"Haa Alifu","islandName":"Baarah","V01":"1141","V02":"591","V03":"550"},"geometry":{"type":"Point","coordinates":[73.21272792455137,6.818634795034509]}},{"type":"Feature","properties":{"atoll":"Haa Alifu","islandName":"Filladhoo","V01":"559","V02":"291","V03":"268"},"geometry":{"type":"Point","coordinates":[73.22805205508713,6.874905437248622]}},{"type":"Feature","properties":{"atoll":"Haa Dhaalu","islandName":"Finey","V01":"409","V02":"227","V03":"182"},"geometry":{"type":"Point","coordinates":[73.05328303175781,6.74590385087625]}},{"type":"Feature","properties":{"atoll":"Haa Dhaalu","islandName":"Naivaadhoo","V01":"495","V02":"257","V03":"238"},"geometry":{"type":"Point","coordinates":[72.93499139648019,6.746859709179481]}},{"type":"Feature","properties":{"atoll":"Haa Dhaalu","islandName":"Nellaidhoo","V01":"1038","V02":"558","V03":"480"},"geometry":{"type":"Point","coordinates":[72.94690118308546,6.714911307161579]}},{"type":"Feature","properties":{"atoll":"Haa Dhaalu","islandName":"Hirimaradhoo","V01":"293","V02":"136","V03":"157"},"geometry":{"type":"Point","coordinates":[73.02412719679408,6.724794975748654]}},{"type":"Feature","properties":{"atoll":"Haa Dhaalu","islandName":"Kurin'bee","V01":"492","V02":"265","V03":"227"},"geometry":{"type":"Point","coordinates":[72.99668771886742,6.665574139817685]}},{"type":"Feature","properties":{"atoll":"Haa Dhaalu","islandName":"Kumundhoo","V01":"997","V02":"532","V03":"465"},"geometry":{"type":"Point","coordinates":[73.05232554676242,6.572089163851065]}},{"type":"Feature","properties":{"atoll":"Haa Dhaalu","islandName":"Neykurendhoo","V01":"641","V02":"330","V03":"311"},"geometry":{"type":"Point","coordinates":[72.97972181048635,6.542972909068405]}},{"type":"Feature","properties":{"atoll":"Haa Dhaalu","islandName":"Vaikaradhoo","V01":"776","V02":"373","V03":"403"},"geometry":{"type":"Point","coordinates":[72.95322041958488,6.549697441776082]}},{"type":"Feature","properties":{"atoll":"Haa Dhaalu","islandName":"Makunudhoo","V01":"1265","V02":"657","V03":"608"},"geometry":{"type":"Point","coordinates":[72.70509397333379,6.409584214627436]}},{"type":"Feature","properties":{"atoll":"Haa Dhaalu","islandName":"Nolhivaramu","V01":"1985","V02":"1110","V03":"875"},"geometry":{"type":"Point","coordinates":[73.0822585819677,6.662331186648924]}},{"type":"Feature","properties":{"atoll":"Haa Dhaalu","islandName":"Nolhivaranfaru","V01":"1254","V02":"652","V03":"602"},"geometry":{"type":"Point","coordinates":[73.12077253263153,6.698661106614532]}},{"type":"Feature","properties":{"atoll":"Haa Dhaalu","islandName":"Hanimaadhoo","V01":"2664","V02":"1130","V03":"1534"},"geometry":{"type":"Point","coordinates":[73.17542038003621,6.76133598812083]}},{"type":"Feature","properties":{"atoll":"Laamu","islandName":"Mundoo","V01":"176","V02":"72","V03":"104"},"geometry":{"type":"Point","coordinates":[73.5344248696209,2.011369183301957]}},{"type":"Feature","properties":{"atoll":"Laamu","islandName":"Gan","V01":"4815","V02":"2355","V03":"2460"},"geometry":{"type":"Point","coordinates":[73.54612991235844,1.927023191678513]}},{"type":"Feature","properties":{"atoll":"Laamu","islandName":"Hithadhoo","V01":"1108","V02":"550","V03":"558"},"geometry":{"type":"Point","coordinates":[73.38849258350666,1.797066146144495]}},{"type":"Feature","properties":{"atoll":"Laamu","islandName":"Kunahandhoo","V01":"601","V02":"306","V03":"295"},"geometry":{"type":"Point","coordinates":[73.36824880009264,1.782020309141328]}},{"type":"Feature","properties":{"atoll":"Laamu","islandName":"Maamendhoo","V01":"879","V02":"404","V03":"475"},"geometry":{"type":"Point","coordinates":[73.38948385181219,1.817449296240915]}},{"type":"Feature","properties":{"atoll":"Laamu","islandName":"Maavah","V01":"1379","V02":"704","V03":"675"},"geometry":{"type":"Point","coordinates":[73.2436069931336,1.885630869744354]}},{"type":"Feature","properties":{"atoll":"Laamu","islandName":"Maabaidhoo","V01":"565","V02":"291","V03":"274"},"geometry":{"type":"Point","coordinates":[73.53271382908166,2.025778531486819]}},{"type":"Feature","properties":{"atoll":"Laamu","islandName":"Isdhoo","V01":"929","V02":"446","V03":"483"},"geometry":{"type":"Point","coordinates":[73.57616516502229,2.122277700791735]}},{"type":"Feature","properties":{"atoll":"Laamu","islandName":"Kalaidhoo","V01":"655","V02":"295","V03":"360"},"geometry":{"type":"Point","coordinates":[73.56013924465998,2.114927225248877]}},{"type":"Feature","properties":{"atoll":"Laamu","islandName":"Dhan'bidhoo","V01":"606","V02":"305","V03":"301"},"geometry":{"type":"Point","coordinates":[73.54610184618376,2.097179905096033]}},{"type":"Feature","properties":{"atoll":"Lhaviyani","islandName":"Hinnavaru","V01":"2286","V02":"1199","V03":"1087"},"geometry":{"type":"Point","coordinates":[73.41140590334757,5.492587531074308]}},{"type":"Feature","properties":{"atoll":"Lhaviyani","islandName":"Maafilaafushi","V01":"0","V02":"0","V03":"0"},"geometry":{"type":"Point","coordinates":[73.41376952436212,5.364853819828226]}},{"type":"Feature","properties":{"atoll":"Lhaviyani","islandName":"Kurendhoo","V01":"1171","V02":"578","V03":"593"},"geometry":{"type":"Point","coordinates":[73.4636767907671,5.333846080876479]}},{"type":"Feature","properties":{"atoll":"Meemu","islandName":"Dhiggaru","V01":"1099","V02":"558","V03":"541"},"geometry":{"type":"Point","coordinates":[73.56190474929917,3.115335013453354]}},{"type":"Feature","properties":{"atoll":"Meemu","islandName":"Naalaafushi","V01":"430","V02":"207","V03":"223"},"geometry":{"type":"Point","coordinates":[73.57738441221059,2.895117660010309]}},{"type":"Feature","properties":{"atoll":"Meemu","islandName":"Maduvvari","V01":"318","V02":"127","V03":"191"},"geometry":{"type":"Point","coordinates":[73.57311173825326,3.105040963560644]}},{"type":"Feature","properties":{"atoll":"Meemu","islandName":"Veyvah","V01":"304","V02":"108","V03":"196"},"geometry":{"type":"Point","coordinates":[73.59995593704107,2.956312718968588]}},{"type":"Feature","properties":{"atoll":"Meemu","islandName":"Kolhufushi","V01":"793","V02":"389","V03":"404"},"geometry":{"type":"Point","coordinates":[73.42454789823834,2.776881170372164]}},{"type":"Feature","properties":{"atoll":"Meemu","islandName":"Mulah","V01":"1426","V02":"697","V03":"729"},"geometry":{"type":"Point","coordinates":[73.58462453331298,2.946652920796377]}},{"type":"Feature","properties":{"atoll":"Meemu","islandName":"Raiymandhoo","V01":"171","V02":"64","V03":"107"},"geometry":{"type":"Point","coordinates":[73.63907579873299,3.08975999842791]}},{"type":"Feature","properties":{"atoll":"Noonu","islandName":"Landhoo","V01":"757","V02":"414","V03":"343"},"geometry":{"type":"Point","coordinates":[73.46618180414697,5.881758885549695]}},{"type":"Feature","properties":{"atoll":"Noonu","islandName":"Maalhendhoo","V01":"724","V02":"371","V03":"353"},"geometry":{"type":"Point","coordinates":[73.45611612124948,5.90220159285662]}},{"type":"Feature","properties":{"atoll":"Noonu","islandName":"Fohdhoo","V01":"345","V02":"135","V03":"210"},"geometry":{"type":"Point","coordinates":[73.21599459790419,5.743755444756106]}},{"type":"Feature","properties":{"atoll":"Noonu","islandName":"Kudafari","V01":"628","V02":"294","V03":"334"},"geometry":{"type":"Point","coordinates":[73.40020605402653,5.882890347593037]}},{"type":"Feature","properties":{"atoll":"Noonu","islandName":"Velidhoo","V01":"1832","V02":"809","V03":"1023"},"geometry":{"type":"Point","coordinates":[73.27340733446361,5.66469094600427]}},{"type":"Feature","properties":{"atoll":"Noonu","islandName":"Lhohi","V01":"692","V02":"338","V03":"354"},"geometry":{"type":"Point","coordinates":[73.37767364566669,5.816177287537881]}},{"type":"Feature","properties":{"atoll":"Noonu","islandName":"Maafaru","V01":"919","V02":"457","V03":"462"},"geometry":{"type":"Point","coordinates":[73.47548896463486,5.823885679996291]}},{"type":"Feature","properties":{"atoll":"Noonu","islandName":"Ken'dhikulhudhoo","V01":"1556","V02":"806","V03":"750"},"geometry":{"type":"Point","coordinates":[73.4158712446113,5.952628597360931]}},{"type":"Feature","properties":{"atoll":"Noonu","islandName":"Magoodhoo","V01":"305","V02":"155","V03":"150"},"geometry":{"type":"Point","coordinates":[73.36247699352901,5.776472663041239]}},{"type":"Feature","properties":{"atoll":"Noonu","islandName":"Hen'badhoo","V01":"638","V02":"328","V03":"310"},"geometry":{"type":"Point","coordinates":[73.39297861815979,5.967648226262454]}},{"type":"Feature","properties":{"atoll":"Noonu","islandName":"Miladhoo","V01":"934","V02":"494","V03":"440"},"geometry":{"type":"Point","coordinates":[73.36259070278905,5.790466394459862]}},{"type":"Feature","properties":{"atoll":"Noonu","islandName":"Holhudhoo","V01":"1428","V02":"776","V03":"652"},"geometry":{"type":"Point","coordinates":[73.24953853153013,5.751248941171245]}},{"type":"Feature","properties":{"atoll":"Raa","islandName":"Maduvvari","V01":"1760","V02":"844","V03":"916"},"geometry":{"type":"Point","coordinates":[72.89590669135119,5.486191674215014]}},{"type":"Feature","properties":{"atoll":"Raa","islandName":"Rasmaadhoo","V01":"554","V02":"263","V03":"291"},"geometry":{"type":"Point","coordinates":[73.04386620124565,5.56309338551919]}},{"type":"Feature","properties":{"atoll":"Raa","islandName":"An'golhitheemu","V01":"381","V02":"190","V03":"191"},"geometry":{"type":"Point","coordinates":[73.00663685005257,5.792726255182947]}},{"type":"Feature","properties":{"atoll":"Raa","islandName":"Maakurathu","V01":"956","V02":"470","V03":"486"},"geometry":{"type":"Point","coordinates":[73.04402576401178,5.606249271389931]}},{"type":"Feature","properties":{"atoll":"Raa","islandName":"Innamaadhoo","V01":"663","V02":"278","V03":"385"},"geometry":{"type":"Point","coordinates":[73.04453587452973,5.549446155453492]}},{"type":"Feature","properties":{"atoll":"Raa","islandName":"Kinolhas","V01":"543","V02":"256","V03":"287"},"geometry":{"type":"Point","coordinates":[73.02931028063811,5.448479432590794]}},{"type":"Feature","properties":{"atoll":"Raa","islandName":"Alifushi","V01":"1859","V02":"795","V03":"1064"},"geometry":{"type":"Point","coordinates":[72.95338330882046,5.967318552549809]}},{"type":"Feature","properties":{"atoll":"Raa","islandName":"Rasgetheemu","V01":"537","V02":"276","V03":"261"},"geometry":{"type":"Point","coordinates":[73.00295471742143,5.807683495788766]}},{"type":"Feature","properties":{"atoll":"Raa","islandName":"Hulhudhuffaaru","V01":"1228","V02":"636","V03":"592"},"geometry":{"type":"Point","coordinates":[73.01235754993965,5.764998899432682]}},{"type":"Feature","properties":{"atoll":"Raa","islandName":"Meedhoo","V01":"1872","V02":"931","V03":"941"},"geometry":{"type":"Point","coordinates":[72.95503378393009,5.458179916572411]}},{"type":"Feature","properties":{"atoll":"Raa","islandName":"Dhuvaafaru","V01":"3321","V02":"1612","V03":"1709"},"geometry":{"type":"Point","coordinates":[73.04069143409457,5.629988804609746]}},{"type":"Feature","properties":{"atoll":"Raa","islandName":"Fainu","V01":"423","V02":"180","V03":"243"},"geometry":{"type":"Point","coordinates":[73.03458339750675,5.463451675742272]}},{"type":"Feature","properties":{"atoll":"Raa","islandName":"Vaadhoo","V01":"452","V02":"221","V03":"231"},"geometry":{"type":"Point","coordinates":[72.99144511962537,5.856715064936732]}},{"type":"Feature","properties":{"atoll":"Raa","islandName":"In'guraidhoo","V01":"1278","V02":"682","V03":"596"},"geometry":{"type":"Point","coordinates":[73.03679968841618,5.477064428687521]}},{"type":"Feature","properties":{"atoll":"Seenu","islandName":"Meedhoo","V01":"1892","V02":"917","V03":"975"},"geometry":{"type":"Point","coordinates":[73.23099318588845,-0.584293481583105]}},{"type":"Feature","properties":{"atoll":"Seenu","islandName":"Hulhudhoo","V01":"1182","V02":"495","V03":"687"},"geometry":{"type":"Point","coordinates":[73.22858773677787,-0.594116452683084]}},{"type":"Feature","properties":{"atoll":"Seenu","islandName":"Feydhoo","V01":"4289","V02":"1652","V03":"2637"},"geometry":{"type":"Point","coordinates":[73.13441622416941,-0.683133804082832]}},{"type":"Feature","properties":{"atoll":"Seenu","islandName":"Maradhoofeydhoo","V01":"1398","V02":"723","V03":"675"},"geometry":{"type":"Point","coordinates":[73.12414784837264,-0.672815112373818]}},{"type":"Feature","properties":{"atoll":"Seenu","islandName":"Maradhoo","V01":"2542","V02":"1175","V03":"1367"},"geometry":{"type":"Point","coordinates":[73.11773882496708,-0.666592262289664]}},{"type":"Feature","properties":{"atoll":"Shaviyani","islandName":"Milandhoo","V01":"2094","V02":"1082","V03":"1012"},"geometry":{"type":"Point","coordinates":[73.24453727547913,6.286048064586502]}},{"type":"Feature","properties":{"atoll":"Shaviyani","islandName":"Narudhoo","V01":"544","V02":"276","V03":"268"},"geometry":{"type":"Point","coordinates":[73.2181159930291,6.264332874146714]}},{"type":"Feature","properties":{"atoll":"Shaviyani","islandName":"Foakaidhoo","V01":"1571","V02":"828","V03":"743"},"geometry":{"type":"Point","coordinates":[73.14933096460845,6.32664720105577]}},{"type":"Feature","properties":{"atoll":"Shaviyani","islandName":"Goidhoo","V01":"592","V02":"301","V03":"291"},"geometry":{"type":"Point","coordinates":[72.9299539480024,6.430080114606803]}},{"type":"Feature","properties":{"atoll":"Shaviyani","islandName":"Lhaimagu","V01":"684","V02":"323","V03":"361"},"geometry":{"type":"Point","coordinates":[73.25139708275316,6.164070241232935]}},{"type":"Feature","properties":{"atoll":"Shaviyani","islandName":"Noomaraa","V01":"371","V02":"176","V03":"195"},"geometry":{"type":"Point","coordinates":[73.06909918329194,6.434220086522148]}},{"type":"Feature","properties":{"atoll":"Shaviyani","islandName":"Bileiyfahi","V01":"502","V02":"252","V03":"250"},"geometry":{"type":"Point","coordinates":[72.97486046755185,6.337788489637713]}},{"type":"Feature","properties":{"atoll":"Shaviyani","islandName":"Kan'ditheemu","V01":"1193","V02":"649","V03":"544"},"geometry":{"type":"Point","coordinates":[72.91646176003876,6.440346671785039]}},{"type":"Feature","properties":{"atoll":"Shaviyani","islandName":"Feydhoo","V01":"854","V02":"442","V03":"412"},"geometry":{"type":"Point","coordinates":[73.04879904613091,6.36065299364047]}},{"type":"Feature","properties":{"atoll":"Shaviyani","islandName":"Maroshi","V01":"479","V02":"252","V03":"227"},"geometry":{"type":"Point","coordinates":[73.06125905767058,6.209576801365324]}},{"type":"Feature","properties":{"atoll":"Shaviyani","islandName":"Maaun'goodhoo","V01":"944","V02":"484","V03":"460"},"geometry":{"type":"Point","coordinates":[73.28383651971221,6.036739677029812]}},{"type":"Feature","properties":{"atoll":"Shaviyani","islandName":"Feevah","V01":"694","V02":"352","V03":"342"},"geometry":{"type":"Point","coordinates":[73.20924257896411,6.348926582053855]}},{"type":"Feature","properties":{"atoll":"Shaviyani","islandName":"Komandoo","V01":"921","V02":"470","V03":"451"},"geometry":{"type":"Point","coordinates":[73.05430063525935,6.054145925036617]}},{"type":"Feature","properties":{"atoll":"Thaa","islandName":"Vandhoo","V01":"364","V02":"158","V03":"206"},"geometry":{"type":"Point","coordinates":[72.9419279715516,2.291680830059111]}},{"type":"Feature","properties":{"atoll":"Thaa","islandName":"Kan'doodhoo","V01":"456","V02":"198","V03":"258"},"geometry":{"type":"Point","coordinates":[72.91665253485395,2.320944396502696]}},{"type":"Feature","properties":{"atoll":"Thaa","islandName":"Burunee","V01":"414","V02":"193","V03":"221"},"geometry":{"type":"Point","coordinates":[73.10702974829252,2.558970516596176]}},{"type":"Feature","properties":{"atoll":"Thaa","islandName":"Vilufushi","V01":"1081","V02":"529","V03":"552"},"geometry":{"type":"Point","coordinates":[73.3085531645525,2.503257613707623]}},{"type":"Feature","properties":{"atoll":"Thaa","islandName":"Hirilandhoo","V01":"1146","V02":"488","V03":"658"},"geometry":{"type":"Point","coordinates":[72.93045043146338,2.272085644030439]}},{"type":"Feature","properties":{"atoll":"Thaa","islandName":"Omadhoo","V01":"417","V02":"195","V03":"222"},"geometry":{"type":"Point","coordinates":[73.02355633791886,2.167696767801502]}},{"type":"Feature","properties":{"atoll":"Thaa","islandName":"Thimarafushi","V01":"1229","V02":"543","V03":"686"},"geometry":{"type":"Point","coordinates":[73.148252111161,2.208910598987575]}},{"type":"Feature","properties":{"atoll":"Thaa","islandName":"Gaadhiffushi","V01":"317","V02":"141","V03":"176"},"geometry":{"type":"Point","coordinates":[73.21276422766505,2.252527603348183]}},{"type":"Feature","properties":{"atoll":"Thaa","islandName":"Guraidhoo","V01":"1293","V02":"670","V03":"623"},"geometry":{"type":"Point","coordinates":[73.31755996066966,2.322844076422011]}},{"type":"Feature","properties":{"atoll":"Thaa","islandName":"Dhiyamigili","V01":"649","V02":"329","V03":"320"},"geometry":{"type":"Point","coordinates":[73.3368423719149,2.339679465045156]}},{"type":"Feature","properties":{"atoll":"Thaa","islandName":"Kin'bidhoo","V01":"715","V02":"354","V03":"361"},"geometry":{"type":"Point","coordinates":[73.06612824827894,2.1684391641327]}},{"type":"Feature","properties":{"atoll":"Thaa","islandName":"Madifushi","V01":"858","V02":"445","V03":"413"},"geometry":{"type":"Point","coordinates":[73.35499780070334,2.356338590280923]}},{"type":"Feature","properties":{"atoll":"Vaavu","islandName":"Fulidhoo","V01":"400","V02":"153","V03":"247"},"geometry":{"type":"Point","coordinates":[73.41568363381427,3.680528662888753]}},{"type":"Feature","properties":{"atoll":"Vaavu","islandName":"Thinadhoo","V01":"258","V02":"28","V03":"230"},"geometry":{"type":"Point","coordinates":[73.53842175384298,3.487657498000508]}},{"type":"Feature","properties":{"atoll":"Vaavu","islandName":"Keyodhoo","V01":"641","V02":"293","V03":"348"},"geometry":{"type":"Point","coordinates":[73.55000510748414,3.462231053474748]}},{"type":"Feature","properties":{"atoll":"Vaavu","islandName":"Rakeedhoo","V01":"76","V02":"27","V03":"49"},"geometry":{"type":"Point","coordinates":[73.46984146978316,3.314892375408963]}},{"type":"Feature","properties":{"atoll":"Kaafu","islandName":"Kaashidhoo","V01":"2528","V02":"990","V03":"1538"},"geometry":{"type":"Point","coordinates":[73.45959554102686,4.953426767805656]}},{"type":"Feature","properties":{"atoll":"Kaafu","islandName":"Gaafaru","V01":"1294","V02":"637","V03":"657"},"geometry":{"type":"Point","coordinates":[73.49974008030578,4.736056122509711]}},{"type":"Feature","properties":{"atoll":"Kaafu","islandName":"Dhiffushi","V01":"1270","V02":"524","V03":"746"},"geometry":{"type":"Point","coordinates":[73.71445873482114,4.442992959504529]}},{"type":"Feature","properties":{"atoll":"Kaafu","islandName":"Huraa","V01":"1654","V02":"568","V03":"1086"},"geometry":{"type":"Point","coordinates":[73.60174393152596,4.333428013048158]}},{"type":"Feature","properties":{"atoll":"Kaafu","islandName":"Hinmafushi","V01":"2012","V02":"554","V03":"1458"},"geometry":{"type":"Point","coordinates":[73.57105843130783,4.308037409494457]}},{"type":"Feature","properties":{"atoll":"MLE","islandName":"Vilin'gili","V01":"6847","V02":"3175","V03":"3672"},"geometry":{"type":"Point","coordinates":[73.48522588365556,4.173246839390557]}},{"type":"Feature","properties":{"atoll":"Kaafu","islandName":"Guraidhoo","V01":"1743","V02":"765","V03":"978"},"geometry":{"type":"Point","coordinates":[73.46806100900822,3.90079885261947]}},{"type":"Feature","properties":{"atoll":"Kaafu","islandName":"Maafushi","V01":"4471","V02":"1190","V03":"3281"},"geometry":{"type":"Point","coordinates":[73.4896714830595,3.940987296329316]}},{"type":"Feature","properties":{"atoll":"MLE","islandName":"Hulhumaale","V01":"66206","V02":"28586","V03":"37620"},"geometry":{"type":"Point","coordinates":[73.54315413111372,4.222949196927638]}},{"type":"Feature","properties":{"atoll":"Kaafu","islandName":"Gulhi","V01":"976","V02":"397","V03":"579"},"geometry":{"type":"Point","coordinates":[73.50903921849147,3.990683749918674]}}]}