{"type":"FeatureCollection","name":"School_19","crs":{"type":"name","properties":{"name":"urn:ogc:def:crs:OGC:1.3:CRS84"}},"features":[{"type":"Feature","properties":{"lng":72.72124,"ltt":3.98744,"pid2":64564,"name":"Maalhohu School","status":1},"geometry":{"type":"Point","coordinates":[72.72124355057696,3.987434606761254]}},{"type":"Feature","properties":{"lng":73.00354,"ltt":3.26992,"pid2":25619,"name":"Faafu atholhu madharsa","status":1},"geometry":{"type":"Point","coordinates":[73.00353960828984,3.26992441171192]}},{"type":"Feature","properties":{"lng":72.96065,"ltt":3.79218,"pid2":63980,"name":"Omadhoo School","status":1},"geometry":{"type":"Point","coordinates":[72.96065259702074,3.79218277825915]}},{"type":"Feature","properties":{"lng":73.28172,"ltt":6.03618,"pid2":82187,"name":"Maaungoodhoo School","status":1},"geometry":{"type":"Point","coordinates":[73.28171551662962,6.036182116844885]}},{"type":"Feature","properties":{"lng":73.364,"ltt":5.4442,"pid2":104015,"name":"Madhrasathul Ifthithaah","status":1},"geometry":{"type":"Point","coordinates":[73.36400363280964,5.444199177592949]}},{"type":"Feature","properties":{"lng":72.93536,"ltt":4.88515,"pid2":29439,"name":"Fulhadhoo School","status":1},"geometry":{"type":"Point","coordinates":[72.9353610850417,4.885146960782186]}},{"type":"Feature","properties":{"lng":73.06997,"ltt":6.61512,"pid2":14821,"name":"Afeefuddin School","status":1},"geometry":{"type":"Point","coordinates":[73.06997367139842,6.615115917165312]}},{"type":"Feature","properties":{"lng":73.07501,"ltt":6.62196,"pid2":15937,"name":"Ameer Ameen School","status":1},"geometry":{"type":"Point","coordinates":[73.07500753000105,6.621957401]}},{"type":"Feature","properties":{"lng":73.07111,"ltt":6.62607,"pid2":16738,"name":"HdH. Atoll Education Centre","status":1},"geometry":{"type":"Point","coordinates":[73.0711054117133,6.626067742520895]}},{"type":"Feature","properties":{"lng":73.07027,"ltt":6.62696,"pid2":16948,"name":"Jalaluddin School","status":1},"geometry":{"type":"Point","coordinates":[73.07027212869734,6.626962871012342]}},{"type":"Feature","properties":{"lng":73.07062,"ltt":5.30018,"pid2":71203,"name":"Kudarikilu School","status":1},"geometry":{"type":"Point","coordinates":[73.07061845524233,5.300184218732715]}},{"type":"Feature","properties":{"lng":73.42469,"ltt":2.7789,"pid2":24326,"name":"M. Atoll School","status":1},"geometry":{"type":"Point","coordinates":[73.42468998756303,2.778902891398781]}},{"type":"Feature","properties":{"lng":72.98999,"ltt":2.93815,"pid2":102534,"name":"Bandidhoo School","status":1},"geometry":{"type":"Point","coordinates":[72.98999528535448,2.938147228358292]}},{"type":"Feature","properties":{"lng":73.49012,"ltt":3.94279,"pid2":42087,"name":"Maafushee School","status":1},"geometry":{"type":"Point","coordinates":[73.49011745297551,3.942787771795065]}},{"type":"Feature","properties":{"lng":73.5465,"ltt":3.47076,"pid2":102544,"name":"V. Atoll Education Centre","status":1},"geometry":{"type":"Point","coordinates":[73.54649872254379,3.47075602889184]}},{"type":"Feature","properties":{"lng":73.1254,"ltt":-0.67263,"pid2":45753,"name":"Ujala pre-school","status":1},"geometry":{"type":"Point","coordinates":[73.12540202000106,-0.672624621999981]}},{"type":"Feature","properties":{"lng":73.14237,"ltt":2.20573,"pid2":100892,"name":"Th. Atoll Education Centre","status":1},"geometry":{"type":"Point","coordinates":[73.1423676495947,2.205727928174913]}},{"type":"Feature","properties":{"lng":72.96509,"ltt":3.08049,"pid2":60369,"name":"Magoodhoo school","status":1},"geometry":{"type":"Point","coordinates":[72.96508491839847,3.080484768198917]}},{"type":"Feature","properties":{"lng":73.5346,"ltt":2.01333,"pid2":54933,"name":"Mundoo School","status":1},"geometry":{"type":"Point","coordinates":[73.53459980942579,2.013331997044185]}},{"type":"Feature","properties":{"lng":72.74762,"ltt":4.19181,"pid2":27621,"name":"Mathiveri School","status":1},"geometry":{"type":"Point","coordinates":[72.74762303347246,4.191813415461739]}},{"type":"Feature","properties":{"lng":73.53692,"ltt":1.89599,"pid2":12021,"name":"Mukurimagu School","status":1},"geometry":{"type":"Point","coordinates":[73.53692417783076,1.895990793280103]}},{"type":"Feature","properties":{"lng":73.54638,"ltt":1.92,"pid2":13121,"name":"Hamad Bin Khaleefa Al Saanee","status":1},"geometry":{"type":"Point","coordinates":[73.54637784476166,1.920003911449547]}},{"type":"Feature","properties":{"lng":73.54261,"ltt":1.93151,"pid2":14121,"name":"Ihadhdhoo School","status":1},"geometry":{"type":"Point","coordinates":[73.54260743746279,1.931505492248357]}},{"type":"Feature","properties":{"lng":72.83651,"ltt":3.47639,"pid2":62157,"name":"ADh. Atoll School","status":1},"geometry":{"type":"Point","coordinates":[72.83650909625648,3.476390534407233]}},{"type":"Feature","properties":{"lng":72.71059,"ltt":3.69857,"pid2":63736,"name":"Mandhoo School","status":1},"geometry":{"type":"Point","coordinates":[72.71058904625475,3.698565140421813]}},{"type":"Feature","properties":{"lng":73.00305,"ltt":5.80905,"pid2":78289,"name":"Rasgetheemu School","status":1},"geometry":{"type":"Point","coordinates":[73.00305049777486,5.80904469548816]}},{"type":"Feature","properties":{"lng":73.56542,"ltt":3.1108,"pid2":25345,"name":"Dhiggaru School","status":1},"geometry":{"type":"Point","coordinates":[73.56542375569748,3.110800808697077]}},{"type":"Feature","properties":{"lng":73.0449,"ltt":5.60551,"pid2":74502,"name":"Maakurathu Pre-School","status":1},"geometry":{"type":"Point","coordinates":[73.04489843000127,5.605507421]}},{"type":"Feature","properties":{"lng":73.04445,"ltt":5.60613,"pid2":74593,"name":"Maakurathu School","status":1},"geometry":{"type":"Point","coordinates":[73.04444973873754,5.606128479449239]}},{"type":"Feature","properties":{"lng":73.04128,"ltt":0.2912,"pid2":98230,"name":"Nadellaa School","status":1},"geometry":{"type":"Point","coordinates":[73.04128068722451,0.291200121459348]}},{"type":"Feature","properties":{"lng":73.41708,"ltt":3.68066,"pid2":63634,"name":"V.Atoll School","status":1},"geometry":{"type":"Point","coordinates":[73.41707950908223,3.68066044772663]}},{"type":"Feature","properties":{"lng":73.46385,"ltt":5.88067,"pid2":79813,"name":"Landhoo School","status":1},"geometry":{"type":"Point","coordinates":[73.46385118294104,5.880672684783748]}},{"type":"Feature","properties":{"lng":73.02922,"ltt":5.44792,"pid2":30751,"name":"Kinolhahu School","status":1},"geometry":{"type":"Point","coordinates":[73.02922116418313,5.447914791352364]}},{"type":"Feature","properties":{"lng":73.0292,"ltt":5.44903,"pid2":30836,"name":"Kinolhas Pr-School","status":1},"geometry":{"type":"Point","coordinates":[73.0292027700013,5.449029668]}},{"type":"Feature","properties":{"lng":73.27198,"ltt":0.22549,"pid2":18941,"name":"Vaadhoo Jamaaluddin School","status":1},"geometry":{"type":"Point","coordinates":[73.27197936077475,0.225487708961929]}},{"type":"Feature","properties":{"lng":73.02299,"ltt":6.72305,"pid2":88772,"name":"Hirimaradhoo School","status":1},"geometry":{"type":"Point","coordinates":[73.02298949014353,6.72305141006431]}},{"type":"Feature","properties":{"lng":73.33428,"ltt":2.33742,"pid2":57137,"name":"Dhiyamigili School","status":1},"geometry":{"type":"Point","coordinates":[73.33427986820648,2.337418106238548]}},{"type":"Feature","properties":{"lng":73.45675,"ltt":5.90053,"pid2":80044,"name":"Maalhendhoo School","status":1},"geometry":{"type":"Point","coordinates":[73.45674773734069,5.900530564983953]}},{"type":"Feature","properties":{"lng":73.07041,"ltt":5.10398,"pid2":69620,"name":"Baa Atoll Education Centre","status":1},"geometry":{"type":"Point","coordinates":[73.07041164871852,5.10398286864183]}},{"type":"Feature","properties":{"lng":73.30865,"ltt":2.50283,"pid2":101669,"name":"Vilufushee School","status":1},"geometry":{"type":"Point","coordinates":[73.3086466627023,2.502831596779753]}},{"type":"Feature","properties":{"lng":72.96438,"ltt":2.69689,"pid2":58557,"name":"Maaenboodhoo Madhrasa","status":1},"geometry":{"type":"Point","coordinates":[72.96437708806262,2.696888532659789]}},{"type":"Feature","properties":{"lng":73.16155,"ltt":6.89655,"pid2":93696,"name":"Vashafaru School","status":1},"geometry":{"type":"Point","coordinates":[73.16155069350317,6.896552293209949]}},{"type":"Feature","properties":{"lng":73.17554,"ltt":6.76744,"pid2":90213,"name":"Hanimaadhoo School","status":1},"geometry":{"type":"Point","coordinates":[73.175537203222,6.767437638254315]}},{"type":"Feature","properties":{"lng":72.89465,"ltt":6.98425,"pid2":95250,"name":"HA Atholhu Madharusa","status":1},"geometry":{"type":"Point","coordinates":[72.89464897687753,6.984245599635964]}},{"type":"Feature","properties":{"lng":73.4338,"ltt":0.75628,"pid2":99820,"name":"G.A. Atoll Education Centre","status":1},"geometry":{"type":"Point","coordinates":[73.43379646258244,0.756281509325314]}},{"type":"Feature","properties":{"lng":73.10593,"ltt":2.55918,"pid2":102344,"name":"Burunee School","status":1},"geometry":{"type":"Point","coordinates":[73.10593398566212,2.559181545920925]}},{"type":"Feature","properties":{"lng":72.9919,"ltt":4.26526,"pid2":65460,"name":"Aa. Atoll Education Centre","status":1},"geometry":{"type":"Point","coordinates":[72.99189505264692,4.265259793407475]}},{"type":"Feature","properties":{"lng":73.54869,"ltt":3.46183,"pid2":61152,"name":"Keyodhoo School","status":1},"geometry":{"type":"Point","coordinates":[73.54868533650975,3.461827074178202]}},{"type":"Feature","properties":{"lng":73.38737,"ltt":1.79959,"pid2":21818,"name":"Hithadhoo School","status":1},"geometry":{"type":"Point","coordinates":[73.38737187825208,1.7995847393302]}},{"type":"Feature","properties":{"lng":73.48568,"ltt":4.17318,"pid2":105426,"name":"Muhyiddin School","status":1},"geometry":{"type":"Point","coordinates":[73.48567513000023,4.173178201]}},{"type":"Feature","properties":{"lng":73.22728,"ltt":-0.58904,"pid2":5364,"name":"Seenu Atoll School","status":1},"geometry":{"type":"Point","coordinates":[73.22728058000074,-0.58904437]}},{"type":"Feature","properties":{"lng":73.23201,"ltt":-0.58425,"pid2":6164,"name":"Shamsudheen School","status":1},"geometry":{"type":"Point","coordinates":[73.23201412272611,-0.584246625261645]}},{"type":"Feature","properties":{"lng":73.23215,"ltt":-0.58355,"pid2":6238,"name":"Makthabul Asriyya","status":1},"geometry":{"type":"Point","coordinates":[73.2321516700007,-0.583549088]}},{"type":"Feature","properties":{"lng":73.22901,"ltt":-0.58246,"pid2":6429,"name":"Shareepee Pre school","status":1},"geometry":{"type":"Point","coordinates":[73.2290092900007,-0.58245834]}},{"type":"Feature","properties":{"lng":72.95474,"ltt":3.60804,"pid2":63427,"name":"Dhangethee School","status":1},"geometry":{"type":"Point","coordinates":[72.95474365385515,3.608035153493555]}},{"type":"Feature","properties":{"lng":73.0064,"ltt":5.79402,"pid2":78035,"name":"Angolhitheemu School","status":1},"geometry":{"type":"Point","coordinates":[73.00639712626656,5.794021573373533]}},{"type":"Feature","properties":{"lng":72.72766,"ltt":4.05208,"pid2":64893,"name":"Aa. Atoll School","status":1},"geometry":{"type":"Point","coordinates":[72.72766182097295,4.052075948547085]}},{"type":"Feature","properties":{"lng":73.12147,"ltt":-0.66591,"pid2":17763,"name":"Maradhoo school","status":1},"geometry":{"type":"Point","coordinates":[73.12147204334906,-0.665909880108508]}},{"type":"Feature","properties":{"lng":73.12227,"ltt":-0.67185,"pid2":45862,"name":"Irshadiyya School","status":1},"geometry":{"type":"Point","coordinates":[73.12227308267265,-0.671851662894292]}},{"type":"Feature","properties":{"lng":73.22517,"ltt":-0.59609,"pid2":4371,"name":"Hulhudhoo School","status":1},"geometry":{"type":"Point","coordinates":[73.22516928713996,-0.59608579826898]}},{"type":"Feature","properties":{"lng":73.36919,"ltt":1.78435,"pid2":21395,"name":"Kunahandhoo School","status":1},"geometry":{"type":"Point","coordinates":[73.3691908664739,1.784348578399588]}},{"type":"Feature","properties":{"lng":73.21683,"ltt":5.74461,"pid2":32749,"name":"Fohdhoo School","status":1},"geometry":{"type":"Point","coordinates":[73.21682676763842,5.744611295517371]}},{"type":"Feature","properties":{"lng":72.89521,"ltt":2.92436,"pid2":24565,"name":"Rinbudhoo School","status":1},"geometry":{"type":"Point","coordinates":[72.89520958195152,2.924363072721659]}},{"type":"Feature","properties":{"lng":73.41122,"ltt":5.49034,"pid2":72502,"name":"Lh.Atoll education Centre","status":1},"geometry":{"type":"Point","coordinates":[73.41122190365907,5.490343133465918]}},{"type":"Feature","properties":{"lng":73.12249,"ltt":5.18782,"pid2":70453,"name":"Dhonfanu School","status":1},"geometry":{"type":"Point","coordinates":[73.12248713129247,5.187822751475881]}},{"type":"Feature","properties":{"lng":72.93017,"ltt":2.27174,"pid2":23859,"name":"Hirilandhoo School","status":1},"geometry":{"type":"Point","coordinates":[72.93017355586771,2.271743519537666]}},{"type":"Feature","properties":{"lng":73.12314,"ltt":5.21602,"pid2":70606,"name":"Kihaadhoo School","status":1},"geometry":{"type":"Point","coordinates":[73.12313890187258,5.216018203686179]}},{"type":"Feature","properties":{"lng":73.39945,"ltt":5.88253,"pid2":33479,"name":"Kudafaree School","status":1},"geometry":{"type":"Point","coordinates":[73.39944510259383,5.882533025921356]}},{"type":"Feature","properties":{"lng":73.41234,"ltt":5.76637,"pid2":76670,"name":"Noonu Atoll School","status":1},"geometry":{"type":"Point","coordinates":[73.41234439908392,5.766368998545505]}},{"type":"Feature","properties":{"lng":72.95309,"ltt":6.5496,"pid2":40729,"name":"HDH Atholhu Madharusa","status":1},"geometry":{"type":"Point","coordinates":[72.95309277980527,6.549603387639349]}},{"type":"Feature","properties":{"lng":73.24145,"ltt":0.55692,"pid2":50058,"name":"GS200","status":1},"geometry":{"type":"Point","coordinates":[73.24145101666228,0.556922384870293]}},{"type":"Feature","properties":{"lng":73.11873,"ltt":6.70113,"pid2":88071,"name":"Nolhivaranfaru School","status":1},"geometry":{"type":"Point","coordinates":[73.11873200832189,6.701133679197077]}},{"type":"Feature","properties":{"lng":73.06666,"ltt":2.16658,"pid2":56052,"name":"Kinbidhoo School","status":1},"geometry":{"type":"Point","coordinates":[73.06665938021258,2.166577169587801]}},{"type":"Feature","properties":{"lng":73.04463,"ltt":5.56207,"pid2":73976,"name":"Rasmaadhoo School","status":1},"geometry":{"type":"Point","coordinates":[73.04463382319673,5.56207234018994]}},{"type":"Feature","properties":{"lng":73.21352,"ltt":2.25416,"pid2":56760,"name":"Gaadhiffushi School","status":1},"geometry":{"type":"Point","coordinates":[73.21352185821227,2.254160988366833]}},{"type":"Feature","properties":{"lng":73.5485,"ltt":0.50011,"pid2":47746,"name":"Konday School","status":1},"geometry":{"type":"Point","coordinates":[73.54849613887988,0.500111330408409]}},{"type":"Feature","properties":{"lng":73.05092,"ltt":6.74686,"pid2":89143,"name":"Finey School","status":1},"geometry":{"type":"Point","coordinates":[73.05092105494349,6.746854842319796]}},{"type":"Feature","properties":{"lng":72.8947,"ltt":2.67161,"pid2":0,"name":"Ixcel Centre for Professional Studies","status":2},"geometry":{"type":"Point","coordinates":[72.89469965699652,2.671609461981812]}},{"type":"Feature","properties":{"lng":73.48574,"ltt":4.1727,"pid2":105426,"name":"Muhyiddin Pre School","status":1},"geometry":{"type":"Point","coordinates":[73.48574282000024,4.172696828]}},{"type":"Feature","properties":{"lng":73.51188,"ltt":4.17205,"pid2":108303,"name":"Galolhu School","status":1},"geometry":{"type":"Point","coordinates":[73.51188418216051,4.172045578269603]}},{"type":"Feature","properties":{"lng":73.50915,"ltt":4.17061,"pid2":108334,"name":"Maldives National University","status":2},"geometry":{"type":"Point","coordinates":[73.509148564169,4.17061185753944]}},{"type":"Feature","properties":{"lng":73.50905,"ltt":4.16968,"pid2":108338,"name":"Villa International High School","status":1},"geometry":{"type":"Point","coordinates":[73.5090485300002,4.169675152000017]}},{"type":"Feature","properties":{"lng":73.50905,"ltt":4.16952,"pid2":108338,"name":"Villa College","status":2},"geometry":{"type":"Point","coordinates":[73.50904813861955,4.169522924984912]}},{"type":"Feature","properties":{"lng":73.51104,"ltt":4.17097,"pid2":108427,"name":"Imaduddin School","status":1},"geometry":{"type":"Point","coordinates":[73.51103636677645,4.170970822210568]}},{"type":"Feature","properties":{"lng":73.51036,"ltt":4.17058,"pid2":108428,"name":"Maldives Polytechnic","status":2},"geometry":{"type":"Point","coordinates":[73.51036286320974,4.170584049998263]}},{"type":"Feature","properties":{"lng":73.51499,"ltt":4.17199,"pid2":108568,"name":"Finland International School","status":1},"geometry":{"type":"Point","coordinates":[73.51499201266198,4.171989255569862]}},{"type":"Feature","properties":{"lng":73.51476,"ltt":4.17121,"pid2":108722,"name":"Kalaafaanu School","status":1},"geometry":{"type":"Point","coordinates":[73.51475992723644,4.171206355748346]}},{"type":"Feature","properties":{"lng":73.51166,"ltt":4.17442,"pid2":108727,"name":"Avid College","status":2},"geometry":{"type":"Point","coordinates":[73.51166521826829,4.174421254382463]}},{"type":"Feature","properties":{"lng":73.50739,"ltt":4.17148,"pid2":108810,"name":"Ghiyasuddin International School","status":1},"geometry":{"type":"Point","coordinates":[73.5073928894863,4.171474726019853]}},{"type":"Feature","properties":{"lng":73.50944,"ltt":4.17134,"pid2":108833,"name":"Billabong High International School","status":1},"geometry":{"type":"Point","coordinates":[73.50943557007336,4.171335040381896]}},{"type":"Feature","properties":{"lng":73.50886,"ltt":4.17202,"pid2":108846,"name":"Ahmadhiyya International School","status":1},"geometry":{"type":"Point","coordinates":[73.50886368855825,4.172022047394737]}},{"type":"Feature","properties":{"lng":73.50953,"ltt":4.17293,"pid2":109545,"name":"Jamaluddin School","status":1},"geometry":{"type":"Point","coordinates":[73.50953026802678,4.172933636989345]}},{"type":"Feature","properties":{"lng":73.50894,"ltt":4.17335,"pid2":109789,"name":"Maldives Business School","status":2},"geometry":{"type":"Point","coordinates":[73.5089393869614,4.173346747478297]}},{"type":"Feature","properties":{"lng":73.50183,"ltt":4.17399,"pid2":110148,"name":"Thaajuddeen School","status":1},"geometry":{"type":"Point","coordinates":[73.50183256972139,4.173986588462744]}},{"type":"Feature","properties":{"lng":73.51592,"ltt":4.17371,"pid2":110191,"name":"MAPS College","status":2},"geometry":{"type":"Point","coordinates":[73.51591973591843,4.173714877650043]}},{"type":"Feature","properties":{"lng":73.50229,"ltt":4.17439,"pid2":111786,"name":"Hiriya School","status":1},"geometry":{"type":"Point","coordinates":[73.50229015192922,4.17438808135999]}},{"type":"Feature","properties":{"lng":73.51046,"ltt":4.17592,"pid2":112768,"name":"Mandhu College","status":2},"geometry":{"type":"Point","coordinates":[73.51046085546054,4.175922838172514]}},{"type":"Feature","properties":{"lng":73.50245,"ltt":4.17614,"pid2":112863,"name":"Maafannu Madharusa","status":1},"geometry":{"type":"Point","coordinates":[73.50245078994286,4.176143290883082]}},{"type":"Feature","properties":{"lng":73.51519,"ltt":4.17591,"pid2":112977,"name":"Islamic University of Maldives","status":2},"geometry":{"type":"Point","coordinates":[73.51519205193692,4.175912578930605]}},{"type":"Feature","properties":{"lng":73.50969,"ltt":4.17645,"pid2":113236,"name":"Iskandhar School","status":1},"geometry":{"type":"Point","coordinates":[73.50968570045573,4.176446620570371]}},{"type":"Feature","properties":{"lng":73.51739,"ltt":4.17635,"pid2":113554,"name":"PL Kids Preschool","status":1},"geometry":{"type":"Point","coordinates":[73.51739513513014,4.176348218087828]}},{"type":"Feature","properties":{"lng":73.50947,"ltt":4.17745,"pid2":113866,"name":"Clique College","status":2},"geometry":{"type":"Point","coordinates":[73.509472738152,4.177445601574212]}},{"type":"Feature","properties":{"lng":73.51019,"ltt":4.17687,"pid2":113895,"name":"Aminiya School","status":1},"geometry":{"type":"Point","coordinates":[73.51019014972333,4.176868719868262]}},{"type":"Feature","properties":{"lng":73.51482,"ltt":4.1776,"pid2":114552,"name":"Majeediyya School","status":1},"geometry":{"type":"Point","coordinates":[73.51482179762112,4.177595368738351]}},{"type":"Feature","properties":{"lng":73.51392,"ltt":4.17775,"pid2":114554,"name":"Dharumavantha School","status":1},"geometry":{"type":"Point","coordinates":[73.51391588054256,4.177746792269671]}},{"type":"Feature","properties":{"lng":73.51303,"ltt":4.17779,"pid2":114590,"name":"Al Madharusathul Arabiyyathul Islamiyya","status":1},"geometry":{"type":"Point","coordinates":[73.51303164722356,4.177787576068957]}},{"type":"Feature","properties":{"lng":73.51066,"ltt":4.17295,"pid2":116530,"name":"Cyryx College - Galolhu Campus","status":2},"geometry":{"type":"Point","coordinates":[73.5106642120761,4.172952058361359]}},{"type":"Feature","properties":{"lng":73.51089,"ltt":4.1767,"pid2":0,"name":"Centre for Higher Secondary Education","status":1},"geometry":{"type":"Point","coordinates":[73.51088637700451,4.176697759229707]}},{"type":"Feature","properties":{"lng":73.50924,"ltt":4.17005,"pid2":0,"name":"Izzudheen School","status":1},"geometry":{"type":"Point","coordinates":[73.5092401769506,4.170054500133012]}},{"type":"Feature","properties":{"lng":73.50655,"ltt":4.17448,"pid2":111065,"name":"Mianz International College","status":2},"geometry":{"type":"Point","coordinates":[73.50654532735739,4.174482522716633]}},{"type":"Feature","properties":{"lng":73.50849,"ltt":4.17458,"pid2":111421,"name":"Zikura International College","status":2},"geometry":{"type":"Point","coordinates":[73.50848848921585,4.174578528476934]}},{"type":"Feature","properties":{"lng":73.50403,"ltt":4.1777,"pid2":114531,"name":"Maldives Institute of Technology","status":2},"geometry":{"type":"Point","coordinates":[73.50402622225367,4.17769532932626]}},{"type":"Feature","properties":{"lng":73.58068,"ltt":2.92057,"pid2":24395,"name":"M.Atoll Education Center","status":1},"geometry":{"type":"Point","coordinates":[73.5806785454102,2.920565133648592]}},{"type":"Feature","properties":{"lng":73.2643,"ltt":5.75573,"pid2":33188,"name":"Meynaa School","status":1},"geometry":{"type":"Point","coordinates":[73.26429764859213,5.755733984450839]}},{"type":"Feature","properties":{"lng":72.87601,"ltt":3.48264,"pid2":62590,"name":"Dhidhdhoo School","status":1},"geometry":{"type":"Point","coordinates":[72.87601518198774,3.482642319112002]}},{"type":"Feature","properties":{"lng":73.13803,"ltt":0.22193,"pid2":46189,"name":"Fiyoaree School","status":1},"geometry":{"type":"Point","coordinates":[73.13802666162218,0.221929957278746]}},{"type":"Feature","properties":{"lng":72.77309,"ltt":4.18508,"pid2":64982,"name":"Bodufolhudhoo School","status":1},"geometry":{"type":"Point","coordinates":[72.77309015856315,4.185075975396914]}},{"type":"Feature","properties":{"lng":73.38819,"ltt":1.81968,"pid2":51441,"name":"Maamendhoo School","status":1},"geometry":{"type":"Point","coordinates":[73.38819225120616,1.819679891235486]}},{"type":"Feature","properties":{"lng":72.92476,"ltt":7.08685,"pid2":95861,"name":"Uligamu School","status":1},"geometry":{"type":"Point","coordinates":[72.92476170120909,7.086847462362783]}},{"type":"Feature","properties":{"lng":73.27272,"ltt":5.66612,"pid2":32457,"name":"Noonu Atoll Education Centre","status":1},"geometry":{"type":"Point","coordinates":[73.27271529862128,5.666116944272249]}},{"type":"Feature","properties":{"lng":72.89448,"ltt":2.67098,"pid2":57887,"name":"Dh. Atoll Education Centre","status":1},"geometry":{"type":"Point","coordinates":[72.8944779966087,2.6709790398621]}},{"type":"Feature","properties":{"lng":73.37626,"ltt":5.8157,"pid2":78598,"name":"Lhohee School","status":1},"geometry":{"type":"Point","coordinates":[73.37625914664491,5.815696046891548]}},{"type":"Feature","properties":{"lng":72.96082,"ltt":4.4381,"pid2":28730,"name":"Thoddu School","status":1},"geometry":{"type":"Point","coordinates":[72.96081602941514,4.438101292915715]}},{"type":"Feature","properties":{"lng":72.91749,"ltt":2.3246,"pid2":24314,"name":"Kandoodhoo School","status":1},"geometry":{"type":"Point","coordinates":[72.91748847299533,2.324603133914165]}},{"type":"Feature","properties":{"lng":73.11369,"ltt":6.83355,"pid2":37143,"name":"Gaazee Bandaarain School","status":1},"geometry":{"type":"Point","coordinates":[73.11369037571446,6.833553158438435]}},{"type":"Feature","properties":{"lng":73.46228,"ltt":5.33374,"pid2":71628,"name":"Habashee Pre-School","status":1},"geometry":{"type":"Point","coordinates":[73.4622842056678,5.33374129379289]}},{"type":"Feature","properties":{"lng":73.46385,"ltt":5.3351,"pid2":71906,"name":"Lh.Atoll School","status":1},"geometry":{"type":"Point","coordinates":[73.46384736101602,5.335098756612166]}},{"type":"Feature","properties":{"lng":72.78478,"ltt":3.4905,"pid2":63159,"name":"Fenfushee School","status":1},"geometry":{"type":"Point","coordinates":[72.78478264213577,3.490496696274544]}},{"type":"Feature","properties":{"lng":73.6059,"ltt":5.27834,"pid2":30507,"name":"Lh. Olhuvelifushi School","status":1},"geometry":{"type":"Point","coordinates":[73.60590358080943,5.278335064779265]}},{"type":"Feature","properties":{"lng":73.13664,"ltt":5.28191,"pid2":71063,"name":"Kamadhoo School","status":1},"geometry":{"type":"Point","coordinates":[73.13663755236388,5.28191125595558]}},{"type":"Feature","properties":{"lng":72.97328,"ltt":4.88,"pid2":43379,"name":"Fehendhoo School","status":1},"geometry":{"type":"Point","coordinates":[72.97327839132217,4.880003847125411]}},{"type":"Feature","properties":{"lng":73.24482,"ltt":6.28654,"pid2":85345,"name":"Milandhoo School","status":1},"geometry":{"type":"Point","coordinates":[73.2448238221122,6.2865440672032]}},{"type":"Feature","properties":{"lng":73.58376,"ltt":2.94971,"pid2":59503,"name":"Mulaku School","status":1},"geometry":{"type":"Point","coordinates":[73.5837609278489,2.949711359053753]}},{"type":"Feature","properties":{"lng":73.05033,"ltt":6.57497,"pid2":36818,"name":"Kumundhoo School","status":1},"geometry":{"type":"Point","coordinates":[73.05033447017311,6.574968268265506]}},{"type":"Feature","properties":{"lng":72.96707,"ltt":3.75744,"pid2":26425,"name":"ADh. Atoll Education Centre","status":1},"geometry":{"type":"Point","coordinates":[72.96707105201826,3.757440736943923]}},{"type":"Feature","properties":{"lng":73.21793,"ltt":6.26463,"pid2":84352,"name":"Narudhoo School","status":1},"geometry":{"type":"Point","coordinates":[73.21792810993753,6.264625423779419]}},{"type":"Feature","properties":{"lng":73.00002,"ltt":0.45979,"pid2":47472,"name":"Madaveli School","status":1},"geometry":{"type":"Point","coordinates":[73.00002547506705,0.459793412777663]}},{"type":"Feature","properties":{"lng":73.48046,"ltt":5.83081,"pid2":79111,"name":"Maafaru School","status":1},"geometry":{"type":"Point","coordinates":[73.4804586841794,5.830811167135723]}},{"type":"Feature","properties":{"lng":73.21218,"ltt":6.9593,"pid2":38497,"name":"Madhrasathul Sheikh Ibrahim","status":1},"geometry":{"type":"Point","coordinates":[73.21218033993814,6.959297148719272]}},{"type":"Feature","properties":{"lng":73.04456,"ltt":5.5503,"pid2":73862,"name":"Innamaadhoo School","status":1},"geometry":{"type":"Point","coordinates":[73.04456279014822,5.550297573048104]}},{"type":"Feature","properties":{"lng":73.04477,"ltt":5.5507,"pid2":73881,"name":"Iyaar Pre-School","status":1},"geometry":{"type":"Point","coordinates":[73.04476609000123,5.550696083]}},{"type":"Feature","properties":{"lng":73.11489,"ltt":6.88472,"pid2":92623,"name":"HA Atholhu Thauleemee Markaz","status":1},"geometry":{"type":"Point","coordinates":[73.11489138230871,6.884716285362411]}},{"type":"Feature","properties":{"lng":73.18708,"ltt":0.20133,"pid2":45234,"name":"Huvadhoo School","status":1},"geometry":{"type":"Point","coordinates":[73.18707774620765,0.201326474770937]}},{"type":"Feature","properties":{"lng":72.89553,"ltt":5.48769,"pid2":31767,"name":"M.E.C Nursery Class","status":1},"geometry":{"type":"Point","coordinates":[72.89552945967532,5.487692331454912]}},{"type":"Feature","properties":{"lng":72.89647,"ltt":5.48531,"pid2":41434,"name":"Maduvvaree School","status":1},"geometry":{"type":"Point","coordinates":[72.8964699542297,5.48530727117137]}},{"type":"Feature","properties":{"lng":73.50913,"ltt":3.98939,"pid2":27208,"name":"Gulhi School","status":1},"geometry":{"type":"Point","coordinates":[73.5091309804077,3.989391057614266]}},{"type":"Feature","properties":{"lng":72.95289,"ltt":5.96594,"pid2":81326,"name":"Alifushee Pre-School","status":1},"geometry":{"type":"Point","coordinates":[72.95289385000169,5.96594438300002]}},{"type":"Feature","properties":{"lng":72.95345,"ltt":5.9671,"pid2":81626,"name":"Alifushi School","status":1},"geometry":{"type":"Point","coordinates":[72.95345238175281,5.967095476853598]}},{"type":"Feature","properties":{"lng":73.54149,"ltt":4.2095,"pid2":105702,"name":"Rehendhi School","status":1},"geometry":{"type":"Point","coordinates":[73.5414870200002,4.209502563]}},{"type":"Feature","properties":{"lng":73.54151,"ltt":4.21336,"pid2":106907,"name":"Ghaazee School","status":1},"geometry":{"type":"Point","coordinates":[73.54150514000018,4.213361932]}},{"type":"Feature","properties":{"lng":73.53984,"ltt":4.21976,"pid2":107074,"name":"Ajial International School","status":1},"geometry":{"type":"Point","coordinates":[73.53983798000019,4.219763427000014]}},{"type":"Feature","properties":{"lng":73.54433,"ltt":4.2197,"pid2":107237,"name":"Huravee School","status":1},"geometry":{"type":"Point","coordinates":[73.54432825000018,4.219698143000014]}},{"type":"Feature","properties":{"lng":73.54394,"ltt":4.21849,"pid2":107297,"name":"Brightway International School","status":1},"geometry":{"type":"Point","coordinates":[73.54394447000017,4.218491194000034]}},{"type":"Feature","properties":{"lng":73.54163,"ltt":4.22059,"pid2":107486,"name":"Centre for Higher Secondary Education","status":1},"geometry":{"type":"Point","coordinates":[73.54162576010953,4.220586253101807]}},{"type":"Feature","properties":{"lng":73.54728,"ltt":4.23035,"pid2":0,"name":"Salahuddin School","status":1},"geometry":{"type":"Point","coordinates":[73.54728219000019,4.23035297]}},{"type":"Feature","properties":{"lng":73.54843,"ltt":4.23052,"pid2":0,"name":"Kaamil Didi Primary School","status":1},"geometry":{"type":"Point","coordinates":[73.54843200439619,4.230518721132328]}},{"type":"Feature","properties":{"lng":73.54284,"ltt":4.21399,"pid2":0,"name":"Mohamed Qasim Preschool","status":1},"geometry":{"type":"Point","coordinates":[73.54283600000018,4.213986]}},{"type":"Feature","properties":{"lng":73.01099,"ltt":5.76603,"pid2":76774,"name":"Huzooru Pr-School","status":1},"geometry":{"type":"Point","coordinates":[73.0109914800014,5.766027239]}},{"type":"Feature","properties":{"lng":73.01194,"ltt":5.76638,"pid2":76951,"name":"Hulhudhuffaaru School","status":1},"geometry":{"type":"Point","coordinates":[73.01194167004378,5.766380739064123]}},{"type":"Feature","properties":{"lng":72.95676,"ltt":5.4599,"pid2":0,"name":"Meedhoo Pre-School","status":1},"geometry":{"type":"Point","coordinates":[72.9567549200017,5.459900770999983]}},{"type":"Feature","properties":{"lng":72.95561,"ltt":5.45769,"pid2":31217,"name":"Raa Atoll Education Center","status":1},"geometry":{"type":"Point","coordinates":[72.95561289880457,5.457688277329283]}},{"type":"Feature","properties":{"lng":72.98434,"ltt":3.11805,"pid2":60725,"name":"Bilehdhoo school","status":1},"geometry":{"type":"Point","coordinates":[72.98434213964372,3.118049647576873]}},{"type":"Feature","properties":{"lng":72.9915,"ltt":5.85791,"pid2":79478,"name":"Vaadhoo School","status":1},"geometry":{"type":"Point","coordinates":[72.99150150289223,5.857905110774391]}},{"type":"Feature","properties":{"lng":73.35636,"ltt":2.35955,"pid2":101348,"name":"Madifushi School","status":1},"geometry":{"type":"Point","coordinates":[73.35635829560054,2.359547073474925]}},{"type":"Feature","properties":{"lng":73.10695,"ltt":0.25117,"pid2":97891,"name":"Rathafandhoo School","status":1},"geometry":{"type":"Point","coordinates":[73.10695370838901,0.251165121589423]}},{"type":"Feature","properties":{"lng":73.10748,"ltt":5.1368,"pid2":69877,"name":"Maalolhu School","status":1},"geometry":{"type":"Point","coordinates":[73.10748151778951,5.136803248934752]}},{"type":"Feature","properties":{"lng":73.14788,"ltt":6.32571,"pid2":33952,"name":"Foakaidhoo School","status":1},"geometry":{"type":"Point","coordinates":[73.14788041332162,6.325708003900568]}},{"type":"Feature","properties":{"lng":73.08359,"ltt":6.66537,"pid2":87277,"name":"Nolhivaram School","status":1},"geometry":{"type":"Point","coordinates":[73.08358972146874,6.66537347318825]}},{"type":"Feature","properties":{"lng":72.84585,"ltt":2.85911,"pid2":58835,"name":"Hulhudheli School","status":1},"geometry":{"type":"Point","coordinates":[72.84584576520045,2.859106600525956]}},{"type":"Feature","properties":{"lng":73.46374,"ltt":4.95869,"pid2":68240,"name":"K. Atoll School","status":1},"geometry":{"type":"Point","coordinates":[73.46373466478417,4.95868813838694]}},{"type":"Feature","properties":{"lng":73.00978,"ltt":5.27507,"pid2":70806,"name":"Kendhoo School","status":1},"geometry":{"type":"Point","coordinates":[73.00978390277398,5.275068225730069]}},{"type":"Feature","properties":{"lng":72.84112,"ltt":5.02192,"pid2":29931,"name":"Thulhaadhoo School","status":1},"geometry":{"type":"Point","coordinates":[72.84112034970254,5.021917229099992]}},{"type":"Feature","properties":{"lng":73.59873,"ltt":4.33175,"pid2":65902,"name":"Huraa School","status":1},"geometry":{"type":"Point","coordinates":[73.59872765381859,4.331754372130185]}},{"type":"Feature","properties":{"lng":72.9763,"ltt":6.54652,"pid2":36286,"name":"Neykarandhoo School","status":1},"geometry":{"type":"Point","coordinates":[72.97629661036662,6.546522639864627]}},{"type":"Feature","properties":{"lng":73.09358,"ltt":2.1891,"pid2":100710,"name":"Veymandoo School","status":1},"geometry":{"type":"Point","coordinates":[73.09357576469043,2.189100985252716]}},{"type":"Feature","properties":{"lng":72.98255,"ltt":6.85285,"pid2":92204,"name":"Maarandhoo School","status":1},"geometry":{"type":"Point","coordinates":[72.98255220311432,6.852847692065956]}},{"type":"Feature","properties":{"lng":72.94577,"ltt":6.71658,"pid2":88600,"name":"Nellaidhoo School","status":1},"geometry":{"type":"Point","coordinates":[72.94576975004584,6.71658130196956]}},{"type":"Feature","properties":{"lng":72.70628,"ltt":6.41342,"pid2":35745,"name":"Makunudhoo School","status":1},"geometry":{"type":"Point","coordinates":[72.70628090029658,6.413423775895383]}},{"type":"Feature","properties":{"lng":73.16659,"ltt":6.83866,"pid2":91503,"name":"Muraidhoo School","status":1},"geometry":{"type":"Point","coordinates":[73.16659015973869,6.838662349516822]}},{"type":"Feature","properties":{"lng":72.93545,"ltt":6.74818,"pid2":89350,"name":"Naivaadhoo School","status":1},"geometry":{"type":"Point","coordinates":[72.93544749399145,6.74818074774389]}},{"type":"Feature","properties":{"lng":72.9977,"ltt":0.52553,"pid2":47933,"name":"Kangaroo Preschool / Gdh.Thinadhoo","status":1},"geometry":{"type":"Point","coordinates":[72.99769568000168,0.52552770000002]}},{"type":"Feature","properties":{"lng":72.99559,"ltt":0.52532,"pid2":47968,"name":"Aboobakuru School","status":1},"geometry":{"type":"Point","coordinates":[72.99559324501843,0.52532258674132]}},{"type":"Feature","properties":{"lng":72.99856,"ltt":0.53064,"pid2":48924,"name":"Gaafu Dhaalu Atoll Education Centre","status":1},"geometry":{"type":"Point","coordinates":[72.99856231044565,0.530641293054285]}},{"type":"Feature","properties":{"lng":72.99738,"ltt":0.53403,"pid2":49509,"name":"Thinadhoo School","status":1},"geometry":{"type":"Point","coordinates":[72.99737957362385,0.534028199900151]}},{"type":"Feature","properties":{"lng":73.43743,"ltt":-0.30728,"pid2":6950,"name":"Fuvamulaku School","status":1},"geometry":{"type":"Point","coordinates":[73.43743086916788,-0.307282367523334]}},{"type":"Feature","properties":{"lng":73.42637,"ltt":-0.30274,"pid2":7543,"name":"Hafiz Ahmed School","status":1},"geometry":{"type":"Point","coordinates":[73.42636608482607,-0.302736702884909]}},{"type":"Feature","properties":{"lng":73.42434,"ltt":-0.29739,"pid2":7584,"name":"Brightway International School","status":1},"geometry":{"type":"Point","coordinates":[73.42434254360032,-0.297392567203001]}},{"type":"Feature","properties":{"lng":73.42367,"ltt":-0.29793,"pid2":8094,"name":"Zikura School","status":1},"geometry":{"type":"Point","coordinates":[73.42366574400035,-0.297929801999966]}},{"type":"Feature","properties":{"lng":73.4216,"ltt":-0.29535,"pid2":8399,"name":"Ideal School","status":1},"geometry":{"type":"Point","coordinates":[73.42159773756019,-0.295350925656825]}},{"type":"Feature","properties":{"lng":73.42372,"ltt":-0.2954,"pid2":8431,"name":"GN. Atoll Education Centre","status":1},"geometry":{"type":"Point","coordinates":[73.42371597580232,-0.295401410042277]}},{"type":"Feature","properties":{"lng":73.41559,"ltt":-0.29128,"pid2":9319,"name":"Mohamed Jamaluddin School","status":1},"geometry":{"type":"Point","coordinates":[73.41558714000034,-0.291279352999975]}},{"type":"Feature","properties":{"lng":73.46779,"ltt":3.90113,"pid2":26809,"name":"Guraidhoo School","status":1},"geometry":{"type":"Point","coordinates":[73.46779019314737,3.90113341311802]}},{"type":"Feature","properties":{"lng":73.18283,"ltt":0.8389,"pid2":50966,"name":"G.A. Atoll School","status":1},"geometry":{"type":"Point","coordinates":[73.18283130112042,0.838894796155028]}},{"type":"Feature","properties":{"lng":73.65164,"ltt":4.37419,"pid2":66599,"name":"K. Atoll Education Centre","status":1},"geometry":{"type":"Point","coordinates":[73.65164063669788,4.374185109698883]}},{"type":"Feature","properties":{"lng":73.46102,"ltt":0.62053,"pid2":20888,"name":"Dhaandhoo School","status":1},"geometry":{"type":"Point","coordinates":[73.4610228422008,0.620533892881202]}},{"type":"Feature","properties":{"lng":72.92426,"ltt":3.77575,"pid2":26556,"name":"Kunburudhoo School","status":1},"geometry":{"type":"Point","coordinates":[72.92426142251118,3.775752181617968]}},{"type":"Feature","properties":{"lng":73.02709,"ltt":2.16869,"pid2":56446,"name":"Omadhoo School","status":1},"geometry":{"type":"Point","coordinates":[73.02709172841394,2.168687055467168]}},{"type":"Feature","properties":{"lng":73.6382,"ltt":3.08943,"pid2":60412,"name":"Riymandhoo School","status":1},"geometry":{"type":"Point","coordinates":[73.63819501010181,3.0894315195749]}},{"type":"Feature","properties":{"lng":73.04147,"ltt":5.63037,"pid2":0,"name":"IBS Pre School","status":1},"geometry":{"type":"Point","coordinates":[73.04146622000125,5.630366279999982]}},{"type":"Feature","properties":{"lng":73.04198,"ltt":5.6277,"pid2":42919,"name":"Raa Atoll School","status":1},"geometry":{"type":"Point","coordinates":[73.0419803193098,5.627700945087724]}},{"type":"Feature","properties":{"lng":73.04196,"ltt":5.62579,"pid2":43034,"name":"Dhuvaafaru Primary School","status":1},"geometry":{"type":"Point","coordinates":[73.04196134607682,5.625792093326115]}},{"type":"Feature","properties":{"lng":73.57716,"ltt":2.89425,"pid2":58985,"name":"Naalaafushi School","status":1},"geometry":{"type":"Point","coordinates":[73.57715690677027,2.894249653244417]}},{"type":"Feature","properties":{"lng":72.93036,"ltt":6.42828,"pid2":35834,"name":"Sh. Goidhoo School","status":1},"geometry":{"type":"Point","coordinates":[72.9303545755319,6.428276305474125]}},{"type":"Feature","properties":{"lng":73.13058,"ltt":5.15838,"pid2":70228,"name":"Baa Atoll School","status":1},"geometry":{"type":"Point","coordinates":[73.13058140665034,5.158382291361869]}},{"type":"Feature","properties":{"lng":73.00234,"ltt":0.44302,"pid2":46718,"name":"Hoandeddhoo School","status":1},"geometry":{"type":"Point","coordinates":[73.00233960922756,0.44301817831852]}},{"type":"Feature","properties":{"lng":72.99727,"ltt":6.66606,"pid2":87474,"name":"Kurin'bee School","status":1},"geometry":{"type":"Point","coordinates":[72.99726652032818,6.666055491442331]}},{"type":"Feature","properties":{"lng":73.53867,"ltt":0.35045,"pid2":20526,"name":"Kanduhulhudhoo School","status":1},"geometry":{"type":"Point","coordinates":[73.53866698758466,0.35045320986973]}},{"type":"Feature","properties":{"lng":72.9419,"ltt":2.29371,"pid2":24062,"name":"Vandhoo School","status":1},"geometry":{"type":"Point","coordinates":[72.94189799829707,2.293707669357235]}},{"type":"Feature","properties":{"lng":73.29037,"ltt":6.14968,"pid2":83209,"name":"Funadhoo School","status":1},"geometry":{"type":"Point","coordinates":[73.2903662742197,6.149679734239857]}},{"type":"Feature","properties":{"lng":73.41626,"ltt":5.95086,"pid2":80732,"name":"Kendhikulhudhoo School","status":1},"geometry":{"type":"Point","coordinates":[73.41625494929619,5.950856201960026]}},{"type":"Feature","properties":{"lng":73.50086,"ltt":4.73693,"pid2":67613,"name":"Gaafaru School","status":1},"geometry":{"type":"Point","coordinates":[73.50085992515845,4.73693179161951]}},{"type":"Feature","properties":{"lng":72.74493,"ltt":3.91998,"pid2":64060,"name":"Himandhoo School","status":1},"geometry":{"type":"Point","coordinates":[72.74493019695268,3.919979968580588]}},{"type":"Feature","properties":{"lng":73.45952,"ltt":0.29018,"pid2":20042,"name":"G.Dh Atoll School","status":1},"geometry":{"type":"Point","coordinates":[73.45951908799249,0.290177744653885]}},{"type":"Feature","properties":{"lng":73.71343,"ltt":4.44155,"pid2":66955,"name":"Dhiffushi School","status":1},"geometry":{"type":"Point","coordinates":[73.71343115333765,4.441545771637432]}},{"type":"Feature","properties":{"lng":72.99692,"ltt":7.01462,"pid2":38790,"name":"Mulhadhoo School","status":1},"geometry":{"type":"Point","coordinates":[72.99691530142259,7.014616156249766]}},{"type":"Feature","properties":{"lng":73.36497,"ltt":5.77657,"pid2":77501,"name":"Magoodhoo School","status":1},"geometry":{"type":"Point","coordinates":[73.36496531059449,5.776572030521225]}},{"type":"Feature","properties":{"lng":72.92691,"ltt":6.95432,"pid2":94414,"name":"Ihavandhoo School","status":1},"geometry":{"type":"Point","coordinates":[72.92691111600584,6.954320737128205]}},{"type":"Feature","properties":{"lng":72.89913,"ltt":7.10323,"pid2":38804,"name":"Thuraakunu School","status":1},"geometry":{"type":"Point","coordinates":[72.89913317864385,7.103228828326409]}},{"type":"Feature","properties":{"lng":72.86208,"ltt":4.21738,"pid2":28051,"name":"Ukulhahu School","status":1},"geometry":{"type":"Point","coordinates":[72.86208473700496,4.217378622611503]}},{"type":"Feature","properties":{"lng":73.0362,"ltt":5.46416,"pid2":31653,"name":"Fainu School","status":1},"geometry":{"type":"Point","coordinates":[73.03619807998258,5.464158911781425]}},{"type":"Feature","properties":{"lng":72.99564,"ltt":4.87747,"pid2":29138,"name":"Goidhoo School","status":1},"geometry":{"type":"Point","coordinates":[72.99563846229734,4.87746654016306]}},{"type":"Feature","properties":{"lng":73.24298,"ltt":1.88577,"pid2":51817,"name":"Maavashu School","status":1},"geometry":{"type":"Point","coordinates":[73.24297914322085,1.885767910869028]}},{"type":"Feature","properties":{"lng":73.13544,"ltt":-0.68246,"pid2":667,"name":"Feydhoo School","status":1},"geometry":{"type":"Point","coordinates":[73.13543551373104,-0.682462770944293]}},{"type":"Feature","properties":{"lng":73.1329,"ltt":-0.68107,"pid2":893,"name":"Kudhimaa Pre School","status":1},"geometry":{"type":"Point","coordinates":[73.13290410000106,-0.681068567999947]}},{"type":"Feature","properties":{"lng":73.12533,"ltt":-0.67232,"pid2":45805,"name":"Maradoofeydhoo School","status":1},"geometry":{"type":"Point","coordinates":[73.12533104573914,-0.672318251212983]}},{"type":"Feature","properties":{"lng":73.39226,"ltt":5.96716,"pid2":81320,"name":"Hen'badhoo School","status":1},"geometry":{"type":"Point","coordinates":[73.39226437811902,5.967160140054204]}},{"type":"Feature","properties":{"lng":72.92794,"ltt":3.06422,"pid2":25313,"name":"Dharanboodhoo school","status":1},"geometry":{"type":"Point","coordinates":[72.92794189062946,3.064218876009904]}},{"type":"Feature","properties":{"lng":73.25182,"ltt":6.16419,"pid2":83799,"name":"Lhaimagu School","status":1},"geometry":{"type":"Point","coordinates":[73.25182406975307,6.164187175360349]}},{"type":"Feature","properties":{"lng":72.99546,"ltt":6.84216,"pid2":91726,"name":"Madhrasathul Shaheed Ali Thakurufaan","status":1},"geometry":{"type":"Point","coordinates":[72.99546112859593,6.84215576597111]}},{"type":"Feature","properties":{"lng":73.0687,"ltt":6.43412,"pid2":85962,"name":"Noomaraa School","status":1},"geometry":{"type":"Point","coordinates":[73.06870471517612,6.434115189065108]}},{"type":"Feature","properties":{"lng":73.21226,"ltt":6.81699,"pid2":90779,"name":"Baarashu School","status":1},"geometry":{"type":"Point","coordinates":[73.21225870096292,6.816991482353306]}},{"type":"Feature","properties":{"lng":73.22763,"ltt":6.87868,"pid2":38098,"name":"Madharusathul Sobah","status":1},"geometry":{"type":"Point","coordinates":[73.22762698575193,6.878680350851742]}},{"type":"Feature","properties":{"lng":72.92248,"ltt":5.00622,"pid2":68947,"name":"Hithadhoo School","status":1},"geometry":{"type":"Point","coordinates":[72.92248085481846,5.006217800315234]}},{"type":"Feature","properties":{"lng":73.09486,"ltt":-0.61163,"pid2":2837,"name":"Addu High School","status":1},"geometry":{"type":"Point","coordinates":[73.09486207049433,-0.611630122599863]}},{"type":"Feature","properties":{"lng":73.09276,"ltt":-0.60937,"pid2":3042,"name":"Sharafuddin School","status":1},"geometry":{"type":"Point","coordinates":[73.09276020661447,-0.609370911539277]}},{"type":"Feature","properties":{"lng":73.08666,"ltt":-0.60075,"pid2":3766,"name":"Nooraanee School","status":1},"geometry":{"type":"Point","coordinates":[73.08665964762706,-0.600752406414302]}},{"type":"Feature","properties":{"lng":73.08463,"ltt":-0.59977,"pid2":3855,"name":"Mianz international school","status":1},"geometry":{"type":"Point","coordinates":[73.08463025000124,-0.599773335]}},{"type":"Feature","properties":{"lng":73.08304,"ltt":-0.59651,"pid2":4244,"name":"Kangaroo husainiyya pre school","status":1},"geometry":{"type":"Point","coordinates":[73.08303808349731,-0.596511756101689]}},{"type":"Feature","properties":{"lng":73.07956,"ltt":-0.59306,"pid2":4928,"name":"Hithadhoo School","status":1},"geometry":{"type":"Point","coordinates":[73.07956359504105,-0.593060670427739]}},{"type":"Feature","properties":{"lng":73.09201,"ltt":-0.60686,"pid2":11346,"name":"Hiraa School","status":1},"geometry":{"type":"Point","coordinates":[73.09201206000121,-0.606862282]}},{"type":"Feature","properties":{"lng":73.08737,"ltt":-0.60794,"pid2":11511,"name":"Medhevalu School","status":1},"geometry":{"type":"Point","coordinates":[73.0873714000012,-0.607937543999971]}},{"type":"Feature","properties":{"lng":72.95522,"ltt":3.84885,"pid2":104868,"name":"Hangnaameedhoo School","status":1},"geometry":{"type":"Point","coordinates":[72.95521707554428,3.848847883518665]}},{"type":"Feature","properties":{"lng":73.50104,"ltt":1.83347,"pid2":22628,"name":"L. Atoll Education Centre","status":1},"geometry":{"type":"Point","coordinates":[73.50103882131981,1.833472343003302]}},{"type":"Feature","properties":{"lng":72.92821,"ltt":3.53504,"pid2":25828,"name":"Dhigurah School","status":1},"geometry":{"type":"Point","coordinates":[72.92820828173232,3.535036005196824]}},{"type":"Feature","properties":{"lng":73.54527,"ltt":2.09808,"pid2":23754,"name":"Dhanbidhoo School","status":1},"geometry":{"type":"Point","coordinates":[73.54527046096266,2.098075873105676]}},{"type":"Feature","properties":{"lng":73.00702,"ltt":2.99951,"pid2":24949,"name":"Dh. Atoll School","status":1},"geometry":{"type":"Point","coordinates":[73.00701641298146,2.999509062312601]}},{"type":"Feature","properties":{"lng":73.53239,"ltt":2.02409,"pid2":23274,"name":"L. Atoll School","status":1},"geometry":{"type":"Point","coordinates":[73.53239460287439,2.024088634655515]}},{"type":"Feature","properties":{"lng":73.05362,"ltt":6.05467,"pid2":82612,"name":"Sh. Atoll Education Centre","status":1},"geometry":{"type":"Point","coordinates":[73.05361842143608,6.05466668716207]}},{"type":"Feature","properties":{"lng":72.97594,"ltt":6.33801,"pid2":34389,"name":"Bileiyfahi School","status":1},"geometry":{"type":"Point","coordinates":[72.97594228907714,6.338005078934965]}},{"type":"Feature","properties":{"lng":73.36362,"ltt":5.79119,"pid2":77919,"name":"Hidhaya School","status":1},"geometry":{"type":"Point","coordinates":[73.36361504715339,5.79119305486539]}},{"type":"Feature","properties":{"lng":73.56071,"ltt":2.11053,"pid2":55302,"name":"Isdhookalhaidhoo School","status":1},"geometry":{"type":"Point","coordinates":[73.56071338580337,2.110534499334904]}},{"type":"Feature","properties":{"lng":73.57864,"ltt":2.12569,"pid2":55801,"name":"Isdhoo School","status":1},"geometry":{"type":"Point","coordinates":[73.5786354576356,2.125691596013955]}},{"type":"Feature","properties":{"lng":73.4377,"ltt":0.71516,"pid2":98815,"name":"Maamendhoo School","status":1},"geometry":{"type":"Point","coordinates":[73.43769822736259,0.715164058477924]}},{"type":"Feature","properties":{"lng":73.44949,"ltt":0.63254,"pid2":50313,"name":"Nilandhoo School","status":1},"geometry":{"type":"Point","coordinates":[73.44948586473404,0.632537220530877]}},{"type":"Feature","properties":{"lng":72.91706,"ltt":6.43999,"pid2":86213,"name":"Sh. Atoll School","status":1},"geometry":{"type":"Point","coordinates":[72.91706321299127,6.439990557077872]}},{"type":"Feature","properties":{"lng":73.04768,"ltt":6.35802,"pid2":34755,"name":"Feydhoo School","status":1},"geometry":{"type":"Point","coordinates":[73.04768233305386,6.358022519278161]}},{"type":"Feature","properties":{"lng":73.03834,"ltt":5.47609,"pid2":72061,"name":"Inguraidhoo Pre-School","status":1},"geometry":{"type":"Point","coordinates":[73.03833987589573,5.476094269758565]}},{"type":"Feature","properties":{"lng":73.03758,"ltt":5.47732,"pid2":72371,"name":"Inguraidhoo School","status":1},"geometry":{"type":"Point","coordinates":[73.0375815753013,5.477319261994603]}},{"type":"Feature","properties":{"lng":73.572,"ltt":4.30956,"pid2":65606,"name":"Himmafushee School","status":1},"geometry":{"type":"Point","coordinates":[73.57200157688193,4.309558417654352]}},{"type":"Feature","properties":{"lng":73.06321,"ltt":6.21174,"pid2":84295,"name":"Munavvara School","status":1},"geometry":{"type":"Point","coordinates":[73.06320596781106,6.211741266015503]}},{"type":"Feature","properties":{"lng":73.20834,"ltt":6.34796,"pid2":34606,"name":"Feevaku School","status":1},"geometry":{"type":"Point","coordinates":[73.20834284594416,6.347954754236371]}},{"type":"Feature","properties":{"lng":72.88995,"ltt":3.05591,"pid2":59815,"name":"Faafu Atoll Education center","status":1},"geometry":{"type":"Point","coordinates":[72.88994873434068,3.055913628105709]}},{"type":"Feature","properties":{"lng":73.31692,"ltt":2.32484,"pid2":56875,"name":"Th. Atoll School","status":1},"geometry":{"type":"Point","coordinates":[73.3169227590036,2.324842760145633]}},{"type":"Feature","properties":{"lng":73.57304,"ltt":3.10624,"pid2":60559,"name":"Maduvvary School","status":1},"geometry":{"type":"Point","coordinates":[73.57304540515665,3.106235094754278]}},{"type":"Feature","properties":{"lng":73.60032,"ltt":2.9594,"pid2":59592,"name":"Veyvashu School","status":1},"geometry":{"type":"Point","coordinates":[73.60031550060056,2.959395846062803]}},{"type":"Feature","properties":{"lng":73.02982,"ltt":5.6671,"pid2":74999,"name":"Ungoofaaru School","status":1},"geometry":{"type":"Point","coordinates":[73.02981973478616,5.667096594360576]}},{"type":"Feature","properties":{"lng":73.0308,"ltt":5.66725,"pid2":75000,"name":"Saif Pre-School","status":1},"geometry":{"type":"Point","coordinates":[73.03079732071222,5.667250696408269]}},{"type":"Feature","properties":{"lng":73.56783,"ltt":0.44429,"pid2":44836,"name":"Gemanafushi School","status":1},"geometry":{"type":"Point","coordinates":[73.56782988050925,0.444293313195633]}},{"type":"Feature","properties":{"lng":73.5096,"ltt":4.17744,"pid2":116530,"name":"Cyryx College","status":2},"geometry":{"type":"Point","coordinates":[73.50959640367498,4.17743899558175]}}]}