{"type":"FeatureCollection","name":"WardMaaleandFoahmulah_22","crs":{"type":"name","properties":{"name":"urn:ogc:def:crs:OGC:1.3:CRS84"}},"features":[{"type":"Feature","properties":{"OBJECTID":"1","SHAPE_Leng":2629.86714,"wardName":"Galolhu","wardNameDI":"ގަލޮޅު","Shape_Le_1":2719.69582,"Shape_Area":342081.01002},"geometry":{"type":"MultiPolygon","coordinates":[[[[73.50931371417543,4.169214439936685],[73.50965001670929,4.172475677474424],[73.50974514175961,4.17245691696517],[73.50975440418424,4.172455918951469],[73.5097636986722,4.17245654707112],[73.50977274512918,4.172458781799913],[73.5097812689556,4.172462555691873],[73.50978901275293,4.172467755210653],[73.50979574262534,4.172474222549894],[73.5098012553721,4.172481762882014],[73.50980538388686,4.172490147081764],[73.50980800344061,4.17249912349483],[73.51033098290078,4.175116305699963],[73.51034348686893,4.175114977423464],[73.51058100067115,4.176327104687351],[73.51058335295943,4.17633547104536],[73.5105870158605,4.1763433470087],[73.51059189517989,4.176350528913009],[73.51059786336839,4.176356827500703],[73.51060476310433,4.176362078780133],[73.51061241539868,4.176366144945343],[73.51062062048226,4.176368921612975],[73.51062916321506,4.176370335119281],[73.510637821183,4.176370347961904],[73.51064636919637,4.176368961521452],[73.51088353313753,4.176310407976796],[73.51089197394671,4.176309029468929],[73.51090052567486,4.176309016783852],[73.51090897033998,4.176310370411642],[73.51091709272886,4.176313055576888],[73.51092468669879,4.176317004059318],[73.51093155787815,4.176322115103503],[73.51093753176619,4.176328259051571],[73.510942456432,4.176335279157195],[73.51094620611059,4.17634299520998],[73.51094868478711,4.176351213490347],[73.51105479773759,4.176896620915353],[73.51134257418413,4.17686714340393],[73.51139082699541,4.177305913208283],[73.51215212893207,4.177268665001173],[73.51213291216403,4.177175066834931],[73.512131846178,4.177166196466042],[73.51213225572384,4.17715727101979],[73.51213413223125,4.177148536471083],[73.51213742209943,4.177140235091715],[73.51214203482594,4.177132593708976],[73.5121478439041,4.177125825516049],[73.51215468865166,4.177120115605433],[73.5121623796154,4.177115620979246],[73.51217070578208,4.177112467849775],[73.51217943730119,4.177110740792027],[73.51284909634764,4.177035567130059],[73.51296944468673,4.177004456147538],[73.5133726376372,4.176782389524822],[73.51318072606352,4.174813633583434],[73.51388915610619,4.174738389865611],[73.51384097975414,4.173096065398902],[73.5140254542133,4.173107133777858],[73.5137499937247,4.170534039960216],[73.51313938672548,4.170592385673394],[73.51303417286704,4.169595314543188],[73.51303355338963,4.169589295395761],[73.51275201190604,4.169544211332883],[73.51260444725078,4.169520581332043],[73.51266398292417,4.169124235810437],[73.5126445485932,4.16912181231838],[73.51258518707213,4.169514635606338],[73.51101668276347,4.169259595918087],[73.51063707623248,4.169196753103799],[73.5106279120488,4.169195235996193],[73.51059669193766,4.169189261199956],[73.51055597398539,4.169186868708053],[73.51044332149188,4.169188643926014],[73.51040415515959,4.169189261119128],[73.50931371417543,4.169214439936685]]]]}},{"type":"Feature","properties":{"OBJECTID":"2","SHAPE_Leng":3117.77567,"wardName":"Machchangolhi","wardNameDI":"މައްޗަންގޯ","Shape_Le_1":3118.63918,"Shape_Area":396209.97167},"geometry":{"type":"MultiPolygon","coordinates":[[[[73.50930361683518,4.169214673082092],[73.50925606817826,4.16921577096851],[73.50913811647175,4.169218494430847],[73.50908515960349,4.169219717179987],[73.5069265774267,4.169269554754876],[73.50692006077074,4.169269705203047],[73.5056572680071,4.169298857906286],[73.50554237130348,4.169301969196242],[73.50439702425189,4.169332983139799],[73.50468004235107,4.171996806211201],[73.50590908990664,4.171865333536545],[73.50598553469466,4.172797180957018],[73.50597585249842,4.172798196210646],[73.50657276669895,4.174108810924259],[73.50748883421363,4.175418159950151],[73.5073785607906,4.175429871403767],[73.50772683180568,4.176699692107436],[73.50913500793244,4.177411794775729],[73.50989244502233,4.177583141796443],[73.51002830786703,4.177986366011827],[73.5108488116106,4.177883358824366],[73.51085632623963,4.177943699702698],[73.51145269091954,4.177868459604203],[73.51139082699541,4.177305913208283],[73.51134257418413,4.17686714340393],[73.51105479773759,4.176896620915353],[73.51094868478711,4.176351213490347],[73.51094620611059,4.17634299520998],[73.510942456432,4.176335279157195],[73.51093753176619,4.176328259051571],[73.51093155787815,4.176322115103503],[73.51092468669879,4.176317004059318],[73.51091709272886,4.176313055576888],[73.51090897033998,4.176310370411642],[73.51090052567486,4.176309016783852],[73.51089197394671,4.176309029468929],[73.51088353313753,4.176310407976796],[73.51064636919637,4.176368961521452],[73.510637821183,4.176370347961904],[73.51062916321506,4.176370335119281],[73.51062062048226,4.176368921612975],[73.51061241539868,4.176366144945343],[73.51060476310433,4.176362078780133],[73.51059786336839,4.176356827500703],[73.51059189517989,4.176350528913009],[73.5105870158605,4.1763433470087],[73.51058335295943,4.17633547104536],[73.51058100067115,4.176327104687351],[73.51034348686893,4.175114977423464],[73.51033098290078,4.175116305699963],[73.50980800344061,4.17249912349483],[73.50980538388686,4.172490147081764],[73.5098012553721,4.172481762882014],[73.50979574262534,4.172474222549894],[73.50978901275293,4.172467755210653],[73.5097812689556,4.172462555691873],[73.50977274512918,4.172458781799913],[73.5097636986722,4.17245654707112],[73.50975440418424,4.172455918951469],[73.50974514175961,4.17245691696517],[73.50965001670929,4.172475677474424],[73.50931371417543,4.169214439936685],[73.50930361683518,4.169214673082092]]]]}},{"type":"Feature","properties":{"OBJECTID":"3","SHAPE_Leng":4325.31381,"wardName":"Henveyru","wardNameDI":"ހެންވޭރު","Shape_Le_1":4408.45806,"Shape_Area":564778.06417},"geometry":{"type":"MultiPolygon","coordinates":[[[[73.51055960589744,4.179563194520077],[73.51056249419455,4.179571766629461],[73.51093491370965,4.179466472916067],[73.51104610730602,4.17953602676166],[73.51107611255198,4.17952784674664],[73.51128542445856,4.179470784199991],[73.51138047720647,4.17944487092633],[73.51145429231569,4.179310058041498],[73.51164947643262,4.17926268426053],[73.5123801649257,4.179048985426786],[73.51296643294803,4.178889685102071],[73.5132695022187,4.178807335122645],[73.51327732725142,4.178847875239652],[73.514115340228,4.178609676030216],[73.51410870118087,4.178572621829907],[73.51542210221032,4.17820077103146],[73.51554243906277,4.178538905823916],[73.51555016408045,4.178536903700471],[73.51557779457927,4.178690262907796],[73.51591344055366,4.178593389741846],[73.51590876123245,4.178569388552629],[73.51590137780644,4.17853008101851],[73.51587668156418,4.178432512108411],[73.51583640811486,4.178297838582328],[73.51576493286598,4.178105540271605],[73.51660686208969,4.177859428310751],[73.51709649197919,4.178083490912496],[73.51677531830525,4.178174292077056],[73.51676372584917,4.178170812670045],[73.51674983538803,4.178170787263828],[73.51673481410887,4.17817767190105],[73.51672212935637,4.178190322776336],[73.51671986644325,4.178205301373268],[73.51672107501074,4.178220291067818],[73.51668466700056,4.178282863160894],[73.51667310962601,4.17828516100553],[73.51666393909413,4.178293292108091],[73.51665247357269,4.178303751262084],[73.5166480088851,4.178318906563471],[73.51664819343232,4.17833526083776],[73.51665762170263,4.178348155277344],[73.51666817978357,4.178357552806414],[73.51668329211965,4.178358776121688],[73.51669602537483,4.178355308426792],[73.51670981078632,4.178343650839751],[73.51671426883327,4.178329632332273],[73.51671404825966,4.178313275276079],[73.51671161808513,4.178305095971117],[73.51675238929627,4.178235357684998],[73.51676628784992,4.178235391246185],[73.51677784665539,4.178228496432842],[73.5167870703834,4.178216981234358],[73.51678935040428,4.178207758151335],[73.51678815533134,4.178198529390504],[73.51748993568461,4.178021490781449],[73.51786756527736,4.177919935403841],[73.51803230324052,4.177856518103687],[73.51826255772134,4.177724329818493],[73.51845044513331,4.17758787400385],[73.51862536705146,4.17740869229725],[73.51877667558061,4.177203145635733],[73.51888607301878,4.176995143855687],[73.518895628204,4.176971207863494],[73.51897093799766,4.176782554753086],[73.51902848756978,4.176545973179016],[73.51904246139624,4.176521230377514],[73.5190553183839,4.176502681386319],[73.51907746669495,4.176498024990877],[73.51913458031964,4.176504934816733],[73.51918763538544,4.17650595938666],[73.5192290283575,4.176507016171962],[73.51927290921527,4.176508068613869],[73.51931580734411,4.176492792382292],[73.51934214308476,4.176472851693195],[73.5193566173494,4.176445904039335],[73.51935797997591,4.176414308401178],[73.51934967868118,4.176381620996126],[73.5193330279029,4.17636068563287],[73.51930339406591,4.176340990961832],[73.5192714120057,4.176315512848825],[73.51924771967917,4.176284208998928],[73.51923116075127,4.176265692126961],[73.51919214967769,4.1762543877713],[73.51915669317216,4.176247780259268],[73.51913078126357,4.176241048799534],[73.51910393788465,4.176227161915032],[73.51909230005985,4.176210890881154],[73.51908886941618,4.176185261439545],[73.5190827866399,4.176149675694331],[73.51907953820894,4.176130671570058],[73.51906644930692,4.175990994437348],[73.51906039402928,4.175926376058867],[73.51905266821171,4.175843930669992],[73.51901999379172,4.175495248614031],[73.51897225227016,4.175156031340434],[73.5189569964427,4.175133835195833],[73.51893702969899,4.175119803049426],[73.51891825282429,4.175105783099804],[73.51890535524795,4.175094111185301],[73.5188983391555,4.175075454086749],[73.51887939453532,4.174908115866172],[73.51886961054252,4.174821693671682],[73.51886573834221,4.174787490455959],[73.51885998002831,4.174736627167336],[73.51883433227933,4.174481873935754],[73.5188272843655,4.17446433640369],[73.51881436178708,4.174457357283409],[73.51879909758786,4.174457410735092],[73.51878384199014,4.17445864170811],[73.51877328155501,4.174469238291753],[73.51876741724391,4.174489167929984],[73.5187791091667,4.174631758632395],[73.51876037921502,4.174652772726553],[73.5187428422773,4.174664433242093],[73.51872532194065,4.174666758756391],[73.51870082118175,4.174667917085173],[73.51861238162023,4.174646975361697],[73.518517336369,4.17460756722825],[73.51841913701836,4.174538211750244],[73.51837642638849,4.174486229433541],[73.51835201542632,4.17444335085293],[73.51833462421453,4.174399399380161],[73.51832761334241,4.174352029070662],[73.51832523391886,4.174313893116971],[73.51832745488797,4.174266487805518],[73.51834002121602,4.174181957274958],[73.51834801094743,4.174114659229557],[73.51836297178986,4.174011215361205],[73.5183816290241,4.173949711051975],[73.51841306604544,4.173893987287676],[73.51844333122806,4.173852174318247],[73.51844682276365,4.173848686385366],[73.51849920321176,4.173807785226053],[73.51850153295038,4.173806609410672],[73.51853309860358,4.173801155100406],[73.51855049458518,4.173798149203412],[73.51858084841211,4.173797934349137],[73.51858318408374,4.173797917962346],[73.518612410003,4.173809325902381],[73.51864050678455,4.173827728007481],[73.51865691887734,4.173846225600461],[73.51865926317465,4.173847374073943],[73.51868037691368,4.17386120670514],[73.51868389864042,4.173864677143692],[73.51869917637299,4.173886708726635],[73.51870506662254,4.173905313049235],[73.51871449273362,4.173930899552925],[73.51872391609658,4.173948342090603],[73.51874391430937,4.173957584682896],[73.51875803237147,4.173958692098465],[73.51876978208735,4.173946973613027],[73.518775633135,4.173925946028064],[73.5187743951987,4.173888628882166],[73.51874509660128,4.173615723513056],[73.5187198222743,4.173380302802494],[73.51871400968697,4.173355825570322],[73.5187135685602,4.173355266779454],[73.51871340816295,4.173353763525741],[73.51871193216618,4.173353193901408],[73.51870115231057,4.173339538677339],[73.51868242523376,4.173332610092063],[73.51864617176601,4.173318759711361],[73.51851141290834,4.173261926926076],[73.5183989956313,4.173208297440208],[73.51835956241715,4.173184563786148],[73.51832366916526,4.173162895057765],[73.51823487284035,4.173102200702762],[73.51815802957397,4.173042889434289],[73.51814893887406,4.173035872801145],[73.51809331972837,4.172987574379685],[73.51809129177839,4.172985079390724],[73.51807506512831,4.172952724303824],[73.51804599012638,4.172863730627964],[73.5179995119515,4.172742464655281],[73.5179066922826,4.172550513239747],[73.5177819354044,4.172161317296617],[73.51772199582022,4.171905914218219],[73.51768418709004,4.171662297277077],[73.51767560004933,4.171507239269429],[73.51767496160485,4.171282285767335],[73.5176807288438,4.171258866848853],[73.5176912257608,4.171241285609011],[73.51770529817645,4.17123307871204],[73.51772998607616,4.171229569337958],[73.51774410424376,4.171227227442219],[73.51774962764215,4.171221702050789],[73.51775350313108,4.171217825163327],[73.51776171637768,4.171201353804354],[73.51776521367378,4.171181331070149],[73.51775281996204,4.170921558351272],[73.51775335377638,4.170919388046125],[73.51776341873112,4.170878467403538],[73.51777409071795,4.170859265838558],[73.51778357869907,4.170836447221907],[73.51778950066233,4.170811208976356],[73.51778818584876,4.170723118800778],[73.5177797461315,4.170670597160271],[73.51776650173147,4.170631110340318],[73.51775325973038,4.170599955594585],[73.51747961738114,4.170367985183189],[73.51743444389734,4.170329690977302],[73.51740796222184,4.170307242081321],[73.51738664851962,4.170297767743924],[73.51734074076447,4.170277360889737],[73.51727358726268,4.170251113627634],[73.51718143425178,4.170225009936571],[73.5170631432233,4.170191829787805],[73.51687970938978,4.17012365624728],[73.51676812816596,4.17007936304771],[73.51658860399974,4.170003789060957],[73.51543875067593,4.169696976230962],[73.51442514755615,4.169452595237497],[73.5143985153638,4.169447776019226],[73.51438289421583,4.169451390193385],[73.51436855434369,4.169458617079775],[73.5143398476166,4.16947065158283],[73.51432088556489,4.169486283167815],[73.51429496394717,4.169512696259387],[73.51427023860154,4.16953666436121],[73.51424672887833,4.169559394857848],[73.51421851556782,4.169584475975448],[73.51418897457077,4.169602359327264],[73.51412778033375,4.169628535594763],[73.51407515474096,4.169642783931972],[73.51402379202209,4.169657013855852],[73.51397953372071,4.169660553890048],[73.51394964763936,4.169664103958054],[73.51390768381555,4.169659340696613],[73.51387152914116,4.169643889617488],[73.51386911468349,4.169642701210865],[73.51383651976946,4.169627236072026],[73.51383528121546,4.169624857015063],[73.51381699638266,4.169606997953504],[73.51381575513172,4.169604616178163],[73.51378389780784,4.169567641752373],[73.51375604004033,4.169554498988875],[73.5137199522629,4.169550908978094],[73.51368526879938,4.169556876402046],[73.51364730899712,4.169575968313309],[73.5136213371884,4.16959265105263],[73.51358360993929,4.169616448889837],[73.51355425601508,4.169637833421966],[73.51353205038806,4.169656814990504],[73.51351438974788,4.169666292898983],[73.51303355338963,4.169589295395761],[73.51303417286704,4.169595314543188],[73.51313938672548,4.170592385673394],[73.5137499937247,4.170534039960216],[73.5140254542133,4.173107133777858],[73.51384097975414,4.173096065398902],[73.51388915610619,4.174738389865611],[73.51318072606352,4.174813633583434],[73.5133726376372,4.176782389524822],[73.51296944468673,4.177004456147538],[73.51284909634764,4.177035567130059],[73.51217943730119,4.177110740792027],[73.51217070578208,4.177112467849775],[73.5121623796154,4.177115620979246],[73.51215468865166,4.177120115605433],[73.5121478439041,4.177125825516049],[73.51214203482594,4.177132593708976],[73.51213742209943,4.177140235091715],[73.51213413223125,4.177148536471083],[73.51213225572384,4.17715727101979],[73.512131846178,4.177166196466042],[73.51213291216403,4.177175066834931],[73.51215212893207,4.177268665001173],[73.51139082699541,4.177305913208283],[73.51145269091954,4.177868459604203],[73.51085632623963,4.177943699702698],[73.5108488116106,4.177883358824366],[73.51002830786703,4.177986366011827],[73.51055960589744,4.179563194520077]]]]}},{"type":"Feature","properties":{"OBJECTID":"4","SHAPE_Leng":5140.44947,"wardName":"Maafannu","wardNameDI":"މާފަންނު","Shape_Le_1":7257.90303,"Shape_Area":750716.48229},"geometry":{"type":"MultiPolygon","coordinates":[[[[73.50439702425189,4.169332983139799],[73.5056572680071,4.169298857906286],[73.5056398241194,4.168876948252806],[73.50566312970344,4.168864603570479],[73.50569879336636,4.16885228060889],[73.50574072056692,4.168848643450017],[73.50574442438862,4.168848649597614],[73.505797474048,4.168848748792973],[73.50579994115787,4.168848754394592],[73.50586165483286,4.168857534916782],[73.50592205018576,4.16886135784331],[73.50597624579011,4.168865166249835],[73.50605131195795,4.168867773577149],[73.50613983931706,4.168875330854085],[73.50631664773302,4.168876830417138],[73.5063660256866,4.168868984867975],[73.5064531722972,4.16885551271273],[73.50650841717948,4.168838377703499],[73.50658328221674,4.168824911099643],[73.50665808013049,4.16882123695742],[73.50671688841946,4.168821234904736],[73.50675852413731,4.168821233635838],[73.50678173593391,4.168826124358282],[73.50680120084174,4.168837123350899],[73.50680106008032,4.168853003044929],[73.50679722210351,4.168872533910911],[73.50679344069671,4.168885954006673],[73.50680315356897,4.168892045380856],[73.50681666004685,4.168883503007826],[73.50682416581071,4.168863981833219],[73.50682316203522,4.168840783548646],[73.50681360038958,4.168817562651085],[73.50680890857286,4.168795541179471],[73.50681470097733,4.168585193122097],[73.50679661762011,4.168548042167264],[73.50673944537442,4.16846723490063],[73.50672383013045,4.16841858315358],[73.50671301585284,4.168382322370756],[73.506687219251,4.1683572283703],[73.50668350282324,4.168357220395229],[73.50665626903461,4.168353397327223],[73.50662642097902,4.168368360435711],[73.50661634531046,4.168394618851623],[73.50661742079312,4.168420865926718],[73.5066333947568,4.168438373410996],[73.50665805874962,4.168448397428461],[73.50667661082858,4.168447184685423],[73.50669507923341,4.168455944351556],[73.50670341170567,4.168493303753013],[73.50670792340703,4.168542987974372],[73.50670885413378,4.168577687085365],[73.50670123117524,4.168604897956251],[73.50669240994861,4.168630828661844],[73.50667505823591,4.168651773582879],[73.50664909896484,4.168675161126905],[73.50662317821842,4.16869483989157],[73.50659484071187,4.168708357055887],[73.50656899634879,4.168715722866936],[73.50653455458765,4.168720625976252],[73.50602993455482,4.16870807777846],[73.50594725342496,4.168690758927653],[73.5058421838162,4.168670924880232],[73.50579758286925,4.168652339129405],[73.50575167697686,4.168631252098768],[73.5057193142803,4.168608890357611],[73.50566941261428,4.168574030195604],[73.50560294531311,4.168511605641505],[73.50554891940214,4.168468999774862],[73.5054923291883,4.168432546021369],[73.5054496042262,4.168413630115433],[73.50538322219262,4.168400975378633],[73.50531208659334,4.168394720902795],[73.50459699757957,4.168347721260654],[73.50401551474981,4.168320916245031],[73.50267236486098,4.168289105799166],[73.50249186874495,4.168295971137275],[73.50237135941519,4.168291636249858],[73.50227731763005,4.168280945252681],[73.50220603019505,4.168275508677754],[73.50212956613522,4.168273932040415],[73.50204160061962,4.168281378104549],[73.50193958203187,4.168293951371929],[73.50183493514498,4.16830650061637],[73.50165376995167,4.168343273978642],[73.50148028634979,4.168362860742942],[73.50129893771863,4.168392811056581],[73.50112370935857,4.168442851041193],[73.50098716684907,4.16849755095068],[73.50086785312484,4.168570562963712],[73.50078110476761,4.168641094056279],[73.50071662087448,4.168711572706998],[73.50066951138672,4.168833790363096],[73.50062564941729,4.168920634168363],[73.50058270455987,4.169051583365415],[73.5005247285636,4.169250770562321],[73.50047902627661,4.169428404625786],[73.50045559577022,4.16959452604582],[73.50045870059313,4.169782686236959],[73.50047133468682,4.169909826581269],[73.50048880303544,4.170018911280471],[73.50049928881599,4.170075764038255],[73.50049334216,4.170112816662409],[73.50047996574489,4.170157248349349],[73.50046654307971,4.170194242369314],[73.500468093727,4.170228670356853],[73.50047716141009,4.170266695844624],[73.50049863457535,4.170299691397867],[73.50052495365799,4.170320361446131],[73.50054630889346,4.170347147336859],[73.5005526868154,4.170369105989016],[73.50054706671379,4.171003029383876],[73.5005577701361,4.171223929808281],[73.50056656037357,4.171251514667581],[73.50058366716632,4.171258654851225],[73.50059705041626,4.17125861260718],[73.50061641384431,4.171248977334977],[73.50062836583746,4.171223750943562],[73.5006499683248,4.170855553438523],[73.50065960212372,4.17083111032334],[73.50067294506545,4.170809092595458],[73.50068504659079,4.170783379027518],[73.50069595737335,4.170757647808989],[73.50071265936755,4.170655706045164],[73.50075359088054,4.170409963437653],[73.50099401796196,4.1704444237513],[73.50096571635139,4.170689378403549],[73.50096693928883,4.1707090002499],[73.50097305699097,4.170726164314946],[73.5009901847139,4.170729864284903],[73.50100975641233,4.170728668116862],[73.50102934581157,4.17070910503157],[73.50104163786676,4.170667453113388],[73.50110115241293,4.170469704962499],[73.50111588277032,4.1704404006088],[73.5011933421225,4.170289987342893],[73.5015430887146,4.169640943272615],[73.5027756170779,4.169615122053001],[73.50289254217732,4.170713658815448],[73.50219415307876,4.170790070282647],[73.5022216318779,4.171077792816114],[73.50292060516327,4.171006796459003],[73.50297445141592,4.171583531567371],[73.50226010568234,4.17166048121247],[73.50121125727645,4.171774080444743],[73.5011961376023,4.171775718023569],[73.50115345485581,4.171253336376497],[73.50114839900401,4.17119145934029],[73.50108888807897,4.171196230147004],[73.50107798637126,4.171198642986971],[73.5010695768212,4.171205905325697],[73.50106369538582,4.171220431009046],[73.5009508230982,4.171580473941051],[73.50102799228735,4.171735252361921],[73.50103196397893,4.171765006653037],[73.50102993368513,4.171793525852931],[73.50101724323663,4.171836247781613],[73.50100925387916,4.171866871470304],[73.50073079111034,4.172934233406756],[73.50067794821989,4.173136064767474],[73.50067653682572,4.173162567386218],[73.50067583641805,4.173175719370087],[73.50067945214094,4.173193207848598],[73.50069252942876,4.173228166141153],[73.50085150223157,4.173655413737945],[73.50085232467498,4.173698585641947],[73.5008413118783,4.17375478775319],[73.50082435834736,4.17381354421305],[73.50081579414721,4.173850076331978],[73.50081188758651,4.173891405118661],[73.50082090115905,4.173939908603124],[73.50104688636053,4.17455526776605],[73.50120372840928,4.174980998347858],[73.50121314219045,4.174985683831275],[73.50122255360468,4.174984495394791],[73.50122961033532,4.174976260087313],[73.50123431417347,4.17496098333847],[73.50123196257145,4.174950413028713],[73.50099717860078,4.174296678849812],[73.50099007134766,4.174266028654683],[73.5010007101444,4.174243643114424],[73.50100425812656,4.174241290385897],[73.5010160802422,4.174226161099103],[73.50105627229671,4.174213314446749],[73.50105981713033,4.174212146442972],[73.50106572459605,4.174210985670608],[73.50110352396999,4.174208748183279],[73.50110393160132,4.174208749431108],[73.50111060916453,4.174208769871971],[73.50111415086023,4.174208781166747],[73.50115545610585,4.17422069209186],[73.50116135459736,4.174221888102498],[73.50120379865686,4.174250274392794],[73.50130380792419,4.174375227772829],[73.5014383958585,4.174588964649143],[73.50156179364745,4.174810921701674],[73.50164322398541,4.175071390010943],[73.50174053420464,4.175467809039755],[73.50176160757518,4.175666532412095],[73.50175458196993,4.175770897433732],[73.50173701666762,4.175838744432615],[73.50172902209597,4.175853964108271],[73.5017124176858,4.175885574771817],[73.50169251803814,4.175926625190803],[73.50167612787244,4.175944312363499],[73.50165385793743,4.175958523629873],[73.50163508309775,4.175959805398311],[73.50160661340125,4.17595879140884],[73.50159371263331,4.17594945981233],[73.50146207531914,4.175618963752438],[73.50144797899853,4.175615473036435],[73.50143740355409,4.175624870067273],[73.50143153026262,4.175645993173682],[73.50166219506873,4.17623255708527],[73.50178233394773,4.176509684806908],[73.50193823057467,4.176845259246492],[73.50194873412812,4.176857623151127],[73.5020193620676,4.17696324002469],[73.50204877868724,4.176980767906168],[73.5020840478125,4.176990033754397],[73.50210519621918,4.176995835067775],[73.50211929268487,4.177004013158866],[73.50213925995047,4.177037969032065],[73.50220021958253,4.177199793162406],[73.50226551491927,4.17737312686381],[73.50232901435085,4.177489230809621],[73.50242076776415,4.177621818571703],[73.50263215996213,4.177896980170264],[73.50284434109913,4.17817749717432],[73.50321494066421,4.178695874801228],[73.50324869837841,4.178740876176651],[73.5035193139211,4.17910162530189],[73.50363955375497,4.1792619131704],[73.5036572688885,4.17926660637524],[73.50366785536534,4.179257117097948],[73.50366901708206,4.179233495212685],[73.50366901735374,4.179218149763802],[73.50366901672291,4.179202805217646],[73.50365954873283,4.17918391912807],[73.50359798567028,4.179101775677422],[73.50348438557366,4.178950199292423],[73.50401185666605,4.178503457128707],[73.50424527456568,4.178586874903325],[73.50468791123141,4.17874506206917],[73.50449936381786,4.179243943161458],[73.50434905293454,4.179641652777121],[73.50430145456568,4.179767593814713],[73.50412333133715,4.179685874068095],[73.50407123119186,4.179648285406113],[73.50406370227583,4.179641107515643],[73.50393266986839,4.179516184292514],[73.50392319884482,4.179507920996579],[73.50390895802708,4.179510283141285],[73.50390655362328,4.179523271715231],[73.5040328890584,4.179641048630075],[73.50409494025169,4.179698896185682],[73.50428380575092,4.179798232910684],[73.50498352374349,4.180191228809687],[73.50506044280242,4.180249499095599],[73.50510934040204,4.180292569361544],[73.50513842716848,4.180329792978572],[73.5051628491861,4.180361187119417],[73.50517680099924,4.180384436344583],[73.50518028839804,4.180398385776917],[73.50513945870361,4.180503696586189],[73.50514488841318,4.180506037929802],[73.50582445059382,4.180799071400474],[73.50595227415741,4.180851962996234],[73.50601038384896,4.180710658562405],[73.50628464974828,4.180833288371494],[73.50633636364199,4.180856410682192],[73.50634190528106,4.180854869247364],[73.50635296662115,4.180851792479692],[73.50637488564071,4.180845695592933],[73.5063822567866,4.180843645271039],[73.50641293015995,4.180822670719631],[73.50643420187752,4.180798159292578],[73.50644839970967,4.180764281297509],[73.50645195081862,4.180735075794812],[73.50644721603092,4.180710566282589],[73.50642947304284,4.180689624129992],[73.5064257290512,4.180686939606381],[73.50639876577524,4.180667606348878],[73.506322065271,4.180638913304496],[73.50660892772305,4.179873135074174],[73.50704543072784,4.180042074288947],[73.50683749565792,4.180812313665807],[73.50682903267426,4.180829192186803],[73.50682059293143,4.180839026558909],[73.50680373040989,4.180853063778647],[73.5067994621751,4.180869969294839],[73.50680217215718,4.180893963972535],[73.50681335866524,4.180901064781293],[73.50840976677765,4.181030377554099],[73.50841670866892,4.181024771887113],[73.50841937802133,4.181012162714294],[73.50841924692494,4.180999558151586],[73.50841487028167,4.180979966413678],[73.50840362030316,4.18096878675759],[73.50840173898217,4.180967382752391],[73.50839238575655,4.180960402562551],[73.5083488208215,4.180918502000804],[73.50831607344189,4.180915961920765],[73.50829866410018,4.180914314298186],[73.50728484465569,4.180829667450085],[73.5071569608322,4.180643318950224],[73.50747288680337,4.179583400672871],[73.50904591088647,4.180167447401822],[73.5090681424507,4.180175701714244],[73.50909709307358,4.180181181320491],[73.50912875371884,4.180182551167782],[73.50916179341621,4.180183920927444],[73.50960237855507,4.180153738029239],[73.50976583714925,4.180664476770969],[73.51012945040121,4.180562863980319],[73.51012263132921,4.180538735747233],[73.51016730269453,4.180522819618028],[73.50998740195352,4.18004664928607],[73.51052337117503,4.179582827819798],[73.51056249419455,4.179571766629461],[73.51002830786703,4.177986366011827],[73.50989244502233,4.177583141796443],[73.50913500793244,4.177411794775729],[73.50772683180568,4.176699692107436],[73.5073785607906,4.175429871403767],[73.50748883421363,4.175418159950151],[73.50657276669895,4.174108810924259],[73.50597585249842,4.172798196210646],[73.50598553469466,4.172797180957018],[73.50590908990664,4.171865333536545],[73.50468004235107,4.171996806211201],[73.50439702425189,4.169332983139799]]]]}},{"type":"Feature","properties":{"OBJECTID":"5","SHAPE_Leng":0,"wardName":"Dhoon'digan","wardNameDI":null,"Shape_Le_1":5239.42509,"Shape_Area":1026945.91973},"geometry":{"type":"MultiPolygon","coordinates":[[[[73.43462747541027,-0.299805418963348],[73.43469985468458,-0.299755118896068],[73.43474147849385,-0.299808442124863],[73.43494981335294,-0.300070940956275],[73.43508837179601,-0.300237313769477],[73.43517654487404,-0.300350558096596],[73.43526141191046,-0.300429528869189],[73.43527180943049,-0.300439204006322],[73.43533724106013,-0.300506334667781],[73.4355083908843,-0.300706160670405],[73.4361485577213,-0.301453587808135],[73.43625141095069,-0.301588555262281],[73.43627069859467,-0.301613865156527],[73.43659486074077,-0.302039241684286],[73.43668832345223,-0.302170295308431],[73.43683977532103,-0.302372278879443],[73.43694773845783,-0.30250226564329],[73.43707631429174,-0.302650786407848],[73.4372349075628,-0.302812232599838],[73.43724716743667,-0.302827845157784],[73.43734579502221,-0.30295344424552],[73.437545690716,-0.303216284301503],[73.43764621432302,-0.303329482729959],[73.43773589606849,-0.303409033475194],[73.4378182682455,-0.303486411716752],[73.43785907056757,-0.303548203041126],[73.43790423267183,-0.303596884926197],[73.43796185187901,-0.303679167717526],[73.43799129316221,-0.303738109463385],[73.43801528398582,-0.30377941656886],[73.43804593338685,-0.303826984850679],[73.43809593110824,-0.303920879850372],[73.43812874677998,-0.303972283981003],[73.43816460713799,-0.304022473957118],[73.43822701304117,-0.304102769611028],[73.43829790865618,-0.304173158747903],[73.43837712228495,-0.304251806478625],[73.43855223727688,-0.304412413292312],[73.43858194616175,-0.304440896502727],[73.43861735377672,-0.304482001619631],[73.43874208595797,-0.304626381372535],[73.43880610731225,-0.304727990318741],[73.4388536805546,-0.304820615248776],[73.43889459337785,-0.304882325246493],[73.43894216167486,-0.304946900431194],[73.43902360601658,-0.305035703831524],[73.43911436999792,-0.30511731596083],[73.43916850768979,-0.30516153949841],[73.43944263669377,-0.305385467688585],[73.43947769586784,-0.305434644678396],[73.43962626540404,-0.305627004644004],[73.43967759956247,-0.305691623218849],[73.4397688693428,-0.305798237045261],[73.43985973740178,-0.305887051016522],[73.4399040403463,-0.305956132672906],[73.43996939071506,-0.306058033620593],[73.4399705353607,-0.30605989369324],[73.44012502691348,-0.306310945664504],[73.44020284262368,-0.306456991317515],[73.4402276032463,-0.306492612682791],[73.44028774972983,-0.306492621502537],[73.44032511130392,-0.306492626980984],[73.44037620060267,-0.306492634472158],[73.44050356488147,-0.306521147880591],[73.4406330650807,-0.306514959109052],[73.4406521632882,-0.30651404666252],[73.44076184031805,-0.306521185747939],[73.44084674680069,-0.306567502259056],[73.4408735340133,-0.306641697412785],[73.44087503895966,-0.306645865809651],[73.44087503429442,-0.306678104976084],[73.44087503019706,-0.306706416790171],[73.44085379851668,-0.306731346911637],[73.44079874570261,-0.306755969098632],[73.44079011017844,-0.30675983140235],[73.44068396982654,-0.306759815829421],[73.44059551635999,-0.306777612173378],[73.44051059892816,-0.306813217451618],[73.44044691111364,-0.306838141335088],[73.44041860001752,-0.306884440329257],[73.44041151234319,-0.306962799578228],[73.44041503443582,-0.307076778122976],[73.44042798542574,-0.307244730214452],[73.44043975372745,-0.307397345017103],[73.44043620205963,-0.307493513202084],[73.44049279029603,-0.307628870382171],[73.44052461533101,-0.307746415505979],[73.4405635156486,-0.3078710846806],[73.44059179985369,-0.308009999211176],[73.44059179001474,-0.308077674093081],[73.44052810476546,-0.308084787713315],[73.4404467312316,-0.308077652715589],[73.44043611253487,-0.308109707386343],[73.44041839626938,-0.308287795273474],[73.44041482848525,-0.308494379978304],[73.44040896273494,-0.308620942089558],[73.44040418098396,-0.308724115211506],[73.44039708077837,-0.308887957745214],[73.4403935170923,-0.309066047714638],[73.44038996496924,-0.309158654391943],[73.44035103302218,-0.309251255834544],[73.44030148845407,-0.309340294200615],[73.44015993772723,-0.3095432960498],[73.44003254602345,-0.309696435325131],[73.4399193007035,-0.309892318314727],[73.43981667722352,-0.310034775814616],[73.43976005787009,-0.310113126773871],[73.4397352873966,-0.310145180226711],[73.4398420178515,-0.310223702902068],[73.43988861831687,-0.310257987337131],[73.44041805157683,-0.310647496808491],[73.44039592319938,-0.310678015472483],[73.44032250591275,-0.310779269950996],[73.43950169578878,-0.310704350029366],[73.43927170088544,-0.310861035408943],[73.43911955156275,-0.310964305315754],[73.43899217287452,-0.311028398776912],[73.43892301855992,-0.311065515621843],[73.4386475769152,-0.311179647869726],[73.43814019499631,-0.311478415166761],[73.43800445843098,-0.311558342403523],[73.43740926107408,-0.311709769111593],[73.43680089559957,-0.311882414994087],[73.4366088207464,-0.311936923216294],[73.43588365939823,-0.311978137276427],[73.43553476216448,-0.311991859835804],[73.43460780269679,-0.311943511532372],[73.43417069542909,-0.3119044090464],[73.43375951981983,-0.31186762633012],[73.43320540458588,-0.31179178520533],[73.43270602102817,-0.31168840456292],[73.43222032238921,-0.311571251230391],[73.43179511844181,-0.311370721333367],[73.43178799723877,-0.31136457403246],[73.43148982421235,-0.311249748995932],[73.43198162816708,-0.308142330582402],[73.43202038778314,-0.307971886785003],[73.43204427765944,-0.307846353600062],[73.43164617677269,-0.307173216017628],[73.43149420701346,-0.306587502009795],[73.43181353403247,-0.304139319744133],[73.43077585094397,-0.302133600092092],[73.4314357042774,-0.301744965316125],[73.43276901241737,-0.300959684171568],[73.4337599467108,-0.300328782790033],[73.43396554993902,-0.300283025699279],[73.43405259187168,-0.300263654475364],[73.43417500550444,-0.300179067801878],[73.43419826966384,-0.300100385717152],[73.43437944468783,-0.299977788197635],[73.43462747541027,-0.299805418963348]]]]}},{"type":"Feature","properties":{"OBJECTID":"6","SHAPE_Leng":0,"wardName":"Dhadimago","wardNameDI":null,"Shape_Le_1":4396.85004,"Shape_Area":952606.32377},"geometry":{"type":"MultiPolygon","coordinates":[[[[73.41328579401912,-0.280594676002234],[73.41365501482665,-0.280319714335876],[73.41381272410425,-0.280163677173064],[73.4141347266605,-0.279814668384356],[73.41433995607933,-0.279611675133296],[73.41476775992716,-0.279132675526139],[73.41522422087137,-0.27866614559781],[73.41554268428152,-0.278320696372071],[73.41569356026666,-0.278146515434061],[73.4157833029204,-0.278042910592675],[73.41613360958611,-0.277685000343974],[73.41640606930966,-0.277417903977473],[73.41668913160048,-0.277229168358402],[73.41692088758602,-0.277090289868357],[73.41704118503758,-0.27704400342396],[73.41725700700411,-0.277001291282595],[73.4175011320944,-0.276958582029154],[73.41769218299312,-0.27695860771291],[73.41789738357447,-0.276972882960218],[73.41803182176731,-0.277008518385656],[73.41812380534661,-0.277037025178216],[73.41825116354705,-0.277101154087517],[73.41833253040807,-0.277151030055477],[73.41836949467198,-0.277182436903438],[73.41844573280768,-0.277247212969989],[73.41852002056201,-0.27732558242857],[73.4185801592167,-0.277371893184131],[73.41863898304065,-0.277422418195872],[73.41868248090385,-0.277447914120677],[73.41875420623414,-0.277535758483784],[73.41887801828308,-0.277663999672421],[73.41899122164517,-0.277753058799198],[73.41906281708633,-0.27784575482568],[73.41899905239507,-0.277945504439802],[73.41898486360235,-0.277967700524522],[73.41686543075232,-0.281283205427255],[73.41773853456161,-0.285692240335297],[73.41747005418885,-0.286632839972424],[73.41681984294978,-0.288910796015862],[73.41675553598748,-0.289351323198234],[73.41676718859632,-0.289377268822314],[73.41670917494291,-0.289526524642197],[73.41682875907941,-0.289630763447731],[73.41681964589152,-0.28967504213754],[73.41675071487342,-0.289839037909622],[73.4167710749633,-0.28991365637834],[73.41667088181198,-0.290142529046412],[73.416713295464,-0.290156890670383],[73.4166099238419,-0.290467996028794],[73.4165638541228,-0.290515581361813],[73.41649635736081,-0.29070940960965],[73.41638580624023,-0.29067423236937],[73.41627597626844,-0.290989627382622],[73.41617960799337,-0.291027051761961],[73.4150537633341,-0.292468542967835],[73.41475517812388,-0.293004695339342],[73.41474666349697,-0.293019984561886],[73.41473713724007,-0.293014410002043],[73.41467830512589,-0.293114024455373],[73.41456745470428,-0.293044096565161],[73.41440900199935,-0.292921928999921],[73.41428272970636,-0.292824834608624],[73.41406117506341,-0.292656955131167],[73.41392271859111,-0.292553548255453],[73.41380580247748,-0.292463206448163],[73.41358789069538,-0.292269313912304],[73.41338224305944,-0.292088211117288],[73.41306661828345,-0.291796381924348],[73.41298851404018,-0.291725351537898],[73.41290236272268,-0.291646143498604],[73.41287128269992,-0.291615362975547],[73.4128500835314,-0.291597260574625],[73.41282392024229,-0.291572017375832],[73.41279609187809,-0.291543592326412],[73.41278830443967,-0.291535292614706],[73.41278622348844,-0.291531717298521],[73.41278416398528,-0.291528942363185],[73.41278213839453,-0.291527769997035],[73.41277769637733,-0.291525841224743],[73.41276955920243,-0.291519559139027],[73.41276381790396,-0.291513234887454],[73.41274616566876,-0.291493063766407],[73.41274324858709,-0.291487893906884],[73.41274154151496,-0.291483104963688],[73.41273944001503,-0.291478722031926],[73.41273332932992,-0.291473606886323],[73.4127063504596,-0.291447576762461],[73.41269899495472,-0.291440473609585],[73.41269525869791,-0.291434516821891],[73.41269473659426,-0.291429304796337],[73.412690091891,-0.291418541995775],[73.41267541569088,-0.29140594820779],[73.41265061063733,-0.291387507964428],[73.41262627232761,-0.291371872275036],[73.4125965790639,-0.291349497278857],[73.41257697714718,-0.291331369786531],[73.4125446308593,-0.291297796362351],[73.41250208070684,-0.29125516953682],[73.41246032828197,-0.291212526547211],[73.41243489130528,-0.291184050296111],[73.41239228220051,-0.291139012385334],[73.41235829666556,-0.291103861493016],[73.41233642357666,-0.291074120519983],[73.4123117057221,-0.291042421158338],[73.41229433000964,-0.291017016428718],[73.41228604101674,-0.291004307789953],[73.41227351061968,-0.290981225294728],[73.41225555384918,-0.290948197452421],[73.41220452560832,-0.290851062368995],[73.4121666203882,-0.290785433275084],[73.41213507053763,-0.29073536044359],[73.41210376060054,-0.290678446002197],[73.41208702630276,-0.290646593129465],[73.41207531148596,-0.290624293948232],[73.41204503379798,-0.290560521732308],[73.4120239410858,-0.29051346378524],[73.41200586492877,-0.290473312121878],[73.41196768977318,-0.290378568254346],[73.41190050267393,-0.290136359108225],[73.41187765494679,-0.290030482429442],[73.41186514534621,-0.289972512780127],[73.41185454289158,-0.289890590617429],[73.41173074783738,-0.28964837260724],[73.41158926268601,-0.289406153034781],[73.41146899476665,-0.289245856228792],[73.41133810861353,-0.289110490825522],[73.41120013981761,-0.289021427842903],[73.41098392582415,-0.288847922659641],[73.41095466590235,-0.288816657710484],[73.41089673515604,-0.288755659918628],[73.4108561131121,-0.288711037476457],[73.41082632317351,-0.288679756177348],[73.41079328954638,-0.288646961393555],[73.4107526120287,-0.288600734576085],[73.4107440506538,-0.288589326416642],[73.41065891389776,-0.288430099111472],[73.41063871872375,-0.288395356121655],[73.41057402235015,-0.28828405501103],[73.41054927573552,-0.288148703725111],[73.41051745389213,-0.288006229450936],[73.41037952506763,-0.287628662821487],[73.41028051733988,-0.287233293534742],[73.4102345735243,-0.286869987476882],[73.41022752622975,-0.286666965715254],[73.41025231493163,-0.286497785801624],[73.41031601330732,-0.286387379777022],[73.41035103889617,-0.286253464658616],[73.41034401026891,-0.286188676287532],[73.41028046496714,-0.285088673529564],[73.41028093923609,-0.284367691546104],[73.41052939415134,-0.283526710470859],[73.41084198592941,-0.28288912511086],[73.4112738800712,-0.28234035413446],[73.41161384092736,-0.281970843182006],[73.41213748242278,-0.281527505492243],[73.4127254195767,-0.281047235331735],[73.41302565143796,-0.280804767615366],[73.41328579401912,-0.280594676002234]]]]}},{"type":"Feature","properties":{"OBJECTID":"7","SHAPE_Leng":0,"wardName":"Hoadhado","wardNameDI":null,"Shape_Le_1":4440.35112,"Shape_Area":658288.59946},"geometry":{"type":"MultiPolygon","coordinates":[[[[73.41686543075232,-0.281283205427255],[73.4190628170863,-0.27784575482568],[73.41913979153485,-0.277945415166335],[73.41925298447919,-0.278112833810732],[73.41946169303037,-0.27835150102409],[73.41954658098528,-0.278526039729871],[73.41969867950748,-0.278786069975448],[73.419721732006,-0.278860369667699],[73.41975172621207,-0.278957042944477],[73.41978002074462,-0.279028282446164],[73.4198436751529,-0.279245559556533],[73.41988609840466,-0.279487765884875],[73.41994620223898,-0.279801210301481],[73.41996739285442,-0.280079032064123],[73.41997302024338,-0.280103123795696],[73.41998282774779,-0.280145111257546],[73.42002396848909,-0.280321241250387],[73.42010883314866,-0.280668525736015],[73.42022200300403,-0.281006910433885],[73.42032810280789,-0.281298990595321],[73.42044480971511,-0.28164806115348],[73.42057212814761,-0.282007818509621],[73.42070652325404,-0.282364014503439],[73.42073141047972,-0.282419512564671],[73.42085507416546,-0.282695280388009],[73.42100221238782,-0.283003394765089],[73.42112246405694,-0.283291915603651],[73.42122065799461,-0.283505146193293],[73.42123564614687,-0.283537693344815],[73.42129496530569,-0.283668661485033],[73.42132760618517,-0.283740727843291],[73.42145139877441,-0.284011440094261],[73.42168486061006,-0.284344498630937],[73.42184403735493,-0.284586722260926],[73.42202443424614,-0.2848788130644],[73.42215884261815,-0.285135280142166],[73.42245597238836,-0.285582324746952],[73.42262576008908,-0.285845920660451],[73.42284153725817,-0.286138016569094],[73.42299717535977,-0.286380239061412],[73.42313159193242,-0.286576155879436],[73.42328513139827,-0.286777157231784],[73.42339689348258,-0.286923467061358],[73.42343475230857,-0.286975888279295],[73.42359498288077,-0.287197751541944],[73.42375062192339,-0.287432851243666],[73.42389565826674,-0.287586028359891],[73.42402654153685,-0.28774988885498],[73.42413477356914,-0.287968953596745],[73.42418075858062,-0.28803663344504],[73.42427980787396,-0.288143501432228],[73.4243894657976,-0.288282425991689],[73.42455926369142,-0.288471224125389],[73.42464062181561,-0.288585212633624],[73.42466537560237,-0.288670699639919],[73.4247113561958,-0.288770435512783],[73.42474672538485,-0.288845238673985],[73.42480686151441,-0.288916482010572],[73.42486346642583,-0.288934299100946],[73.42492007125598,-0.288959240048573],[73.42501204723912,-0.289044735553107],[73.42501767984372,-0.289052455980822],[73.42520306204977,-0.289306553360687],[73.42541884749183,-0.289538100315159],[73.4255957172275,-0.289758955627513],[73.42568039793005,-0.289857206729056],[73.42575843796968,-0.289947752982845],[73.42606972814966,-0.290336032034476],[73.42620768134817,-0.290539072815138],[73.42633502395898,-0.290724303835096],[73.426391623976,-0.290777738478498],[73.42649067920048,-0.290841865329241],[73.42656496696519,-0.290913110761299],[73.42661448470939,-0.291016409647388],[73.42669937852305,-0.291144646575329],[73.42677365986714,-0.291262195774901],[73.42684440896019,-0.291340565499747],[73.42695514071937,-0.291471834226304],[73.42686318124244,-0.291546575735482],[73.42668345330218,-0.291692652420774],[73.4266786661712,-0.291696543235747],[73.42651956133149,-0.291833595036554],[73.42646736214974,-0.291847961783338],[73.42631151929271,-0.292022543030991],[73.42607797860124,-0.29209004430027],[73.42508984820465,-0.292291646433834],[73.42372434555372,-0.292519593667884],[73.4235637820522,-0.292490302204476],[73.4235099849196,-0.292535930169144],[73.42341105168344,-0.292615560972109],[73.42336216349347,-0.29265491102312],[73.42333389964296,-0.292619292300187],[73.4231764066854,-0.292420816245975],[73.42291437527902,-0.292508439310855],[73.42288522109331,-0.292514283550261],[73.42233576799292,-0.292269179501778],[73.42217729390984,-0.292469053549142],[73.42214315722136,-0.292469211114331],[73.42198036722708,-0.292477623739378],[73.42194990861094,-0.292479169296528],[73.42196671007031,-0.292270277295941],[73.42202977857623,-0.292120871629797],[73.42214944278906,-0.292115756848581],[73.42241453172468,-0.291506239429851],[73.42237644543619,-0.291427856032172],[73.4221604792545,-0.291365996558663],[73.42228738465403,-0.29106600992767],[73.42211922069907,-0.290933872356822],[73.42216494369644,-0.29024511907728],[73.42225806422849,-0.289885607835014],[73.41773853456161,-0.285692240335297],[73.41686543075232,-0.281283205427255]]]]}},{"type":"Feature","properties":{"OBJECTID":"8","SHAPE_Leng":0,"wardName":"Dhiguvaan'du","wardNameDI":null,"Shape_Le_1":2951.74528,"Shape_Area":469301.28611},"geometry":{"type":"MultiPolygon","coordinates":[[[[73.41474666349697,-0.293019984561886],[73.41475517812388,-0.293004695339342],[73.41476767064671,-0.292982263238823],[73.4150537633341,-0.292468542967835],[73.41617960799337,-0.291027051761961],[73.41627597626844,-0.290989627382622],[73.41638580624023,-0.29067423236937],[73.41649635736081,-0.29070940960965],[73.4165638541228,-0.290515581361813],[73.4166099238419,-0.290467996028794],[73.416713295464,-0.290156890670383],[73.41667088181198,-0.290142529046412],[73.4167710749633,-0.28991365637834],[73.41675071487342,-0.289839037909622],[73.41681964589152,-0.28967504213754],[73.41682875907941,-0.289630763447731],[73.41670917494291,-0.289526524642197],[73.41676718859632,-0.289377268822314],[73.41675553598748,-0.289351323198234],[73.41681984294978,-0.288910796015862],[73.41747005418885,-0.286632839972424],[73.41773853456161,-0.285692240335297],[73.42225806422849,-0.289885607835014],[73.42216494369644,-0.29024511907728],[73.42211922069907,-0.290933872356822],[73.42228738465403,-0.29106600992767],[73.4221604792545,-0.291365996558663],[73.42237644543619,-0.291427856032172],[73.42241453172468,-0.291506239429851],[73.42214944278906,-0.292115756848581],[73.42202977857623,-0.292120871629797],[73.42196671007031,-0.292270277295941],[73.42194990861094,-0.292479169296528],[73.4219344532738,-0.292671324765634],[73.42128894915422,-0.292676178661557],[73.42130235235705,-0.292832306108133],[73.42111210702963,-0.292984765350578],[73.42084321818324,-0.293202251826349],[73.42055449017109,-0.293435759346058],[73.4204071878729,-0.293562591314332],[73.42026315327008,-0.293690004171685],[73.4199069014313,-0.294005144083395],[73.41965636504878,-0.294226768165099],[73.4196104320078,-0.29426740045265],[73.41894670069564,-0.294854535774807],[73.41856902078838,-0.295202799767593],[73.41855820032349,-0.295212777469346],[73.41855808662594,-0.295212691499918],[73.41848594767652,-0.295294162900008],[73.41845597513479,-0.295271224761361],[73.41839528355379,-0.295226586657627],[73.41809027183643,-0.295008399425335],[73.41808451921993,-0.29500428434612],[73.41804872314087,-0.294978773095902],[73.4179013361299,-0.294873732911472],[73.41776781777226,-0.294782049976578],[73.41770955800133,-0.29474369529893],[73.4176082071844,-0.29467697210885],[73.41750087043636,-0.294602050266747],[73.41733488377047,-0.294500982452706],[73.41720761114412,-0.29442533879226],[73.41709856044561,-0.294369046126312],[73.41701667392704,-0.294323829722017],[73.41690828861509,-0.294263981116936],[73.41685887273684,-0.2942379648911],[73.4166942206797,-0.29415865226163],[73.4165106268522,-0.294074825872678],[73.41633107704176,-0.29399333880815],[73.41617047572099,-0.293926229631181],[73.41605834078585,-0.293871954248074],[73.41589257654468,-0.29379334692672],[73.41577795622814,-0.293743227744965],[73.41563812750529,-0.293680893086636],[73.41544437325827,-0.293573526943266],[73.41538695202733,-0.293543071797298],[73.41524106028362,-0.293462632360348],[73.41519596757576,-0.293434350400936],[73.4151562518285,-0.293409661417839],[73.41501652848156,-0.293320154630986],[73.41500069999273,-0.293311870037343],[73.41498648223154,-0.293303560350761],[73.4147996096941,-0.293193570728362],[73.41477113858254,-0.293174522181395],[73.414726399195,-0.293144363689544],[73.41467830512589,-0.293114024455373],[73.41473713724007,-0.293014410002043],[73.41474666349697,-0.293019984561886]]]]}},{"type":"Feature","properties":{"OBJECTID":"9","SHAPE_Leng":0,"wardName":"Maadhado","wardNameDI":null,"Shape_Le_1":2923.59504,"Shape_Area":338036.82933},"geometry":{"type":"MultiPolygon","coordinates":[[[[73.4283312733321,-0.29323191030307],[73.42830568695075,-0.293239258039572],[73.42807657825514,-0.293305052030144],[73.42789264934608,-0.293354661674205],[73.42763689589484,-0.293420428849544],[73.42748463369227,-0.293458228790491],[73.42751779407459,-0.293593477024796],[73.4275806635449,-0.294325986949383],[73.42750291606573,-0.294441919114634],[73.42745020279173,-0.294714536121781],[73.42722528934922,-0.294729489793434],[73.42577483374629,-0.29483378825246],[73.42558577317445,-0.29459519074445],[73.42554632647116,-0.294574198988165],[73.42552023701872,-0.294450429888708],[73.4254258854085,-0.294441711515286],[73.42521088095566,-0.29442184445366],[73.42500223368319,-0.294616175406029],[73.42213467545216,-0.296717644799419],[73.42128530226489,-0.297732218336383],[73.42124534475616,-0.297779947420909],[73.42115352923001,-0.297933001286844],[73.42112610226762,-0.297912561479551],[73.4211105872383,-0.297898124346686],[73.42096019131237,-0.297713542936947],[73.42073733435575,-0.297464186277444],[73.42052862000484,-0.297271819720687],[73.42034113541766,-0.297072333318495],[73.4201288854333,-0.29686571954652],[73.41994140085774,-0.29666623321296],[73.41980343961808,-0.296527303493331],[73.41977358764065,-0.296495990306991],[73.41975704528136,-0.296472609584],[73.41973836933543,-0.296449389535191],[73.4196259920852,-0.296341534556255],[73.41950261188462,-0.296215040449348],[73.41928905399269,-0.295989075529282],[73.41915479501122,-0.295848913745627],[73.41913531861522,-0.295830867837426],[73.41905747508088,-0.295758741699094],[73.41894683813997,-0.295655783372924],[73.41878499102576,-0.295525283092699],[73.41877839663411,-0.295519965914694],[73.41858259443732,-0.295364352106685],[73.4184864268589,-0.295293621726927],[73.41855808662594,-0.295212691499918],[73.41855820032349,-0.295212777469346],[73.4185690207884,-0.295202799767593],[73.41857243504604,-0.29519965143295],[73.41894670069564,-0.294854535774807],[73.4196104320078,-0.29426740045265],[73.41965636504878,-0.294226768165099],[73.4199069014313,-0.294005144083395],[73.42026315327008,-0.293690004171685],[73.4204071878729,-0.293562591314332],[73.42055449017109,-0.293435759346058],[73.42084321818324,-0.293202251826349],[73.42111210702963,-0.292984765350578],[73.42130235235705,-0.292832306108133],[73.42128894915422,-0.292676178661557],[73.4219344532738,-0.292671324765634],[73.42194990861093,-0.292479169296646],[73.42198036722708,-0.292477623739378],[73.42214315722136,-0.292469211114331],[73.42217729390984,-0.292469053549142],[73.42233576799292,-0.292269179501778],[73.42288522109331,-0.292514283550261],[73.42291437527902,-0.292508439310855],[73.4231764066854,-0.292420816245975],[73.42333389964296,-0.292619292300187],[73.42336216349347,-0.29265491102312],[73.42341105168344,-0.292615560972109],[73.4235099849196,-0.292535930169144],[73.4235637820522,-0.292490302204476],[73.42372434555372,-0.292519593667884],[73.42508984820465,-0.292291646433834],[73.42607797860124,-0.29209004430027],[73.42631151929271,-0.292022543030991],[73.42646736214974,-0.291847961783338],[73.42651956133149,-0.291833595036554],[73.4266786661712,-0.291696543235747],[73.42686318124244,-0.291546575735482],[73.42695514071937,-0.291471834226304],[73.42698413707019,-0.291506208414012],[73.42708672603949,-0.291598829456627],[73.4271182982,-0.291626081299263],[73.42712016553891,-0.291628394986386],[73.42715613407002,-0.291669541560979],[73.42719103946429,-0.291713526861288],[73.42724783067752,-0.29179397474221],[73.42728744146957,-0.291845404726572],[73.42730465950956,-0.291875222111561],[73.42732051767696,-0.291909901295657],[73.42733761531925,-0.291952785263394],[73.42736122451299,-0.291993198456311],[73.4273725049149,-0.292019940992006],[73.42738508943992,-0.292048658895226],[73.42739591634407,-0.292074199435775],[73.4274183511291,-0.2920971677236],[73.4274426160764,-0.292124928622351],[73.4274696190781,-0.29215989155024],[73.42750730929318,-0.292217144630819],[73.4275393702332,-0.29225675140253],[73.42756876026752,-0.292290790385338],[73.42759105765502,-0.292319865086661],[73.42762927480535,-0.292379939938577],[73.42766562008894,-0.29242504599925],[73.42769350145203,-0.29246159083318],[73.42774406834623,-0.292526786269985],[73.4277713135141,-0.292558071094534],[73.42779539666238,-0.292581771273673],[73.42782109325017,-0.292605398425556],[73.42785328301072,-0.292629535664911],[73.42787862408676,-0.292645038647657],[73.4279047070233,-0.292668238079986],[73.42796304866752,-0.292717203567452],[73.42799675707222,-0.292757545854634],[73.42802186505438,-0.292795436940653],[73.42805119023019,-0.292837206640326],[73.42807994726036,-0.292875333384471],[73.42810929967877,-0.292908556619746],[73.42812061410112,-0.292936102270944],[73.42812890619261,-0.292959316379355],[73.42814042965595,-0.292982377198417],[73.42815542396227,-0.293001616562594],[73.42817311551771,-0.293017883583384],[73.42818877236351,-0.293033834685317],[73.42819976529742,-0.293054073738566],[73.42820489806442,-0.293069702296016],[73.4282131484528,-0.293082743838761],[73.42823358255359,-0.293106208371447],[73.42825335411622,-0.293132951219018],[73.4282639947257,-0.293154425618211],[73.42830096493195,-0.29319542677323],[73.42832273268833,-0.293221675204077],[73.4283312733321,-0.29323191030307]]]]}},{"type":"Feature","properties":{"OBJECTID":"10","SHAPE_Leng":0,"wardName":"Funaadu","wardNameDI":null,"Shape_Le_1":3575.58548,"Shape_Area":695438.4943},"geometry":{"type":"MultiPolygon","coordinates":[[[[73.43148982421235,-0.311249748995932],[73.43132283075911,-0.311185440602397],[73.43094659922268,-0.310999433617591],[73.4304951085574,-0.310868511732552],[73.43010517803798,-0.310799582317759],[73.42992732064467,-0.310730685557751],[73.42978696295496,-0.310630066196679],[73.429715565323,-0.310558084787786],[73.42956874539895,-0.310428565379816],[73.4292567613696,-0.310141782215097],[73.42865103215647,-0.309743861743689],[73.42842029566788,-0.309502117075123],[73.42830618781355,-0.309380578844135],[73.4279915501011,-0.309036178821202],[73.42773847240939,-0.308753771208557],[73.42766564451642,-0.308672892276129],[73.42737253562925,-0.308347380586205],[73.42708527460591,-0.307920340137228],[73.42679117880894,-0.307445089488236],[73.4266607449131,-0.307268886359227],[73.42651075069017,-0.307066260474194],[73.42629872828883,-0.306728763151353],[73.42604567371046,-0.306287954355056],[73.42566172376648,-0.305577952778723],[73.42564900003555,-0.305554424019079],[73.4253891204609,-0.305003422138083],[73.42518713627632,-0.304612240034933],[73.42512239400321,-0.304486853919522],[73.42484881949106,-0.304025380979082],[73.42470520079476,-0.303729217487756],[73.42454654026663,-0.30342004222527],[73.4244271180502,-0.303143859706639],[73.42435555214989,-0.302978352430517],[73.42428416738434,-0.302683007132338],[73.42425654718534,-0.30256873215126],[73.42422826704842,-0.30240844808433],[73.42415399818192,-0.302208977463957],[73.42414156233492,-0.302190674478963],[73.42412488128213,-0.302138618260195],[73.4241035415603,-0.302091761585008],[73.42408657339892,-0.302062123261739],[73.42406897670766,-0.302036556395715],[73.4240535463126,-0.302014542276966],[73.42403117342461,-0.301993105952385],[73.4239347003479,-0.301804681919868],[73.42376138069251,-0.301512590440373],[73.42370244407377,-0.301415931279851],[73.42363758025209,-0.301309551203454],[73.4236078432561,-0.301261422257629],[73.42362369575632,-0.301256518470877],[73.42367821145244,-0.301236901315909],[73.42367954988423,-0.301239240644907],[73.42370664624082,-0.301230858701271],[73.42623756851886,-0.300819738405952],[73.42691187084102,-0.300338518143665],[73.42692712706449,-0.3002593795265],[73.42709844370656,-0.300153338301178],[73.42727832983054,-0.300183351913178],[73.42733869964536,-0.300211157680027],[73.4275717063005,-0.30015188861833],[73.42877355175786,-0.299658982693692],[73.42954249031207,-0.299343622105125],[73.43005445543179,-0.300608786531954],[73.4305915468799,-0.301699006329875],[73.43077585094397,-0.302133600092092],[73.43181353403247,-0.304139319744133],[73.43149420701346,-0.306587502009795],[73.43164617677269,-0.307173216017628],[73.43204427765944,-0.307846353600062],[73.43202038778314,-0.307971886785003],[73.43198162816708,-0.308142330582402],[73.43151636887158,-0.311082029793962],[73.43148982421235,-0.311249748995932]]]]}},{"type":"Feature","properties":{"OBJECTID":"11","SHAPE_Leng":0,"wardName":"Miskiymago","wardNameDI":null,"Shape_Le_1":2628.68862,"Shape_Area":442649.10342},"geometry":{"type":"MultiPolygon","coordinates":[[[[73.42120833141236,-0.297824159709713],[73.42213467545216,-0.296717644799419],[73.42500223368319,-0.294616175406029],[73.42521088095566,-0.29442184445366],[73.4254258854085,-0.294441711515286],[73.42552023701872,-0.294450429888708],[73.42554632647116,-0.294574198988165],[73.42558577317445,-0.29459519074445],[73.42577483374629,-0.29483378825246],[73.42722528934922,-0.294729489793434],[73.42745020279173,-0.294714536121781],[73.42771972640857,-0.294801359898281],[73.4280612889276,-0.295178302943207],[73.42790453456958,-0.295392686670196],[73.42799164852637,-0.295568266924204],[73.42819148962592,-0.29596454592293],[73.42882549091958,-0.297556635039374],[73.42944395408377,-0.299100120319783],[73.42954249031207,-0.299343622105125],[73.42877355175786,-0.299658982693692],[73.4275717063005,-0.30015188861833],[73.42733869964536,-0.300211157680027],[73.42727832983054,-0.300183351913178],[73.42709844370656,-0.300153338301178],[73.42692712706449,-0.3002593795265],[73.42691187084102,-0.300338518143665],[73.42623756851886,-0.300819738405952],[73.42372510653219,-0.301227860035532],[73.4237066462409,-0.301230858701288],[73.4236078432561,-0.301261422257629],[73.4235659431471,-0.301193607473174],[73.42353854012617,-0.301149255990991],[73.42345757253547,-0.301016465812602],[73.42341473967218,-0.300946215890585],[73.42323080398401,-0.300668370705111],[73.42313884124408,-0.300493829783647],[73.42300442172154,-0.300326406558848],[73.42284754464053,-0.300145390787663],[73.42284403750166,-0.300141343868236],[73.42283462589063,-0.300130483724779],[73.42268251515442,-0.299970180920994],[73.4225445610127,-0.299781386608543],[73.42251662255663,-0.299699461468129],[73.42251088569111,-0.299687185405817],[73.42248502848223,-0.299631848260112],[73.42246003162893,-0.299578352368916],[73.42236452557366,-0.299442990845873],[73.42227962988652,-0.299332562980349],[73.4221911920594,-0.299247067622344],[73.42211144776275,-0.299164087321936],[73.42208506850702,-0.299136637603617],[73.42201408210845,-0.298986849292184],[73.42201425269431,-0.298981254786821],[73.422009215606,-0.298950318639735],[73.42200279706067,-0.298924300342487],[73.42199473554949,-0.298897545637771],[73.42198418943393,-0.298869285675934],[73.4219741159922,-0.298833713824313],[73.42195999110841,-0.298797518265348],[73.4219484803125,-0.298774559673897],[73.42193560274845,-0.298748018613277],[73.42192184503241,-0.298719899272815],[73.42190922538461,-0.298699009756308],[73.42189465255132,-0.29867942498618],[73.42187702037575,-0.298663217654492],[73.42185829884255,-0.298632078758266],[73.42184462834926,-0.298597071630961],[73.421808518028,-0.29853756868891],[73.42179059032098,-0.29851489586341],[73.42176460574719,-0.298483272978291],[73.42174335269671,-0.298458321525785],[73.42171549466099,-0.298429614110493],[73.42169840320142,-0.298407715561669],[73.421684088285,-0.298393783242472],[73.4216566753439,-0.298374773619458],[73.4216294368225,-0.298354776433104],[73.42160152854045,-0.29832564576073],[73.42157224664449,-0.298303146749808],[73.42154494488624,-0.298279326718361],[73.42152813719744,-0.298264478802702],[73.42151277587185,-0.298255724845739],[73.42149236652482,-0.298242274590345],[73.42146955218081,-0.298229747365471],[73.42145118472381,-0.298216613940319],[73.42142303773754,-0.298192006973559],[73.42139726532223,-0.298165652173155],[73.42136725070534,-0.298134563207474],[73.42133804729876,-0.298103430949287],[73.42129792586103,-0.298062938535603],[73.42128004611736,-0.298045208737354],[73.42125910404214,-0.298024442289592],[73.42121495968088,-0.297984949548367],[73.42116456075806,-0.297941222478316],[73.42115352923001,-0.297933001286844],[73.4211815636537,-0.2978862687046],[73.42120935832477,-0.297827448478534],[73.42121020556793,-0.297826399011649],[73.42120833141236,-0.297824159709713]]]]}},{"type":"Feature","properties":{"OBJECTID":"12","SHAPE_Leng":0,"wardName":"Maalegan","wardNameDI":null,"Shape_Le_1":2711.16333,"Shape_Area":346866.05344},"geometry":{"type":"MultiPolygon","coordinates":[[[[73.4317350953314,-0.296249030927357],[73.43183086229372,-0.296335231328043],[73.43185279043794,-0.296360147493095],[73.43188369315304,-0.296388906979631],[73.43191694439105,-0.2964159511738],[73.43193895147277,-0.296433310461128],[73.43199768872907,-0.29647392956826],[73.43201381958553,-0.296480695583603],[73.43203123914668,-0.2964880021404],[73.43207195453031,-0.2965102930233],[73.43209644226431,-0.296519049203055],[73.43211241479577,-0.29652611476783],[73.4321235676633,-0.296533372280469],[73.43218425758717,-0.296582830276663],[73.43222171692855,-0.296614570671033],[73.43224844557112,-0.296639441596436],[73.43227585023136,-0.296661046865922],[73.4322937154658,-0.296675330640427],[73.43231363326618,-0.296690747909003],[73.43235160696574,-0.296725305555831],[73.43236876305782,-0.296742047362775],[73.4323716539455,-0.296745237635211],[73.4324003063463,-0.296776857322926],[73.43242671219588,-0.296803768510518],[73.43245186411589,-0.296829511951949],[73.43245508468556,-0.296833261225842],[73.43249191758925,-0.296876140797345],[73.43251096728143,-0.296900100815863],[73.43255339880972,-0.296945827421715],[73.43257318717662,-0.296968137034582],[73.43258468196136,-0.296984291991635],[73.43260643340106,-0.297005311320473],[73.43263149325264,-0.297027783573041],[73.43265861775863,-0.297042107563584],[73.43266947399671,-0.297047448524916],[73.43267995923763,-0.297052606966194],[73.43270309583951,-0.297067900798728],[73.43272571306424,-0.297090505649382],[73.43273694860956,-0.297110317021559],[73.43274927372771,-0.297137379951933],[73.43275805125847,-0.29715069057932],[73.43277323115021,-0.297173710024257],[73.43279699880728,-0.297205183493671],[73.43282218564961,-0.297231739995637],[73.43284087762592,-0.297256930844881],[73.43286695978405,-0.297285881397511],[73.43291739612582,-0.29734060965572],[73.4329410706966,-0.29736965844465],[73.43297544643801,-0.297404763658419],[73.43300968645467,-0.297446764831564],[73.43304062087407,-0.297486461146182],[73.43308598333157,-0.29753491221703],[73.43309251005354,-0.297540342193584],[73.43310178971463,-0.297548062507481],[73.43311897983124,-0.297565617378125],[73.43314028047101,-0.297585438335273],[73.43315666386593,-0.297603027457902],[73.43316977299195,-0.297619118441657],[73.43319729794669,-0.297654094259106],[73.43321758043197,-0.297686603613842],[73.43322048716166,-0.297691262604461],[73.43325384416055,-0.297751935708998],[73.43327520333064,-0.297783507425101],[73.43328946791004,-0.297798342377529],[73.43330376561438,-0.297813984955694],[73.4333714955739,-0.297878567239335],[73.43337314680208,-0.297880539635236],[73.43356257780847,-0.298142255753423],[73.43360878957294,-0.298224139078415],[73.43363651784514,-0.298295168478393],[73.43366830942588,-0.298346588556731],[73.43369632279597,-0.29838357401738],[73.43373005743842,-0.298422761586412],[73.43379668508032,-0.29850035973574],[73.43386216678535,-0.298569093790043],[73.43396130862696,-0.298695657624855],[73.4340011449653,-0.298746763238394],[73.43404008059849,-0.298795473897097],[73.43409861340146,-0.298871775817999],[73.43413702965142,-0.298927797503368],[73.43419748917303,-0.299012128891302],[73.43438592560021,-0.299281059468283],[73.43455039274625,-0.299533926464026],[73.43467027839347,-0.299717229445034],[73.43469985468458,-0.299755118896068],[73.43464280573089,-0.299794765138139],[73.43437944468783,-0.299977788197635],[73.43419826966384,-0.300100385717152],[73.43417500550444,-0.300179067801878],[73.43405259187168,-0.300263654475364],[73.43396554993902,-0.300283025699279],[73.4337599467108,-0.300328782790033],[73.43276901241737,-0.300959684171568],[73.4314357042774,-0.301744965316125],[73.43077585094397,-0.302133600092092],[73.4305915468799,-0.301699006329875],[73.43005445543179,-0.300608786531954],[73.42954249031207,-0.299343622105125],[73.42944395408377,-0.299100120319783],[73.42882549091958,-0.297556635039374],[73.42819148962592,-0.29596454592293],[73.42799164852637,-0.295568266924204],[73.42790453456958,-0.295392686670196],[73.4280612889276,-0.295178302943207],[73.42771972640857,-0.294801359898281],[73.42745020279173,-0.294714536121781],[73.42750291606573,-0.294441919114634],[73.4275806635449,-0.294325986949383],[73.42751779407459,-0.293593477024796],[73.42748463369227,-0.293458228790491],[73.42763689589484,-0.293420428849544],[73.42789264934608,-0.293354661674205],[73.42807657825514,-0.293305052030144],[73.42828559423418,-0.293245028139776],[73.4283312733321,-0.29323191030307],[73.42833457141326,-0.293230963180828],[73.42835784351662,-0.293264482507422],[73.4283779576982,-0.293291933197421],[73.42845013505875,-0.293435433689248],[73.42847600985263,-0.2934631188743],[73.42849914120433,-0.293483602930057],[73.42851893911161,-0.293501807455422],[73.42853996411142,-0.293520359439848],[73.4285595506897,-0.293533689281368],[73.4285745713426,-0.293544381279998],[73.42859865449306,-0.293568080573567],[73.42861718679332,-0.293585121877557],[73.428705815105,-0.293661149190166],[73.42873354550863,-0.293685088665677],[73.42875411701269,-0.293702438656739],[73.428802240717,-0.293739670107703],[73.42886710507989,-0.29378995335526],[73.42894680675947,-0.293864337954047],[73.42899755566654,-0.293925624716004],[73.42908902025721,-0.294038851776943],[73.42919246650065,-0.294149181074577],[73.4293515001757,-0.294320601596227],[73.42958355623608,-0.294532216627692],[73.42960284516911,-0.294545095422705],[73.42970053554164,-0.294578638924358],[73.42980462541615,-0.294628955950694],[73.42987742423219,-0.294664146886055],[73.4300083130839,-0.294781704406104],[73.4300909835808,-0.294852147087766],[73.43014627911762,-0.294899263848845],[73.43029486072517,-0.294999014673941],[73.43037329307965,-0.295050354568218],[73.430507121577,-0.295137955422115],[73.4305955634538,-0.295198518672624],[73.43066985027343,-0.295276888249685],[73.43069015468964,-0.295302715978476],[73.43070150441537,-0.295309077258979],[73.43072209732348,-0.29532122342455],[73.43074195065981,-0.295335023613676],[73.43075354893502,-0.295343474069705],[73.43076980072041,-0.295357821807194],[73.4308364762535,-0.29542688052662],[73.43086445342594,-0.295452915550527],[73.43099450660766,-0.295578616169888],[73.43106875675541,-0.295649074743148],[73.43116416387747,-0.295739609917458],[73.4311887692054,-0.29576172755708],[73.43120039611505,-0.295770991067234],[73.43121877120984,-0.29578808755315],[73.43130192322482,-0.295877163694507],[73.43133080020802,-0.295905593681415],[73.43144444946313,-0.296012905769673],[73.43149336596245,-0.296059988942255],[73.43151559683203,-0.296083012448815],[73.43153968870249,-0.296102317369688],[73.43155674721206,-0.296116630865533],[73.43163211900514,-0.296171174506903],[73.43168969720938,-0.296213055061244],[73.43172628626881,-0.296243209019043],[73.4317350953314,-0.296249030927357]]]]}}]}